{
"type": "FeatureCollection",
"name": "Generacion_energia_MID",
"crs": { "type": "name", "properties": { "name": "urn:ogc:def:crs:OGC:1.3:CRS84" } },
"features": [
{ "type": "Feature", "properties": { "id": 4572908, "clee": "31050931210001523001041182S7", "nom_estab": "CENTRO NACIONAL DE CONTROL DE ENERGIA", "raz_social": "CFE GENERACION I EPS", "codigo_act": "221111", "nombre_act": "Generación de electricidad a partir de combustibles fósiles", "per_ocu": "0 a 5 personas", "tipo_vial": "AVENIDA", "nom_vial": "TECNOL?GICO (60)", "tipo_v_e_1": "CALLE", "nom_v_e_1": "1 BIS", "tipo_v_e_2": "CALLE", "nom_v_e_2": "1", "tipo_v_e_3": "AVENIDA", "nom_v_e_3": "50 DIAGONAL (PROLONGACI?N PASEO DE MONTEJO)", "numero_ext": "412", "letra_ext": "A", "edificio": null, "edificio_e": null, "numero_int": null, "letra_int": null, "tipo_asent": "COLONIA", "nomb_asent": "GONZALO GUERRERO", "tipoCenCom": null, "nom_CenCom": null, "num_local": null, "cod_postal": "97115", "cve_ent": "31", "entidad": "Yucat?n", "cve_mun": "050", "municipio": "M?rida", "cve_loc": "0001", "localidad": "M?rida", "ageb": "1453", "manzana": "031", "telefono": null, "correoelec": null, "www": "WWW.CENACE.GOB.MX", "tipoUniEco": "Fijo", "latitud": 21.0254653, "longitud": -89.62607861, "fecha_alta": "2026-04" }, "geometry": { "type": "Point", "coordinates": [ -89.62607861, 21.0254653 ] } },
{ "type": "Feature", "properties": { "id": 6862899, "clee": "31050221111000023000000000U8", "nom_estab": "ENERKIN", "raz_social": "ENERKIN", "codigo_act": "221111", "nombre_act": "Generación de electricidad a partir de combustibles fósiles", "per_ocu": "11 a 30 personas", "tipo_vial": "CALLE", "nom_vial": "15", "tipo_v_e_1": "CALLE", "nom_v_e_1": "28", "tipo_v_e_2": "PRIVADA", "nom_v_e_2": "13", "tipo_v_e_3": "CALLE", "nom_v_e_3": "NINGUNO", "numero_ext": "447", "letra_ext": null, "edificio": null, "edificio_e": null, "numero_int": "0", "letra_int": "SN", "tipo_asent": "COLONIA", "nomb_asent": "CIUDAD INDUSTRIAL", "tipoCenCom": null, "nom_CenCom": null, "num_local": null, "cod_postal": "97288", "cve_ent": "31", "entidad": "Yucat?n", "cve_mun": "050", "municipio": "M?rida", "cve_loc": "0001", "localidad": "M?rida", "ageb": "3549", "manzana": "003", "telefono": null, "correoelec": "SALCOCER@PROTEINOL.COM", "www": "WWW.E-KIN.COM.MX", "tipoUniEco": "Fijo", "latitud": 20.93400996, "longitud": -89.68210606, "fecha_alta": "2019-04" }, "geometry": { "type": "Point", "coordinates": [ -89.68210606, 20.93400996 ] } },
{ "type": "Feature", "properties": { "id": 9251103, "clee": "31050221111000113000000000U7", "nom_estab": "AES MERIDA III", "raz_social": "AES MERIDA III", "codigo_act": "221111", "nombre_act": "Generación de electricidad a partir de combustibles fósiles", "per_ocu": "31 a 50 personas", "tipo_vial": "CALLE", "nom_vial": "137", "tipo_v_e_1": "CALLE", "nom_v_e_1": "148", "tipo_v_e_2": "CALLE", "nom_v_e_2": "146", "tipo_v_e_3": "CALLE", "nom_v_e_3": "139", "numero_ext": null, "letra_ext": "SN", "edificio": null, "edificio_e": null, "numero_int": null, "letra_int": "SN", "tipo_asent": "CIUDAD INDUSTRIAL", "nomb_asent": "DIAMANTE PASEOS DE OPICH?N", "tipoCenCom": null, "nom_CenCom": null, "num_local": null, "cod_postal": "97288", "cve_ent": "31", "entidad": "Yucat?n", "cve_mun": "050", "municipio": "M?rida", "cve_loc": "0001", "localidad": "M?rida", "ageb": "6740", "manzana": "001", "telefono": null, "correoelec": "MARIA.CASTILLO@AES.COM", "www": "AESMEX.COM", "tipoUniEco": "Fijo", "latitud": 20.9363305, "longitud": -89.692405, "fecha_alta": "2020-04" }, "geometry": { "type": "Point", "coordinates": [ -89.692405, 20.9363305 ] } },
{ "type": "Feature", "properties": { "id": 9275973, "clee": "31050221111000121000041184S0", "nom_estab": "CENTRAL TERMOELECTRICA Y TURBOGAS MERIDA II", "raz_social": "CFE GENERACION VI EPS", "codigo_act": "221111", "nombre_act": "Generación de electricidad a partir de combustibles fósiles", "per_ocu": "101 a 250 personas", "tipo_vial": "CARRETERA", "nom_vial": "LICENCIADO MANUEL BERZUNZA", "tipo_v_e_1": "CALLE", "nom_v_e_1": "15", "tipo_v_e_2": "CALLE", "nom_v_e_2": "BENITO JU?REZ (21)", "tipo_v_e_3": "OTRO(ESPECIFIQUE)", "nom_v_e_3": "28", "numero_ext": null, "letra_ext": "MERIDA-UMAN KILOME", "edificio": null, "edificio_e": null, "numero_int": null, "letra_int": null, "tipo_asent": "CIUDAD INDUSTRIAL", "nomb_asent": "CD. INDUSTRIAL", "tipoCenCom": null, "nom_CenCom": null, "num_local": null, "cod_postal": "97288", "cve_ent": "31", "entidad": "Yucat?n", "cve_mun": "050", "municipio": "M?rida", "cve_loc": "0001", "localidad": "M?rida", "ageb": "5386", "manzana": "009", "telefono": null, "correoelec": null, "www": null, "tipoUniEco": "Fijo", "latitud": 20.92569046, "longitud": -89.68868193, "fecha_alta": "2020-11" }, "geometry": { "type": "Point", "coordinates": [ -89.68868193, 20.92569046 ] } },
{ "type": "Feature", "properties": { "id": 9415292, "clee": "31050221111000191000058542S3", "nom_estab": "FIDE MERIDA", "raz_social": "FIDEICOMISO PARA EL AHORRO DE ENERGIA ELECTRICA GOBIERNO FEDERAL", "codigo_act": "221111", "nombre_act": "Generación de electricidad a partir de combustibles fósiles", "per_ocu": "0 a 5 personas", "tipo_vial": "AVENIDA", "nom_vial": "ROMULO ROZO 58 A", "tipo_v_e_1": "CALLE", "nom_v_e_1": null, "tipo_v_e_2": "CALLE", "nom_v_e_2": null, "tipo_v_e_3": "CALLE", "nom_v_e_3": null, "numero_ext": "476", "letra_ext": null, "edificio": null, "edificio_e": null, "numero_int": null, "letra_int": null, "tipo_asent": "COLONIA", "nomb_asent": "ITZIMNA", "tipoCenCom": null, "nom_CenCom": "PLAZA MONUMENTO", "num_local": null, "cod_postal": "97100", "cve_ent": "31", "entidad": "Yucat?n", "cve_mun": "050", "municipio": "M?rida", "cve_loc": "0001", "localidad": "M?rida", "ageb": "5210", "manzana": "022", "telefono": null, "correoelec": "ARMANDO.LOPEZ06@CFE.GOBMX", "www": null, "tipoUniEco": "Fijo", "latitud": 20.99087623, "longitud": -89.61540954, "fecha_alta": "2026-04" }, "geometry": { "type": "Point", "coordinates": [ -89.61540954, 20.99087623 ] } },
{ "type": "Feature", "properties": { "id": 9480624, "clee": "31050221111000205000041184S1", "nom_estab": "SEDE SUBGERENCIA DE PRODUCCION TERMOELECTRICA PENINSULAR", "raz_social": "CFE GENERACION VI EPS", "codigo_act": "221111", "nombre_act": "Generación de electricidad a partir de combustibles fósiles", "per_ocu": "51 a 100 personas", "tipo_vial": "CALLE", "nom_vial": "27 (39)", "tipo_v_e_1": "CALLE", "nom_v_e_1": "16", "tipo_v_e_2": "CALLE", "nom_v_e_2": "20 A", "tipo_v_e_3": "OTRO(ESPECIFIQUE)", "nom_v_e_3": "Ninguno", "numero_ext": null, "letra_ext": "SN", "edificio": null, "edificio_e": null, "numero_int": null, "letra_int": null, "tipo_asent": "COLONIA", "nomb_asent": "MAYAPAN", "tipoCenCom": null, "nom_CenCom": null, "num_local": null, "cod_postal": "97159", "cve_ent": "31", "entidad": "Yucat?n", "cve_mun": "050", "municipio": "M?rida", "cve_loc": "0001", "localidad": "M?rida", "ageb": "2930", "manzana": "009", "telefono": null, "correoelec": "GILDARDO.CHAVEZM@CFE.MX", "www": "WWW.CFE.MX", "tipoUniEco": "Fijo", "latitud": 20.98058378, "longitud": -89.5946627, "fecha_alta": "2024-05" }, "geometry": { "type": "Point", "coordinates": [ -89.5946627, 20.98058378 ] } }
]
}
