{
"type": "FeatureCollection",
"name": "MID_UTM16",
"crs": { "type": "name", "properties": { "name": "urn:ogc:def:crs:OGC:1.3:CRS84" } },
"features": [
{ "type": "Feature", "properties": { "CVEGEO": "31050", "NOM_ENT": "Yucatán", "NOMGEO": "Mérida", "POB1": 995129.0, "POB2": 35112.0, "POB2_R": 3.5, "POB4": 41187.0, "POB4_R": 4.1, "POB5": 81265.0, "POB5_R": 8.2, "POB6": 96260.0, "POB6_R": 9.7, "POB7": 42029.0, "POB7_R": 4.2, "POB8": 199593.0, "POB8_R": 20.1, "POB9": 44254.0, "POB9_R": 4.5, "POB10": 162224.0, "POB10_R": 16.3, "POB11": 245110.0, "POB11_R": 24.7, "POB12": 696445.0, "POB12_R": 70.2, "POB13": 117970.0, "POB13_R": 11.9, "POB14": 296339.0, "POB14_R": 29.9, "POB15": 111761.0, "POB15_R": 11.3, "POB17": 957485.0, "POB17_R": 96.5, "POB18": 930197.0, "POB18_R": 93.7, "POB19": 835033.0, "POB19_R": 84.1, "POB20": 793004.0, "POB20_R": 79.9, "POB21": 748750.0, "POB21_R": 75.4, "POB22": 630780.0, "POB22_R": 63.5, "POB23": 139794.0, "POB23_R": 14.1, "POB24": 96559.0, "POB24_R": 9.7, "POB25": 62500.0, "POB25_R": 6.3, "POB42": 515760.0, "POB42_R": 52.0, "POB43": 17208.0, "POB43_R": 1.7, "POB45": 20301.0, "POB45_R": 2.0, "POB46": 40093.0, "POB46_R": 4.0, "POB47": 47507.0, "POB47_R": 4.8, "POB48": 20725.0, "POB48_R": 2.1, "POB49": 98327.0, "POB49_R": 9.9, "POB50": 21824.0, "POB50_R": 2.2, "POB51": 80871.0, "POB51_R": 8.1, "POB52": 122864.0, "POB52_R": 12.4, "POB53": 277240.0, "POB53_R": 27.9, "POB54": 361224.0, "POB54_R": 36.4, "POB55": 59047.0, "POB55_R": 5.9, "POB56": 154376.0, "POB56_R": 15.6, "POB57": 60323.0, "POB57_R": 6.1, "POB59": 497285.0, "POB59_R": 50.1, "POB60": 483856.0, "POB60_R": 48.7, "POB61": 436891.0, "POB61_R": 44.0, "POB62": 416166.0, "POB62_R": 41.9, "POB63": 394342.0, "POB63_R": 39.7, "POB64": 335295.0, "POB64_R": 33.8, "POB65": 78603.0, "POB65_R": 7.9, "POB66": 54942.0, "POB66_R": 5.5, "POB67": 36059.0, "POB67_R": 3.6, "POB84": 479369.0, "POB84_R": 48.3, "POB85": 17904.0, "POB85_R": 1.8, "POB87": 20886.0, "POB87_R": 2.1, "POB88": 41172.0, "POB88_R": 4.1, "POB89": 48753.0, "POB89_R": 4.9, "POB90": 21304.0, "POB90_R": 2.1, "POB91": 101266.0, "POB91_R": 10.2, "POB92": 22430.0, "POB92_R": 2.3, "POB93": 81353.0, "POB93_R": 8.2, "POB94": 122246.0, "POB94_R": 12.3, "POB95": 335221.0, "POB95_R": 33.8, "POB96": 58923.0, "POB96_R": 5.9, "POB97": 141963.0, "POB97_R": 14.3, "POB98": 51438.0, "POB98_R": 5.2, "POB100": 460200.0, "POB100_R": 46.4, "POB101": 446341.0, "POB101_R": 45.0, "POB102": 398142.0, "POB102_R": 40.1, "POB103": 376838.0, "POB103_R": 38.0, "POB104": 354408.0, "POB104_R": 35.7, "POB105": 295485.0, "POB105_R": 29.8, "POB106": 61191.0, "POB106_R": 6.2, "POB107": 41617.0, "POB107_R": 4.2, "POB108": 26441.0, "POB108_R": 2.7, "POB125_R": 92.9, "POB126_R": 42.5, "POB127_R": 28.7, "POB128_R": 13.9, "POB129_R": 33.0, "POB130_R": 34.0, "POB131_R": 31.0, "POB132_R": 70.0, "POB133_R": 79.9, "POB134_R": 60.4, "POB3": 62400.0, "POB3_R": 6.3, "POB16": 43235.0, "POB16_R": 4.4, "POB26": 67459.0, "POB26_R": 6.8, "POB27": 69734.0, "POB27_R": 7.0, "POB28": 77183.0, "POB28_R": 7.8, "POB29": 85041.0, "POB29_R": 8.6, "POB30": 82886.0, "POB30_R": 8.4, "POB31": 80439.0, "POB31_R": 8.1, "POB32": 75881.0, "POB32_R": 7.6, "POB33": 71046.0, "POB33_R": 7.2, "POB34": 68973.0, "POB34_R": 6.9, "POB35": 60440.0, "POB35_R": 6.1, "POB36": 51321.0, "POB36_R": 5.2, "POB37": 34059.0, "POB37_R": 3.4, "POB38": 26031.0, "POB38_R": 2.6, "POB39": 16979.0, "POB39_R": 1.7, "POB40": 10809.0, "POB40_R": 1.1, "POB41": 8681.0, "POB41_R": 0.9, "POB44": 30637.0, "POB44_R": 3.1, "POB58": 23661.0, "POB58_R": 2.4, "POB68": 33290.0, "POB68_R": 3.4, "POB69": 34400.0, "POB69_R": 3.5, "POB70": 38278.0, "POB70_R": 3.9, "POB71": 42593.0, "POB71_R": 4.3, "POB72": 41993.0, "POB72_R": 4.2, "POB73": 41142.0, "POB73_R": 4.1, "POB74": 39166.0, "POB74_R": 3.9, "POB75": 37365.0, "POB75_R": 3.8, "POB76": 36703.0, "POB76_R": 3.7, "POB77": 32669.0, "POB77_R": 3.3, "POB78": 27654.0, "POB78_R": 2.8, "POB79": 18883.0, "POB79_R": 1.9, "POB80": 14576.0, "POB80_R": 1.5, "POB81": 9519.0, "POB81_R": 1.0, "POB82": 6451.0, "POB82_R": 0.6, "POB83": 5513.0, "POB83_R": 0.6, "POB86": 31763.0, "POB86_R": 3.2, "POB99": 19574.0, "POB99_R": 2.0, "POB109": 34169.0, "POB109_R": 3.4, "POB110": 35334.0, "POB110_R": 3.6, "POB111": 38905.0, "POB111_R": 3.9, "POB112": 42448.0, "POB112_R": 4.3, "POB113": 40893.0, "POB113_R": 4.1, "POB114": 39297.0, "POB114_R": 4.0, "POB115": 36715.0, "POB115_R": 3.7, "POB116": 33681.0, "POB116_R": 3.4, "POB117": 32270.0, "POB117_R": 3.3, "POB118": 27771.0, "POB118_R": 2.8, "POB119": 23667.0, "POB119_R": 2.4, "POB120": 15176.0, "POB120_R": 1.5, "POB121": 11455.0, "POB121_R": 1.2, "POB122": 7460.0, "POB122_R": 0.8, "POB123": 4358.0, "POB123_R": 0.4, "POB124": 3168.0, "POB124_R": 0.3, "OID": 50 }, "geometry": { "type": "MultiPolygon", "coordinates": [ [ [ [ -89.577661909256292, 21.190307121185743 ], [ -89.575085539681524, 21.189691651086964 ], [ -89.572455320484295, 21.188234939840182 ], [ -89.566937480086565, 21.186436880448174 ], [ -89.569054950251171, 21.171819710987524 ], [ -89.567104920175964, 21.172113060041625 ], [ -89.566324648966599, 21.163976920983018 ], [ -89.565104599742398, 21.163375091065841 ], [ -89.562887750214344, 21.162136889933645 ], [ -89.561179780269214, 21.161895950551344 ], [ -89.559312249305066, 21.1612889407251 ], [ -89.557645688541697, 21.160500710813984 ], [ -89.556535250385295, 21.160403920907473 ], [ -89.555345648874322, 21.159812310633278 ], [ -89.554922979684022, 21.159478999828927 ], [ -89.554382088696713, 21.159185000152974 ], [ -89.554731308749709, 21.157718449676096 ], [ -89.553324939575845, 21.156703619550875 ], [ -89.55367585849315, 21.154046180562887 ], [ -89.554120219481362, 21.152074680119245 ], [ -89.554210310283679, 21.151191380398011 ], [ -89.554844119109603, 21.147890340117165 ], [ -89.55080391899682, 21.147731601116838 ], [ -89.551154518900816, 21.146069600480175 ], [ -89.551240178906014, 21.14522145027167 ], [ -89.551464229531433, 21.143347880054804 ], [ -89.555784819721381, 21.143901369701098 ], [ -89.557330660032164, 21.136805230788621 ], [ -89.561485779168436, 21.137311910728304 ], [ -89.562021950001181, 21.135077030443632 ], [ -89.562020618802606, 21.133583030853789 ], [ -89.558096348931059, 21.133322169773479 ], [ -89.558820509731817, 21.127993370870577 ], [ -89.552237750219106, 21.126760170708536 ], [ -89.552052420272346, 21.127596381114518 ], [ -89.543367309730101, 21.126453859987333 ], [ -89.543133349069763, 21.125432140467268 ], [ -89.54283582996031, 21.124276680218486 ], [ -89.541330548668597, 21.123223379907916 ], [ -89.539637879327415, 21.122239259857661 ], [ -89.538269290036482, 21.123130430053255 ], [ -89.537060310414645, 21.123188370352086 ], [ -89.535952259277451, 21.123829510282125 ], [ -89.536177938721409, 21.122116771145578 ], [ -89.53632737871942, 21.122071461179335 ], [ -89.536608889740634, 21.119918910957193 ], [ -89.538908950249677, 21.118967460598036 ], [ -89.540622908776896, 21.118260340727623 ], [ -89.5409878590076, 21.116739551245573 ], [ -89.541017978764984, 21.116632600372991 ], [ -89.541336090273418, 21.115503141287352 ], [ -89.541404088707594, 21.114777830433503 ], [ -89.541524149255551, 21.114460650253378 ], [ -89.546094659167906, 21.11493628062151 ], [ -89.54988467921514, 21.115324380634537 ], [ -89.550004939715222, 21.114467540460229 ], [ -89.550219828661639, 21.112764260419201 ], [ -89.55032587946036, 21.111841631155258 ], [ -89.55045165906121, 21.110799420740456 ], [ -89.550537419340202, 21.110088830466786 ], [ -89.551011919516625, 21.106569111542953 ], [ -89.552193949221916, 21.09693132158262 ], [ -89.552250168595435, 21.096591341165162 ], [ -89.552862828942011, 21.091535651661378 ], [ -89.553158780783377, 21.088646871293506 ], [ -89.553315873090028, 21.087113446089976 ], [ -89.553327127273462, 21.087003593168124 ], [ -89.5533271796848, 21.087003080145614 ], [ -89.554257073398645, 21.087422547794013 ], [ -89.554258029057294, 21.08742297918922 ], [ -89.557458601372971, 21.088866669972624 ], [ -89.557630749681778, 21.088944319562408 ], [ -89.557624450051392, 21.088579090636276 ], [ -89.557610803587892, 21.088219619081702 ], [ -89.557610798942022, 21.088219491198625 ], [ -89.558865378973266, 21.088353380551663 ], [ -89.558904024461114, 21.088357093847982 ], [ -89.559955050002998, 21.088458081128024 ], [ -89.562988738110818, 21.088762625959788 ], [ -89.562989880314248, 21.088762741008757 ], [ -89.563226320337705, 21.08817772122784 ], [ -89.563799858851468, 21.087094550668695 ], [ -89.56405551021119, 21.0867061406082 ], [ -89.564155080277288, 21.085631050928086 ], [ -89.564304228615867, 21.083961170854003 ], [ -89.564805108917156, 21.082411800519782 ], [ -89.565203308533498, 21.081601690881993 ], [ -89.565558749123539, 21.080878570547945 ], [ -89.565840090197526, 21.079792680671595 ], [ -89.566277229587413, 21.078105480925718 ], [ -89.566376829292409, 21.075528060922689 ], [ -89.566181830251438, 21.073611890645324 ], [ -89.566083689396066, 21.072647509834471 ], [ -89.565186769618478, 21.072329511198209 ], [ -89.564290879246741, 21.072011878793749 ], [ -89.563178618909859, 21.071617510472656 ], [ -89.562171580447583, 21.071082489926219 ], [ -89.562130489336568, 21.07098240088013 ], [ -89.562084848693729, 21.069979260713108 ], [ -89.562026919280825, 21.068706030929661 ], [ -89.561983549880907, 21.067752970674519 ], [ -89.561810109196117, 21.067288650390683 ], [ -89.562102349002046, 21.063909850904619 ], [ -89.562101138436404, 21.063910120044952 ], [ -89.561621889230722, 21.064016371102902 ], [ -89.561113888476171, 21.064035940962839 ], [ -89.56111374775756, 21.064035899424134 ], [ -89.558930829582238, 21.063392890506162 ], [ -89.558929943198621, 21.063392980260147 ], [ -89.558321769704136, 21.063454430761883 ], [ -89.558321327539218, 21.063454354594271 ], [ -89.557776230103656, 21.063361880833753 ], [ -89.557581620038604, 21.063312780828628 ], [ -89.557544754614085, 21.063298300564831 ], [ -89.557362287821121, 21.063226629294476 ], [ -89.554080419337879, 21.06193749077293 ], [ -89.553272849413801, 21.061779511162818 ], [ -89.552975519008612, 21.061642520304488 ], [ -89.552078620152855, 21.06164437020297 ], [ -89.551550418982941, 21.061608060206204 ], [ -89.550632259484573, 21.061786340293459 ], [ -89.550253888525134, 21.061930370987326 ], [ -89.549611108782699, 21.061997831059251 ], [ -89.549063459209265, 21.062220230774276 ], [ -89.549062839213391, 21.062220000709278 ], [ -89.548068200163499, 21.061851690811775 ], [ -89.548036909667644, 21.061305030473946 ], [ -89.548076938993589, 21.060414650600453 ], [ -89.548075749595355, 21.06041468092528 ], [ -89.546221018677727, 21.060461720985799 ], [ -89.546220912589888, 21.06046169319146 ], [ -89.544014459899628, 21.059891219921585 ], [ -89.543783999512144, 21.059778600546718 ], [ -89.542822369078067, 21.059308750729706 ], [ -89.541707939112044, 21.057207859966351 ], [ -89.541102320207301, 21.056066120668952 ], [ -89.540734748604791, 21.05537317054976 ], [ -89.540709721522632, 21.055325987684661 ], [ -89.540655463480448, 21.055223696410593 ], [ -89.540141349616022, 21.054254449766972 ], [ -89.53969474862744, 21.053412460701786 ], [ -89.539600175318597, 21.053234163617574 ], [ -89.539526936725338, 21.053096088369145 ], [ -89.539506873528964, 21.053058278231891 ], [ -89.539477399392126, 21.05300269526191 ], [ -89.539449635745967, 21.052950353183331 ], [ -89.53943828694679, 21.052928956570664 ], [ -89.539235780110587, 21.05254716984501 ], [ -89.539231876846529, 21.052539811649702 ], [ -89.539231427688591, 21.052538964373156 ], [ -89.539042745153424, 21.052183231726463 ], [ -89.539001933995181, 21.052106287591865 ], [ -89.538991760247541, 21.052087107208955 ], [ -89.538972983379935, 21.052051706330882 ], [ -89.538772599264306, 21.051673910341918 ], [ -89.538765535328849, 21.05166059160182 ], [ -89.538760335886693, 21.051650787738755 ], [ -89.538563182477631, 21.051279046984636 ], [ -89.53852430942041, 21.051205750211853 ], [ -89.53824841895694, 21.050837511215494 ], [ -89.538125180242346, 21.050711894579656 ], [ -89.538124916209227, 21.050711624359057 ], [ -89.538124853130597, 21.050711561824766 ], [ -89.53809552371483, 21.050681665739372 ], [ -89.538094319199402, 21.050680437934755 ], [ -89.53808048981324, 21.050666341881406 ], [ -89.538067398407691, 21.050653001973096 ], [ -89.538054318807156, 21.050639681243517 ], [ -89.537940578847284, 21.050523739952947 ], [ -89.536978768771277, 21.050408749917271 ], [ -89.536889429104221, 21.050398061072887 ], [ -89.533945309776087, 21.050046060057252 ], [ -89.533853888505533, 21.050035140834453 ], [ -89.530034059281775, 21.049578350753556 ], [ -89.529936339954205, 21.049566660595406 ], [ -89.526925260142718, 21.049206521261002 ], [ -89.526831628605777, 21.049195320302985 ], [ -89.524560249439716, 21.048923620663061 ], [ -89.520131179474077, 21.048393719813561 ], [ -89.520184799305298, 21.046204001873136 ], [ -89.519180428779038, 21.045672370882215 ], [ -89.517566568983511, 21.044890260716738 ], [ -89.517087018370347, 21.044632821951705 ], [ -89.516724659214901, 21.044612551816751 ], [ -89.516724378011929, 21.044612602550874 ], [ -89.515197539883573, 21.044888171975494 ], [ -89.515196610980709, 21.044888125015476 ], [ -89.514818080137857, 21.044869051857376 ], [ -89.514349889715376, 21.044738280762747 ], [ -89.514348700623287, 21.044738288070572 ], [ -89.513523148854347, 21.044744919420829 ], [ -89.51352310586455, 21.044744912255297 ], [ -89.511216349486034, 21.044215350509607 ], [ -89.510862719929975, 21.0441646015793 ], [ -89.510523579565898, 21.044055402116175 ], [ -89.510522703906318, 21.044055502477534 ], [ -89.50987831026508, 21.044129492118344 ], [ -89.509878313246176, 21.044129355751291 ], [ -89.509900448911438, 21.042971261407768 ], [ -89.509917689931584, 21.041527340452461 ], [ -89.509970920230629, 21.039080482099411 ], [ -89.510006378761332, 21.036737710981509 ], [ -89.510040819214183, 21.034597480765751 ], [ -89.510093569771342, 21.031616540784086 ], [ -89.510132940891779, 21.029484038758888 ], [ -89.510132975918665, 21.029482139106626 ], [ -89.510157638192325, 21.028146289320961 ], [ -89.510199719697994, 21.025866830955543 ], [ -89.510174818648863, 21.02586594639153 ], [ -89.510162044372123, 21.025865491230199 ], [ -89.510161406242005, 21.025865468975375 ], [ -89.509143628685564, 21.025829281061888 ], [ -89.508963509043198, 21.025824445536628 ], [ -89.507800719376775, 21.025793220813672 ], [ -89.506871379824645, 21.025765120945142 ], [ -89.506775219058923, 21.025763230746584 ], [ -89.506682230172757, 21.025757690786506 ], [ -89.506581539067753, 21.025753510992935 ], [ -89.506484479927821, 21.025748431326484 ], [ -89.50638765982977, 21.025743680848144 ], [ -89.50591705864079, 21.025716520878344 ], [ -89.505726281414695, 21.025713751080524 ], [ -89.505726178952585, 21.025713747232096 ], [ -89.50573459932842, 21.025863491230396 ], [ -89.505487349847144, 21.025869370656871 ], [ -89.505332619137491, 21.025877460575263 ], [ -89.503776619177046, 21.025920260789061 ], [ -89.503632979512346, 21.025927950808537 ], [ -89.50276885863795, 21.025942490496771 ], [ -89.501261378939731, 21.026125110461763 ], [ -89.499897169259171, 21.026329520723934 ], [ -89.499812689754933, 21.026393740509395 ], [ -89.499783719713108, 21.026415750625944 ], [ -89.499778999766804, 21.026491481061729 ], [ -89.499107480275057, 21.02963912098102 ], [ -89.499146118909536, 21.029647080595225 ], [ -89.500455050412398, 21.02991654050874 ], [ -89.500051560267451, 21.032103636851531 ], [ -89.500047841157652, 21.032123794284725 ], [ -89.499985509890081, 21.032461651492209 ], [ -89.499979855499845, 21.032502811244598 ], [ -89.499975514782548, 21.03253440031698 ], [ -89.499936902707191, 21.032815476087183 ], [ -89.499899825889329, 21.033085370087257 ], [ -89.499855753509266, 21.033406193619204 ], [ -89.499855470293824, 21.033408256895274 ], [ -89.499850118948302, 21.033447202020128 ], [ -89.500264310121025, 21.033572522047347 ], [ -89.500263825275411, 21.033574781897126 ], [ -89.500106314939643, 21.034309229415548 ], [ -89.500101230061119, 21.034332939670659 ], [ -89.500096984225564, 21.034352731525882 ], [ -89.500092600636904, 21.034373169636872 ], [ -89.500053897887639, 21.034553634079362 ], [ -89.500008474645497, 21.034765437796818 ], [ -89.499941859983409, 21.035076051860635 ], [ -89.499931005434561, 21.035139573707543 ], [ -89.499701349965719, 21.036483541244476 ], [ -89.49970016761948, 21.03648350800222 ], [ -89.498322403481595, 21.036443631751197 ], [ -89.498317199547813, 21.036443479841488 ], [ -89.498317194425269, 21.03644351402956 ], [ -89.498316318707012, 21.036449493168959 ], [ -89.498313151629674, 21.036471125807182 ], [ -89.497995459713962, 21.038641250360548 ], [ -89.489118829387863, 21.039398029507392 ], [ -89.486444909893194, 21.038604020976809 ], [ -89.480298910049044, 21.036722620057152 ], [ -89.480385460174006, 21.036388999741437 ], [ -89.480326370355087, 21.03638223033224 ], [ -89.480297688873037, 21.036379001261285 ], [ -89.47386468941616, 21.035667750168702 ], [ -89.465483888990079, 21.034670139851702 ], [ -89.460020049724363, 21.034030629861387 ], [ -89.460191089744868, 21.03390011133537 ], [ -89.460903089509912, 21.033619910397963 ], [ -89.461698318918621, 21.033124279864811 ], [ -89.463540060332335, 21.032339520376325 ], [ -89.463861259933111, 21.032207981048934 ], [ -89.465560378979902, 21.031227380859086 ], [ -89.466283450189053, 21.03064446115037 ], [ -89.468805369198904, 21.029314379509074 ], [ -89.469319849992161, 21.028974089670285 ], [ -89.469323219904524, 21.02842951052661 ], [ -89.468341630087423, 21.028551091080942 ], [ -89.467340719909785, 21.028687979977612 ], [ -89.465973029512952, 21.028710370976629 ], [ -89.46552967944281, 21.028648651299488 ], [ -89.466489200245405, 21.022740740037445 ], [ -89.470262430275852, 21.022439341012234 ], [ -89.470204979727129, 21.021863629587997 ], [ -89.469933620273011, 21.021628341202646 ], [ -89.4696902204346, 21.021419570457116 ], [ -89.469523949294683, 21.020939170258714 ], [ -89.469464539387388, 21.020106950321889 ], [ -89.470970509599283, 21.020791751167206 ], [ -89.47221365901396, 21.020499969819607 ], [ -89.472835369480549, 21.021012001303326 ], [ -89.474039649144501, 21.020840220879695 ], [ -89.474524059976673, 21.020529680157946 ], [ -89.475369079185299, 21.020312620359881 ], [ -89.475803769133265, 21.018912430861409 ], [ -89.476261379812073, 21.016732170945662 ], [ -89.476901219632225, 21.016567060618549 ], [ -89.477755120229659, 21.016546109840892 ], [ -89.478429259367203, 21.017701229724217 ], [ -89.478730858651957, 21.018253620289954 ], [ -89.478912948790835, 21.018280830939993 ], [ -89.479336448764585, 21.019319379457812 ], [ -89.479238309129855, 21.019743971259949 ], [ -89.480341289646375, 21.019644581148778 ], [ -89.489212448829647, 21.01989411952907 ], [ -89.489315418815906, 21.014923080716922 ], [ -89.491057779017865, 21.013451080241673 ], [ -89.491203279990273, 21.011713579914662 ], [ -89.49173077969364, 21.005346350588809 ], [ -89.491893948861531, 21.003741971240029 ], [ -89.500278029807319, 21.004515170498966 ], [ -89.499454829580912, 20.997375551280768 ], [ -89.495606629116864, 20.997370179653259 ], [ -89.495634368699001, 20.995815280891932 ], [ -89.495597200462925, 20.993524650008531 ], [ -89.498599458926947, 20.993494650486365 ], [ -89.498565059532552, 20.9915922610883 ], [ -89.498524030146712, 20.989864661108751 ], [ -89.498323860215734, 20.989383140849494 ], [ -89.498327018671873, 20.988808000024385 ], [ -89.49885116881245, 20.982154030416773 ], [ -89.499204779011365, 20.976619379613176 ], [ -89.499330688690677, 20.973676150398155 ], [ -89.498902379395005, 20.973677780703394 ], [ -89.497743550158418, 20.973875550111305 ], [ -89.497826709914861, 20.972304950296678 ], [ -89.497835538511197, 20.972163111061132 ], [ -89.49783894876056, 20.972108369707371 ], [ -89.497839600405584, 20.972053910094196 ], [ -89.497839908633651, 20.972028630489181 ], [ -89.493212199404681, 20.97247554091048 ], [ -89.489603058479744, 20.972929141124968 ], [ -89.48198461893908, 20.973864260995995 ], [ -89.48185677995977, 20.973879950078285 ], [ -89.481953708606682, 20.970171339723152 ], [ -89.481947049492319, 20.968433421086399 ], [ -89.481641078933578, 20.968619720648594 ], [ -89.481320430296606, 20.968712911239905 ], [ -89.481071799944417, 20.968716370324398 ], [ -89.480732259725187, 20.968670540025773 ], [ -89.480355089687535, 20.968687351143565 ], [ -89.480195739457599, 20.968757919710647 ], [ -89.480020998596345, 20.968719651143179 ], [ -89.479959339201386, 20.968493450035872 ], [ -89.480010978807982, 20.968007550175866 ], [ -89.480103348765326, 20.967835850932087 ], [ -89.480106489204204, 20.967094849705134 ], [ -89.480128680442888, 20.966760179718207 ], [ -89.476200860200308, 20.967136180871702 ], [ -89.472039178980737, 20.967491950361776 ], [ -89.472743600132077, 20.964592581165334 ], [ -89.463300399098799, 20.962579250068352 ], [ -89.462890599131001, 20.964159780441911 ], [ -89.451303478710201, 20.961828320782129 ], [ -89.451928350155072, 20.959099599867518 ], [ -89.457172719098253, 20.960173980688012 ], [ -89.457574150052977, 20.958653140474567 ], [ -89.457837739211271, 20.957654540590458 ], [ -89.458049118517692, 20.951689080325448 ], [ -89.473289818962428, 20.954969519622011 ], [ -89.472249259138721, 20.95272960120047 ], [ -89.479479818610614, 20.949850880589185 ], [ -89.483361538756526, 20.95796277062497 ], [ -89.483344178699696, 20.958161260367547 ], [ -89.483150248368446, 20.96007846763294 ], [ -89.483149138947184, 20.960089430626788 ], [ -89.483244382308527, 20.960093412459045 ], [ -89.4834069444737, 20.960100208410317 ], [ -89.484224672253404, 20.960134392002729 ], [ -89.484270261927307, 20.960136298017598 ], [ -89.48431166691789, 20.960138028604614 ], [ -89.485599193020704, 20.960191841792831 ], [ -89.485638148787828, 20.960193470029424 ], [ -89.486230430249989, 20.960218220976252 ], [ -89.486378800022536, 20.959458091313113 ], [ -89.491894658714472, 20.9612201705859 ], [ -89.49064544959441, 20.96732732069702 ], [ -89.494475109991797, 20.969217489878908 ], [ -89.494589020008419, 20.969250980068054 ], [ -89.497887520461106, 20.970220770107566 ], [ -89.498568118503783, 20.970478940935578 ], [ -89.498869620119677, 20.970689850572096 ], [ -89.499133110201086, 20.970978401124164 ], [ -89.499402779333948, 20.971185059493457 ], [ -89.499817250231018, 20.971456660952644 ], [ -89.5011841190328, 20.971808089779387 ], [ -89.501632950022497, 20.971885310675766 ], [ -89.50346756957444, 20.971879419733835 ], [ -89.503524060145665, 20.971897551208759 ], [ -89.503679490192354, 20.971947460276983 ], [ -89.503837020213723, 20.971997310150854 ], [ -89.503871338964998, 20.972008150916167 ], [ -89.503891769456686, 20.97402683120562 ], [ -89.503912119683434, 20.976035770256907 ], [ -89.503915709560701, 20.976389850432863 ], [ -89.503934740382945, 20.978268629804283 ], [ -89.503952618744449, 20.980032820805317 ], [ -89.503971599168793, 20.981905881169311 ], [ -89.505723509604636, 20.981898579871856 ], [ -89.507813548840161, 20.981889859699013 ], [ -89.509105878973344, 20.981884459864265 ], [ -89.510067719502842, 20.981880429762878 ], [ -89.511006088501588, 20.98187649091626 ], [ -89.512188879620794, 20.981871540499309 ], [ -89.513330599483183, 20.981866720291745 ], [ -89.514484518850281, 20.981861880646878 ], [ -89.515632218758057, 20.981857030710302 ], [ -89.516716279907655, 20.981852450101357 ], [ -89.517367819802288, 20.981849679896158 ], [ -89.518703290191155, 20.981844031296244 ], [ -89.520057799723517, 20.981838280744512 ], [ -89.522191518710542, 20.981829179669145 ], [ -89.524117629922003, 20.981820971066153 ], [ -89.526043310087985, 20.98181274113832 ], [ -89.527973369503684, 20.981804461202721 ], [ -89.529965909937943, 20.981795889780123 ], [ -89.530047258880757, 20.981795540776659 ], [ -89.530071718667699, 20.981683950389716 ], [ -89.531694909479228, 20.981675550889232 ], [ -89.533448629241931, 20.981654820303593 ], [ -89.533422569768504, 20.981785521200006 ], [ -89.534496569059883, 20.981788291022625 ], [ -89.534629997593143, 20.980976058341415 ], [ -89.534635445041658, 20.980942896872914 ], [ -89.534635473652358, 20.980942724361441 ], [ -89.534635630406285, 20.980941766391926 ], [ -89.54009253188292, 20.981675017290314 ], [ -89.540093845540724, 20.981913544149098 ], [ -89.541182799995696, 20.981911678156241 ], [ -89.541333173081512, 20.981881849858727 ], [ -89.541562748876657, 20.981886377401295 ], [ -89.541782476229471, 20.981743553849622 ], [ -89.542013330783277, 20.981895262403974 ], [ -89.542192984942076, 20.981898800584133 ], [ -89.542279574835604, 20.981914112242258 ], [ -89.542363135500054, 20.981913956684561 ], [ -89.542414602542237, 20.981908014431021 ], [ -89.542565439777832, 20.981913554869788 ], [ -89.543056858306443, 20.981912626181977 ], [ -89.543200511489758, 20.981912349311649 ], [ -89.544536908575083, 20.981909799033204 ], [ -89.5446820515116, 20.981909516912008 ], [ -89.544773513743834, 20.981909341337502 ], [ -89.544914071706842, 20.981909073863729 ], [ -89.546532637779464, 20.981853704293478 ], [ -89.546609049213941, 20.981870231253346 ], [ -89.547039372499569, 20.981855235330897 ], [ -89.547241861081062, 20.981852115804298 ], [ -89.553309756221978, 20.981860181749997 ], [ -89.558175291161419, 20.98186647564626 ], [ -89.558237983957341, 20.981865524881655 ], [ -89.558390148030639, 20.981826517424775 ], [ -89.55844730223815, 20.981805135709159 ], [ -89.558517456254833, 20.98179352732793 ], [ -89.558601318894389, 20.98180438400847 ], [ -89.558681782071176, 20.981839208907289 ], [ -89.558788434473158, 20.981847050185522 ], [ -89.561756452892482, 20.981838353818333 ], [ -89.562241199013201, 20.981821398086172 ], [ -89.562763046133213, 20.981801797511714 ], [ -89.563317484675849, 20.981787907810851 ], [ -89.563530227698465, 20.981785291598257 ], [ -89.563546954770743, 20.981669234655911 ], [ -89.563617985173451, 20.981158709627604 ], [ -89.563666062055987, 20.980817994082546 ], [ -89.563712021908145, 20.980489525568483 ], [ -89.563728251867914, 20.980370235315632 ], [ -89.563796586666228, 20.980009386899113 ], [ -89.563912200592469, 20.979148997584257 ], [ -89.563962646386543, 20.978772845781521 ], [ -89.563975478121733, 20.978677160663139 ], [ -89.564015591419889, 20.978406637784428 ], [ -89.564093627773133, 20.978103960745322 ], [ -89.5641446069192, 20.977913322399438 ], [ -89.564160841288597, 20.977852612718664 ], [ -89.564292866340068, 20.977056237967012 ], [ -89.564292991295133, 20.977055485024508 ], [ -89.564302456834298, 20.976998387261911 ], [ -89.564376207198023, 20.976483623641322 ], [ -89.564680378185471, 20.97436052806826 ], [ -89.564727519904508, 20.97408849071704 ], [ -89.564658544166633, 20.974034166766632 ], [ -89.564651184226264, 20.974028370510023 ], [ -89.564926001861807, 20.972110321845662 ], [ -89.565254375377606, 20.96988661549052 ], [ -89.565464073606876, 20.968466524485532 ], [ -89.565468621665062, 20.96843717888552 ], [ -89.565525572275718, 20.968069696838672 ], [ -89.565528608758498, 20.968050105849866 ], [ -89.565669803935023, 20.967106030068106 ], [ -89.565844178123456, 20.965913797915697 ], [ -89.565880843687225, 20.965663103454808 ], [ -89.565986396606732, 20.964978838137085 ], [ -89.566020777653719, 20.964799033823816 ], [ -89.566062608988588, 20.964639539988337 ], [ -89.566084213186542, 20.964341423620677 ], [ -89.566182070276767, 20.963654032708174 ], [ -89.566232031279085, 20.963337340889062 ], [ -89.566286821961057, 20.962991061636675 ], [ -89.566307529767855, 20.962784583550878 ], [ -89.566312041652466, 20.962731326551555 ], [ -89.566307127838215, 20.962688422913615 ], [ -89.566322888073259, 20.962559776063188 ], [ -89.566331384187535, 20.962493845523049 ], [ -89.566334079761674, 20.962442258851606 ], [ -89.566331209895509, 20.962385637199858 ], [ -89.56632185337142, 20.962335875120655 ], [ -89.566304811255421, 20.962288631042973 ], [ -89.566280338982367, 20.962246970163967 ], [ -89.566260794466373, 20.962222642622638 ], [ -89.566228161658458, 20.962191713390386 ], [ -89.566178647429084, 20.962146601147957 ], [ -89.566183835901157, 20.962136870829283 ], [ -89.566345254795323, 20.961962907394746 ], [ -89.566351246616179, 20.961956450011552 ], [ -89.566374260870532, 20.96193164730909 ], [ -89.566391873985154, 20.961907085759062 ], [ -89.566402367294899, 20.961889971375296 ], [ -89.566411832326608, 20.961872339570363 ], [ -89.566422161953597, 20.961849638566125 ], [ -89.566429188634942, 20.961831032728064 ], [ -89.566433723215582, 20.961816843236562 ], [ -89.566435093375731, 20.961812073027698 ], [ -89.566440469211628, 20.961790268950352 ], [ -89.566452322693166, 20.961739122121358 ], [ -89.566470808443455, 20.961653629235336 ], [ -89.566527279017123, 20.961361280367374 ], [ -89.566567748665094, 20.961026568997944 ], [ -89.566569073705708, 20.961015611710373 ], [ -89.566644904373149, 20.960588233198212 ], [ -89.566684486237406, 20.96023305981678 ], [ -89.566705685928966, 20.960042829338683 ], [ -89.566830763609786, 20.959312281670716 ], [ -89.5668329663485, 20.95929941353808 ], [ -89.567029417682676, 20.957978643654279 ], [ -89.567036154111861, 20.957933350031031 ], [ -89.567309538632003, 20.956226300246211 ], [ -89.567258515759661, 20.956044829718532 ], [ -89.567229105296192, 20.955667124411921 ], [ -89.567263766381032, 20.955438594732392 ], [ -89.567446849908364, 20.955284657136502 ], [ -89.567452268285024, 20.955133079605556 ], [ -89.567604484225441, 20.954114746257599 ], [ -89.567665825848735, 20.953714429197639 ], [ -89.56772569729003, 20.953406444879828 ], [ -89.567887135460523, 20.952735874003764 ], [ -89.567943753183883, 20.952536322049895 ], [ -89.567974178863977, 20.952452698623723 ], [ -89.568005112284922, 20.951999713475963 ], [ -89.568245254715762, 20.951415636352003 ], [ -89.568556098512602, 20.95072691449484 ], [ -89.568639647030707, 20.950533565174425 ], [ -89.568967582907675, 20.949949879989678 ], [ -89.56924914466579, 20.949602204508665 ], [ -89.569495866331692, 20.949241772481336 ], [ -89.569662892800423, 20.948999149562997 ], [ -89.569705392365734, 20.94890220709577 ], [ -89.570008581583394, 20.948459780516558 ], [ -89.570460825514871, 20.947904980194469 ], [ -89.570495492124877, 20.947925106530146 ], [ -89.570650211758604, 20.94782475602619 ], [ -89.570755080925949, 20.947804440085665 ], [ -89.570856370381847, 20.947702908645176 ], [ -89.571377958305391, 20.947179275982478 ], [ -89.572031705588032, 20.946808999769356 ], [ -89.572572637742297, 20.94640812741935 ], [ -89.573033862487435, 20.946079287359453 ], [ -89.573291398094923, 20.94578213426615 ], [ -89.573627863557604, 20.945565509123984 ], [ -89.573812501567517, 20.945433834041587 ], [ -89.574170773170579, 20.945156024047943 ], [ -89.574341653016219, 20.945071336325412 ], [ -89.574895854519454, 20.94463338297335 ], [ -89.575097421046536, 20.944557069203466 ], [ -89.575903429351399, 20.94389170078226 ], [ -89.576811699494058, 20.94322508233483 ], [ -89.577127366927058, 20.942983322332921 ], [ -89.577233571810154, 20.942894272013259 ], [ -89.57732710519582, 20.942855442728408 ], [ -89.577525606211438, 20.942740168211071 ], [ -89.577763969342627, 20.942517958890118 ], [ -89.578059447510469, 20.942313638062597 ], [ -89.578568379807351, 20.941962620593287 ], [ -89.579253405158269, 20.941504718700042 ], [ -89.579225157009006, 20.941426675546563 ], [ -89.583623733491294, 20.938241017336097 ], [ -89.583835838667582, 20.938071800704712 ], [ -89.583883953241141, 20.938017142305473 ], [ -89.583920442900933, 20.937984536984874 ], [ -89.584029458248153, 20.937899531289684 ], [ -89.584246265993485, 20.937736688721312 ], [ -89.584374543411585, 20.93764901610707 ], [ -89.584531717306547, 20.937542757402195 ], [ -89.585139718276054, 20.937057751443259 ], [ -89.585552916630377, 20.936746674857183 ], [ -89.586038577372335, 20.936409859071876 ], [ -89.586129194569807, 20.936335451056856 ], [ -89.587836664092336, 20.935081543526472 ], [ -89.58790358214371, 20.935034012713022 ], [ -89.588534818956191, 20.934557978282786 ], [ -89.588892373742326, 20.934290237549604 ], [ -89.58908399266457, 20.934138607137591 ], [ -89.58923011907595, 20.934092779811241 ], [ -89.589314133908076, 20.934056517723743 ], [ -89.589430285896341, 20.933971093430046 ], [ -89.589592165722408, 20.933843262258364 ], [ -89.589795110077219, 20.933664056777253 ], [ -89.589916442872166, 20.933572557958165 ], [ -89.590221099842381, 20.933352983444379 ], [ -89.590393491878018, 20.933253098699247 ], [ -89.59062613606342, 20.933102142791927 ], [ -89.59071797635346, 20.933033655771045 ], [ -89.590891627382774, 20.93290645674805 ], [ -89.590978575743577, 20.932843026547932 ], [ -89.591324912803557, 20.932562740105379 ], [ -89.591558320685792, 20.93239656759971 ], [ -89.591730163732208, 20.932279390410095 ], [ -89.591878688088059, 20.932183794469672 ], [ -89.592170690800657, 20.931984226684648 ], [ -89.592315106761106, 20.931887853058562 ], [ -89.592446112099367, 20.931803465076989 ], [ -89.59248955023736, 20.931776143208388 ], [ -89.592775817181234, 20.931584562308906 ], [ -89.592851828533171, 20.931419038137047 ], [ -89.593211168977163, 20.931144843583354 ], [ -89.593668737182838, 20.930832867679936 ], [ -89.593762543459988, 20.930765423580848 ], [ -89.594356379702617, 20.93032792374089 ], [ -89.594840012785852, 20.929975091346304 ], [ -89.595019534062715, 20.929836540431364 ], [ -89.595293674922246, 20.929640436413397 ], [ -89.596446085821754, 20.928788769873737 ], [ -89.596913778768254, 20.928453446354858 ], [ -89.597313062967288, 20.928168677013968 ], [ -89.597492784502876, 20.928057541701726 ], [ -89.598529892905901, 20.927290158826345 ], [ -89.598535294698323, 20.927286017417568 ], [ -89.599064226070652, 20.926880481215758 ], [ -89.599085451409508, 20.926864207694194 ], [ -89.599751406576559, 20.926396704776433 ], [ -89.601522930933882, 20.925153058174509 ], [ -89.60347576824293, 20.923719845810471 ], [ -89.604480200865353, 20.922913637547502 ], [ -89.604600561912989, 20.922811978769975 ], [ -89.604615769061141, 20.922824450112834 ], [ -89.60564071035445, 20.922065161190762 ], [ -89.60534778634117, 20.921715852312911 ], [ -89.605088896569015, 20.921397984132316 ], [ -89.604938626455592, 20.921214232201738 ], [ -89.604674961104635, 20.920891795690885 ], [ -89.604349561186623, 20.920489638674368 ], [ -89.604198026046717, 20.920288758992481 ], [ -89.604051634530776, 20.920078528801163 ], [ -89.603880205378076, 20.919807862224079 ], [ -89.603771759346813, 20.919616925416261 ], [ -89.603690652649519, 20.91946214574137 ], [ -89.603591508526421, 20.919257261473515 ], [ -89.603538128828006, 20.919136043377321 ], [ -89.603413682167982, 20.918814297553528 ], [ -89.603363272123687, 20.918669352846969 ], [ -89.603332667262706, 20.918581355124314 ], [ -89.603267573053586, 20.918369431928244 ], [ -89.60321050503363, 20.918148131756013 ], [ -89.603187651096135, 20.918059511163275 ], [ -89.603120270598765, 20.917739711427735 ], [ -89.603070914599115, 20.917481989840489 ], [ -89.602958900381822, 20.91690238256038 ], [ -89.602924002695445, 20.916715658754043 ], [ -89.602816233100953, 20.916150296796324 ], [ -89.602742903524884, 20.915766284286597 ], [ -89.60268317597162, 20.915457662730471 ], [ -89.602560963496046, 20.914822629402678 ], [ -89.602520142179486, 20.914627734121172 ], [ -89.602380492858615, 20.913894815181244 ], [ -89.602240170947283, 20.913176865800011 ], [ -89.602179258412534, 20.912861751757884 ], [ -89.602161307026421, 20.912755929153192 ], [ -89.602113952989015, 20.912508169948886 ], [ -89.602089753010731, 20.912387129403427 ], [ -89.602044943333055, 20.912144244294304 ], [ -89.602018531973243, 20.912015868998868 ], [ -89.601990603896027, 20.911879256638066 ], [ -89.601989911530566, 20.911877569351127 ], [ -89.601947530000871, 20.911653995757032 ], [ -89.601805104577977, 20.910920720066894 ], [ -89.601779517221544, 20.910771584368259 ], [ -89.601750659841528, 20.910625614490364 ], [ -89.601721028244725, 20.910484855836998 ], [ -89.601426101999067, 20.908945189128588 ], [ -89.601390824590027, 20.908755599064673 ], [ -89.601280400631907, 20.908185344953196 ], [ -89.60121933832329, 20.907862973292833 ], [ -89.601195262038914, 20.907749551079075 ], [ -89.601183435522017, 20.907690592972848 ], [ -89.601182476166343, 20.907689026907491 ], [ -89.601182042883565, 20.907687273299345 ], [ -89.601144223706541, 20.90748181287324 ], [ -89.601110663904606, 20.907304909140688 ], [ -89.601042107553653, 20.906949660661116 ], [ -89.601002279901607, 20.906740249471859 ], [ -89.600961253066941, 20.906519759581219 ], [ -89.600874464843102, 20.90607281221051 ], [ -89.600839574271689, 20.905884434827666 ], [ -89.600801231394925, 20.905695884657369 ], [ -89.600767765254304, 20.905512658968807 ], [ -89.600724231632455, 20.905276614832175 ], [ -89.600664102087435, 20.904980827176857 ], [ -89.600617253583096, 20.904723570899073 ], [ -89.600571794533607, 20.904483916960373 ], [ -89.600542587752244, 20.904339242826904 ], [ -89.600489309559265, 20.904065705749606 ], [ -89.600440426624786, 20.903804688747751 ], [ -89.60034945251742, 20.903338789677854 ], [ -89.600302660941594, 20.903103128659843 ], [ -89.600283110356145, 20.902995731832711 ], [ -89.600280888379359, 20.902987819795996 ], [ -89.600114775191656, 20.902211870896533 ], [ -89.599912931880468, 20.901162341950624 ], [ -89.599736308760768, 20.900297527937539 ], [ -89.599733366550979, 20.900282202263444 ], [ -89.599574406736693, 20.899454259705536 ], [ -89.599540477540074, 20.89927753925134 ], [ -89.599331781246619, 20.898192683940707 ], [ -89.599125790750108, 20.897111528697259 ], [ -89.598934347886626, 20.896106709135804 ], [ -89.598132287054639, 20.896280813492712 ], [ -89.597770032316518, 20.896359446982125 ], [ -89.59663803049142, 20.896624208332682 ], [ -89.596600123323938, 20.896633074355549 ], [ -89.595511471750442, 20.896875248899402 ], [ -89.594499842815253, 20.897091174584101 ], [ -89.59399385965969, 20.89723547640763 ], [ -89.593963136549235, 20.897198704752594 ], [ -89.593558692877764, 20.896714645921122 ], [ -89.592534419680803, 20.895497319404694 ], [ -89.591879491489109, 20.894966368572526 ], [ -89.591582355702428, 20.894642478921618 ], [ -89.591069568837099, 20.894057426782854 ], [ -89.590384045124182, 20.893237283830281 ], [ -89.590224041740512, 20.892743923424682 ], [ -89.590017718166038, 20.892107742637265 ], [ -89.5899064758663, 20.891758206279157 ], [ -89.588599247252233, 20.890511740921085 ], [ -89.587756196850265, 20.889628687035401 ], [ -89.586550253944196, 20.888634776050736 ], [ -89.585985742632644, 20.888188265471566 ], [ -89.584753442601325, 20.887445776615369 ], [ -89.584169686564351, 20.886673265318471 ], [ -89.583659152318859, 20.885651395229193 ], [ -89.583482723724913, 20.884818538607167 ], [ -89.583482715145834, 20.884818495108842 ], [ -89.583401841975885, 20.884093769778577 ], [ -89.58335404244113, 20.883535000407097 ], [ -89.583309534512168, 20.883014706879322 ], [ -89.583214424331203, 20.882589284176138 ], [ -89.58252102954755, 20.883622112553489 ], [ -89.581007701452222, 20.883534335071968 ], [ -89.579974449369544, 20.883481738886061 ], [ -89.578976851912515, 20.883592917556687 ], [ -89.577253441791839, 20.883356479387118 ], [ -89.575847479782482, 20.882308660259362 ], [ -89.569712210829437, 20.880566204029584 ], [ -89.566512149176816, 20.878870435790819 ], [ -89.56506932520503, 20.878744096783944 ], [ -89.563644337219586, 20.878652767271671 ], [ -89.566699817551282, 20.882041537257138 ], [ -89.566685020705805, 20.88217482728508 ], [ -89.570930345749787, 20.886684324832242 ], [ -89.570567889031011, 20.888815426984713 ], [ -89.567129321785728, 20.889998004793163 ], [ -89.562862549495136, 20.890191745924433 ], [ -89.561870596020285, 20.890236772331708 ], [ -89.563859462924029, 20.893591416668137 ], [ -89.559890867200423, 20.894366709272116 ], [ -89.558676735687428, 20.892744916798147 ], [ -89.558293011527255, 20.892004017959422 ], [ -89.557612305585053, 20.890954503385661 ], [ -89.556828557924163, 20.889731045283728 ], [ -89.55593794927178, 20.88682529547356 ], [ -89.55567380382513, 20.88600914992703 ], [ -89.554177698316238, 20.886163874781669 ], [ -89.552661723339924, 20.887606067555399 ], [ -89.550204806962611, 20.885364047832645 ], [ -89.545629019751374, 20.881371788181248 ], [ -89.548862711754424, 20.877604016950578 ], [ -89.549269598107955, 20.877104348470411 ], [ -89.551367341439729, 20.878891659046538 ], [ -89.552085441213876, 20.877632697905579 ], [ -89.552315690690378, 20.876107000950558 ], [ -89.552478051731754, 20.87544838148408 ], [ -89.552761040729166, 20.874813183010506 ], [ -89.55769811063, 20.877846556814053 ], [ -89.558113059599819, 20.877855326825145 ], [ -89.55812748577199, 20.877855629064818 ], [ -89.558141898941159, 20.877855935704037 ], [ -89.558234063552362, 20.87785787963022 ], [ -89.558253318674431, 20.877549886829208 ], [ -89.55827239376309, 20.877244749643257 ], [ -89.559055993221548, 20.873667066542371 ], [ -89.553015622547576, 20.872981375444368 ], [ -89.553015620628727, 20.872981291510786 ], [ -89.553005578667054, 20.872543582344917 ], [ -89.552977445807898, 20.87131723354198 ], [ -89.552968760844209, 20.87038216162999 ], [ -89.552968760344427, 20.870382125164515 ], [ -89.558900254708732, 20.871083686851666 ], [ -89.55877744769559, 20.870171387974736 ], [ -89.54710315466447, 20.856329225059 ], [ -89.545437197772387, 20.855349108046468 ], [ -89.54496326011386, 20.854826050221334 ], [ -89.544718447153599, 20.853791623313512 ], [ -89.544289900532945, 20.853151987609198 ], [ -89.544073909275625, 20.85245872167091 ], [ -89.543865412550332, 20.851789508020612 ], [ -89.543754549973698, 20.851261100180793 ], [ -89.543679564152853, 20.85090369050365 ], [ -89.543479109427977, 20.85041337986836 ], [ -89.541647879861671, 20.84614035085654 ], [ -89.54119909024692, 20.845055350773652 ], [ -89.539696718899989, 20.841444309517776 ], [ -89.538082649224023, 20.837478420564491 ], [ -89.561593318987804, 20.840401229751691 ], [ -89.561626969204497, 20.840405420717445 ], [ -89.561660620342522, 20.840409580790848 ], [ -89.570117858764618, 20.841460140362273 ], [ -89.57289479939206, 20.837475460096027 ], [ -89.575547678907213, 20.833895291231844 ], [ -89.578403909406092, 20.830022650822386 ], [ -89.585024119213614, 20.838708680817465 ], [ -89.584801919162729, 20.837131231199962 ], [ -89.585117170358174, 20.834965649628195 ], [ -89.585505689745787, 20.832166550103096 ], [ -89.585338740168083, 20.828732880353495 ], [ -89.584532568955268, 20.826769340273245 ], [ -89.583904849308539, 20.823098750547643 ], [ -89.583858778969173, 20.822705949582215 ], [ -89.586581510298416, 20.818965029615214 ], [ -89.585103280038012, 20.817770520821821 ], [ -89.585045769924122, 20.817723000972663 ], [ -89.585034489669127, 20.81771367972463 ], [ -89.585023219862038, 20.817704350222456 ], [ -89.581872199792983, 20.815100219900749 ], [ -89.581420619900527, 20.814957220774048 ], [ -89.58071965036936, 20.818625200283726 ], [ -89.575685478723457, 20.818033120399814 ], [ -89.576388418687642, 20.814331859495091 ], [ -89.568582449016759, 20.813412600759406 ], [ -89.566248818627329, 20.813170249727801 ], [ -89.566136569622486, 20.813688685301582 ], [ -89.566066090045481, 20.814014199757452 ], [ -89.564031127470685, 20.813847069478406 ], [ -89.564009748791065, 20.813845313008123 ], [ -89.564009710343882, 20.813845309865691 ], [ -89.564024540549383, 20.81373374668463 ], [ -89.564047425998453, 20.813561577681654 ], [ -89.564050895772226, 20.81353547562593 ], [ -89.564051018858393, 20.813534542333333 ], [ -89.56484690985198, 20.80754681986944 ], [ -89.554118709823101, 20.807791949691286 ], [ -89.554944289534944, 20.799074379886729 ], [ -89.567228088846917, 20.800210780375469 ], [ -89.568792828828862, 20.788035750938757 ], [ -89.566196249993624, 20.787431259852177 ], [ -89.564771089453004, 20.787135600820701 ], [ -89.569545510105826, 20.778662079920533 ], [ -89.569930650328786, 20.778024649910794 ], [ -89.579088819821393, 20.761760460810091 ], [ -89.58000003005175, 20.759299020844125 ], [ -89.580006349925142, 20.759281920011219 ], [ -89.58001267957799, 20.759264860040219 ], [ -89.58342811956625, 20.75003818034147 ], [ -89.583692908767631, 20.750043109664883 ], [ -89.584919459351539, 20.749148310837274 ], [ -89.585554520097332, 20.746320539681509 ], [ -89.585571120468686, 20.746246649642611 ], [ -89.585587710214341, 20.746172769666131 ], [ -89.585825919381818, 20.745112030539904 ], [ -89.584209059262278, 20.74452414047509 ], [ -89.581428568658268, 20.743513111227987 ], [ -89.580931019090897, 20.743332180141966 ], [ -89.580297884121578, 20.743075131985492 ], [ -89.580194749159389, 20.743033259731163 ], [ -89.580168961972248, 20.743022789781175 ], [ -89.5800716498253, 20.742983280467964 ], [ -89.579622000360942, 20.743015351664273 ], [ -89.578282467906618, 20.74311088331336 ], [ -89.577337220090214, 20.743178289884426 ], [ -89.576381549775292, 20.743246433572136 ], [ -89.576138741775907, 20.743263745549744 ], [ -89.576127600178893, 20.743264539857165 ], [ -89.575993105990349, 20.743274127634262 ], [ -89.575978692529318, 20.743275155426844 ], [ -89.575953598379968, 20.743276944145723 ], [ -89.575944119944836, 20.743277620274789 ], [ -89.576001734819684, 20.742764834894921 ], [ -89.576206172234834, 20.740945283249786 ], [ -89.576305295891345, 20.74006303635591 ], [ -89.576338540051751, 20.739767140631336 ], [ -89.577393459991683, 20.731196169977292 ], [ -89.577519228879282, 20.729876400903759 ], [ -89.583537380251713, 20.731500051193123 ], [ -89.587132719605336, 20.72819366016267 ], [ -89.588940539537631, 20.727021401039742 ], [ -89.589175578607183, 20.726227460397698 ], [ -89.590169448821214, 20.726451169733647 ], [ -89.594301220176547, 20.724590061128787 ], [ -89.594363348891122, 20.724562080505422 ], [ -89.59491353907589, 20.724238889539304 ], [ -89.59459727983905, 20.72191229022172 ], [ -89.594584540174694, 20.721758171087991 ], [ -89.594413349625043, 20.71968701983765 ], [ -89.594690598718415, 20.719703540361341 ], [ -89.594729229300967, 20.719705850651067 ], [ -89.595393150075225, 20.719745600416513 ], [ -89.599629048751936, 20.71991500108987 ], [ -89.601422999272486, 20.719872801016997 ], [ -89.609061430099842, 20.71498637086523 ], [ -89.60923077917775, 20.715048599682817 ], [ -89.629625219800928, 20.720984060741905 ], [ -89.628982258819846, 20.736092620967277 ], [ -89.629110029999097, 20.735988380912463 ], [ -89.629144448925913, 20.735967970657917 ], [ -89.629367938718204, 20.735886000748799 ], [ -89.631597369641625, 20.735021201277309 ], [ -89.632913058481876, 20.734659601015441 ], [ -89.635195089126896, 20.734303370038518 ], [ -89.637034348622663, 20.733869620859171 ], [ -89.638079508615206, 20.73365969033954 ], [ -89.644193568888085, 20.733723941112856 ], [ -89.643468939532895, 20.729781120873916 ], [ -89.644153850300327, 20.72850540125733 ], [ -89.644634629770096, 20.727141980431178 ], [ -89.648589458708869, 20.718435320463122 ], [ -89.649341520100265, 20.717532260783337 ], [ -89.648562689523132, 20.713811459995721 ], [ -89.64721065860445, 20.711905320577205 ], [ -89.646835630370347, 20.711260339660605 ], [ -89.646359879998187, 20.709960320451927 ], [ -89.6460348589288, 20.709258050272744 ], [ -89.645573338707081, 20.708539580970303 ], [ -89.644103168816216, 20.706771771131145 ], [ -89.642478118964675, 20.705134580838372 ], [ -89.640305719965426, 20.703093369958033 ], [ -89.639867249181592, 20.702554879928208 ], [ -89.639536020437731, 20.702280450289798 ], [ -89.639711939803362, 20.70043826045243 ], [ -89.651601999565159, 20.702534691224407 ], [ -89.652045709644341, 20.697106230084206 ], [ -89.666639170267345, 20.6993864009333 ], [ -89.667129750297548, 20.699537119615709 ], [ -89.666663138876586, 20.701399780422488 ], [ -89.666204509479641, 20.702280460106984 ], [ -89.665048798552334, 20.70359509110601 ], [ -89.664321579101852, 20.704422310991291 ], [ -89.664024939467367, 20.704926779818805 ], [ -89.662119569927782, 20.706835970564789 ], [ -89.660402939733956, 20.709177879755188 ], [ -89.659007479674855, 20.710555400249461 ], [ -89.658119479471523, 20.711386230922756 ], [ -89.656961340190691, 20.711389821375814 ], [ -89.655645859626091, 20.711526320481539 ], [ -89.668753260197391, 20.726184829589815 ], [ -89.669405249568044, 20.726939480478176 ], [ -89.676494749131621, 20.734815081255121 ], [ -89.684443118856279, 20.741188309968955 ], [ -89.693063113524744, 20.748287438573708 ], [ -89.69304417744641, 20.748377107921399 ], [ -89.692929339396898, 20.748920908665621 ], [ -89.692888143789958, 20.749528463698876 ], [ -89.692827542027601, 20.750422228907475 ], [ -89.693014142122848, 20.751118019454733 ], [ -89.692835428532703, 20.751727176291119 ], [ -89.692951897789783, 20.752376965577707 ], [ -89.692622155855176, 20.753029009841264 ], [ -89.692244497457054, 20.753516349654404 ], [ -89.691704983909801, 20.754616328384756 ], [ -89.691012457367549, 20.767714590312842 ], [ -89.687038027848715, 20.768170887023949 ], [ -89.684626583334889, 20.768447689712577 ], [ -89.685196185095492, 20.772570542750465 ], [ -89.685171218307161, 20.772671918303921 ], [ -89.68532354699596, 20.774725197572877 ], [ -89.690973619911418, 20.774097537007599 ], [ -89.691629179793367, 20.775854556343717 ], [ -89.691927230060628, 20.777801033178008 ], [ -89.691941881883238, 20.778663481990908 ], [ -89.695601830431173, 20.777655557801211 ], [ -89.699720736772264, 20.775560094018861 ], [ -89.701632488028864, 20.774613089378381 ], [ -89.706128436369028, 20.774241996637951 ], [ -89.708299057473141, 20.774062786508591 ], [ -89.708870797550745, 20.777650473963156 ], [ -89.708991910268423, 20.779751052548118 ], [ -89.709078509862238, 20.780100915435067 ], [ -89.711683119875985, 20.790622780090754 ], [ -89.711778990501088, 20.791525539661414 ], [ -89.710113705972773, 20.80043870277942 ], [ -89.709625914054016, 20.802646003872493 ], [ -89.699815181967296, 20.799870046206241 ], [ -89.700726023795866, 20.797426886209603 ], [ -89.696680969727666, 20.795956318984448 ], [ -89.697314940822295, 20.793796754892494 ], [ -89.69304399321048, 20.794620362330622 ], [ -89.694979002398298, 20.78744221853751 ], [ -89.690834430711675, 20.7865354201804 ], [ -89.68796322465748, 20.797993661574186 ], [ -89.689204046577544, 20.798276740113739 ], [ -89.688826352484099, 20.802878780119599 ], [ -89.686960816692661, 20.802291274912573 ], [ -89.686566510737805, 20.804375098310135 ], [ -89.686116776174785, 20.806162551443247 ], [ -89.685670999545849, 20.80793864779152 ], [ -89.685232203834474, 20.809687620790164 ], [ -89.684790799364833, 20.811446952683795 ], [ -89.68421228700393, 20.811342829183559 ], [ -89.684204292463988, 20.811566391214914 ], [ -89.684250687047296, 20.811663787344141 ], [ -89.68225183779353, 20.817261556884603 ], [ -89.688448920034446, 20.819464032789543 ], [ -89.690247305868752, 20.812680791978678 ], [ -89.690714659363792, 20.810904801139358 ], [ -89.690841931982902, 20.810933905503365 ], [ -89.692732953962704, 20.81136812594389 ], [ -89.693288625451572, 20.811498629287271 ], [ -89.695591985865349, 20.81204175446474 ], [ -89.697766704889887, 20.812554279815256 ], [ -89.698796229987465, 20.812781655643647 ], [ -89.698859046803392, 20.812099199967562 ], [ -89.699848250354123, 20.807651182355631 ], [ -89.702207371419476, 20.808501337622385 ], [ -89.703155746144418, 20.809001495644331 ], [ -89.704660827451676, 20.810143458796578 ], [ -89.708345494616978, 20.812102372048834 ], [ -89.710111800080199, 20.812572149956917 ], [ -89.710369354332187, 20.812667748293546 ], [ -89.710373524694973, 20.812686279476697 ], [ -89.711125105841433, 20.816022800988335 ], [ -89.711032280033379, 20.82265576923103 ], [ -89.701739163656683, 20.822759568763392 ], [ -89.70067386113341, 20.822771434248441 ], [ -89.694157492570781, 20.822966136697989 ], [ -89.692350649480559, 20.823168580767092 ], [ -89.691493335800615, 20.823295250126172 ], [ -89.689618592770287, 20.823956314576549 ], [ -89.688851302794447, 20.824226860103433 ], [ -89.688851177499814, 20.824226906418275 ], [ -89.686893659688423, 20.824990850559253 ], [ -89.686889351078079, 20.82499253236432 ], [ -89.686815150084414, 20.825021490118427 ], [ -89.686792106506857, 20.825030485182385 ], [ -89.686769058202316, 20.825039478950199 ], [ -89.686694878172347, 20.825068429242091 ], [ -89.686615616669499, 20.825099357502392 ], [ -89.683822671657623, 20.826191697051904 ], [ -89.681465855881214, 20.826937374966541 ], [ -89.680201381989093, 20.827061031254665 ], [ -89.6787832177327, 20.827304170019723 ], [ -89.676301609599491, 20.827721226721483 ], [ -89.675927644106636, 20.827784073258567 ], [ -89.675685540664233, 20.828303063983682 ], [ -89.675213075428971, 20.829878692237635 ], [ -89.675178485280739, 20.829963568526345 ], [ -89.674875060036783, 20.830984202901643 ], [ -89.674823918376177, 20.831156784142117 ], [ -89.674541590608229, 20.83184376207241 ], [ -89.674320043152846, 20.832397730454772 ], [ -89.674111244389607, 20.83284878330317 ], [ -89.673958485323212, 20.833192993463044 ], [ -89.673832269417503, 20.833534469505231 ], [ -89.673585325649924, 20.834202601246247 ], [ -89.673328224763139, 20.834898184014385 ], [ -89.673197056201147, 20.83525306260535 ], [ -89.672933983213724, 20.835905519097999 ], [ -89.672832200559768, 20.836206509366615 ], [ -89.672613647467259, 20.836852799570195 ], [ -89.67228171943232, 20.837600186344289 ], [ -89.672195086626516, 20.837930430054616 ], [ -89.672060090306445, 20.838264089444309 ], [ -89.671993492272875, 20.838428688422589 ], [ -89.67202527419488, 20.838698818273318 ], [ -89.67208155029455, 20.83894634442014 ], [ -89.672127405347936, 20.839148016211237 ], [ -89.672173336109196, 20.839442200280232 ], [ -89.672200077391238, 20.839770879616939 ], [ -89.672085616958256, 20.840333011571239 ], [ -89.672090782759838, 20.841181433282173 ], [ -89.671679998976757, 20.843377526852056 ], [ -89.670143570419341, 20.843056600341566 ], [ -89.66882079948212, 20.842780292192586 ], [ -89.667479014953443, 20.842499988460293 ], [ -89.666950751830782, 20.842023614367431 ], [ -89.667063518991696, 20.841680063064466 ], [ -89.667259969649194, 20.841289510829945 ], [ -89.668140060463713, 20.839539844849178 ], [ -89.666331937489986, 20.839448414890601 ], [ -89.665286017607002, 20.839184752099403 ], [ -89.663171215274758, 20.838632248497024 ], [ -89.66283822931922, 20.840110062848357 ], [ -89.662912540832068, 20.8410516264357 ], [ -89.662541486297059, 20.841967512823548 ], [ -89.662867616790976, 20.842139659741239 ], [ -89.663560890343675, 20.842263660069218 ], [ -89.664294031540123, 20.842394783036866 ], [ -89.664738856083616, 20.84333675736049 ], [ -89.66475782673534, 20.84444524485259 ], [ -89.664770818917489, 20.845204522874333 ], [ -89.664588746815539, 20.845729772483125 ], [ -89.664338366634169, 20.846558202600061 ], [ -89.663918742926924, 20.846997865827198 ], [ -89.663809550242107, 20.84726379018004 ], [ -89.663077903817381, 20.847370645170987 ], [ -89.662738178720673, 20.847832910076686 ], [ -89.662320676645237, 20.848401004392496 ], [ -89.661221285981298, 20.848384503876858 ], [ -89.660250325594063, 20.848200547916022 ], [ -89.659870477477213, 20.848213495543959 ], [ -89.6593610340136, 20.848022267183527 ], [ -89.658422519666061, 20.84797249256043 ], [ -89.65784785070062, 20.849132506541292 ], [ -89.657689546768253, 20.8492154634347 ], [ -89.657622966361515, 20.84925035465572 ], [ -89.657601923919742, 20.849261380318012 ], [ -89.657580882436022, 20.849272406055533 ], [ -89.657524894511639, 20.849301751490508 ], [ -89.657414507431398, 20.849359595049211 ], [ -89.656533451770031, 20.850720473070112 ], [ -89.655838036611243, 20.851794545789179 ], [ -89.655884472262045, 20.852142668776942 ], [ -89.656231897767313, 20.852519984828366 ], [ -89.656982246657691, 20.852814212093534 ], [ -89.657143000288571, 20.852909196250078 ], [ -89.657599455722888, 20.853178912132069 ], [ -89.658151599630273, 20.85386725444793 ], [ -89.65923316937382, 20.855338451061709 ], [ -89.659448487742253, 20.855631328827361 ], [ -89.659264405482418, 20.85584741615239 ], [ -89.65897042568875, 20.856192503934288 ], [ -89.65859025088767, 20.856638786150981 ], [ -89.658241318032054, 20.857048377432083 ], [ -89.658178525083102, 20.857052441219857 ], [ -89.658097713241148, 20.857057678064386 ], [ -89.658016901309963, 20.857062915769934 ], [ -89.657948613926948, 20.857067337937 ], [ -89.657813227442972, 20.857076100982425 ], [ -89.657801007458374, 20.857105779143424 ], [ -89.657357631931717, 20.858182552010291 ], [ -89.657298694192576, 20.858325674902893 ], [ -89.657198498935202, 20.858989203919673 ], [ -89.657177767097778, 20.859126465334125 ], [ -89.657109837074472, 20.859576301812904 ], [ -89.65714614901195, 20.8595802007525 ], [ -89.657646535421549, 20.859633926573782 ], [ -89.658049074138262, 20.859677147827124 ], [ -89.658049383975879, 20.859677181146122 ], [ -89.658049647741464, 20.859677209818759 ], [ -89.658050016068373, 20.859677249701669 ], [ -89.659743074366247, 20.859859023477437 ], [ -89.660124556699486, 20.85992481722101 ], [ -89.661442570075906, 20.860152125535013 ], [ -89.661445825568393, 20.860152119009516 ], [ -89.661446583235261, 20.860152117602119 ], [ -89.661522109847169, 20.860151985610209 ], [ -89.661619305506619, 20.860151813652639 ], [ -89.661646839579788, 20.860151769304547 ], [ -89.663354206175342, 20.860148742879932 ], [ -89.663478660031188, 20.860148522748798 ], [ -89.663523607144626, 20.860148442560362 ], [ -89.66397721421751, 20.860147634615259 ], [ -89.664570239061362, 20.860146581446998 ], [ -89.664895318878067, 20.860149877494063 ], [ -89.665603699904409, 20.860144738457599 ], [ -89.665698887216607, 20.860144565958986 ], [ -89.666589239719997, 20.860147162042047 ], [ -89.667523415792971, 20.860141293654767 ], [ -89.66983422999391, 20.86013711999172 ], [ -89.669945487784332, 20.860136918227983 ], [ -89.670456350085232, 20.860135990744237 ], [ -89.670513479723738, 20.860135887380181 ], [ -89.670595419436211, 20.860135737726196 ], [ -89.670644273015029, 20.860135648640593 ], [ -89.670660093761043, 20.860135619919987 ], [ -89.671119802957108, 20.858646694568588 ], [ -89.67114454981369, 20.858651381573203 ], [ -89.671436017692002, 20.858706569285729 ], [ -89.6730541995002, 20.859012953587897 ], [ -89.673220988406797, 20.859044535842038 ], [ -89.67376672322716, 20.859068512499618 ], [ -89.675166365632094, 20.859420982314784 ], [ -89.675355005932559, 20.859468487749595 ], [ -89.675930738685324, 20.859613476100343 ], [ -89.677314447302194, 20.864936467311207 ], [ -89.678228881123104, 20.868453941235256 ], [ -89.678306441202366, 20.869812696399194 ], [ -89.678306859087726, 20.869814479383706 ], [ -89.678741836692808, 20.871667643788001 ], [ -89.678779861359416, 20.871858347902567 ], [ -89.678779932785218, 20.871858699691693 ], [ -89.678779962141377, 20.87185880222798 ], [ -89.678853266802037, 20.872112368871694 ], [ -89.679351863405245, 20.87424150680507 ], [ -89.6796237836529, 20.875466158662064 ], [ -89.680248568749022, 20.878137062747069 ], [ -89.680248549851513, 20.878137110387296 ], [ -89.680074376117645, 20.878593871170882 ], [ -89.680056076210448, 20.878641860282393 ], [ -89.680055970384402, 20.87864213763028 ], [ -89.6793720772624, 20.880435619996977 ], [ -89.679151303481177, 20.88038138117404 ], [ -89.678884547959726, 20.880315851801829 ], [ -89.678520523141202, 20.880226424051234 ], [ -89.678418859644893, 20.880201450170169 ], [ -89.678350884743651, 20.88017182851172 ], [ -89.677353874597486, 20.879893116761636 ], [ -89.67625666892782, 20.879569190832338 ], [ -89.676256562573812, 20.879569156726784 ], [ -89.676207338015871, 20.879554624724076 ], [ -89.675649679740246, 20.879389987234337 ], [ -89.675447859541805, 20.881137166961913 ], [ -89.675490015400683, 20.881157886846971 ], [ -89.675538037910002, 20.881528598697908 ], [ -89.675130589449296, 20.883608777368703 ], [ -89.674544957943795, 20.886004559365329 ], [ -89.674454747260782, 20.886245647328035 ], [ -89.673817468651521, 20.887948848461864 ], [ -89.673256696661809, 20.890064151942425 ], [ -89.673254391422475, 20.890072819575398 ], [ -89.674087083857117, 20.891518655912829 ], [ -89.674696800931571, 20.89257732151605 ], [ -89.675829612677745, 20.894544190547933 ], [ -89.675845017150877, 20.894570944222124 ], [ -89.675860431414108, 20.894597696866157 ], [ -89.675923815774951, 20.894707745572138 ], [ -89.676948309232444, 20.896486478912067 ], [ -89.676948344327201, 20.896486540028718 ], [ -89.681500780991811, 20.904389880748322 ], [ -89.681768343102988, 20.904854358160776 ], [ -89.683956921229907, 20.904810767785911 ], [ -89.685176141601474, 20.904786472356122 ], [ -89.68529559669895, 20.906201854017677 ], [ -89.685343700235634, 20.908073928876146 ], [ -89.685371519586297, 20.909248326056588 ], [ -89.685604937674313, 20.909262593747904 ], [ -89.685633865769262, 20.909493849626607 ], [ -89.685813054131117, 20.909761554880419 ], [ -89.687066393986484, 20.911638750874118 ], [ -89.687854423702561, 20.912818997855982 ], [ -89.688107339858419, 20.913201570383592 ], [ -89.688573151254204, 20.913906177109158 ], [ -89.688622526773131, 20.913980866769041 ], [ -89.689267814287746, 20.914956950411536 ], [ -89.68995587074356, 20.915997703651833 ], [ -89.691575485779623, 20.918447422125613 ], [ -89.691576631326328, 20.91844915739 ], [ -89.691826722121917, 20.918827419405861 ], [ -89.692130466681206, 20.919286836125004 ], [ -89.692130510115859, 20.919286901554443 ], [ -89.692179311769664, 20.919360714101749 ], [ -89.692311120185209, 20.919560070637651 ], [ -89.692798255261152, 20.920297359565243 ], [ -89.693268092571543, 20.921008449497304 ], [ -89.693798940416698, 20.921811868723548 ], [ -89.693803216885811, 20.921818340646347 ], [ -89.693836651051086, 20.921870691490021 ], [ -89.69322915758724, 20.922167279772857 ], [ -89.688451499765037, 20.924604793385857 ], [ -89.688612372837639, 20.924871021546192 ], [ -89.688828874551234, 20.925231981265139 ], [ -89.689030164231426, 20.925567576971311 ], [ -89.689084379439734, 20.925657971095301 ], [ -89.690304879185021, 20.927692812894588 ], [ -89.699764408693639, 20.921285325606224 ], [ -89.707349825690883, 20.922794066035351 ], [ -89.710464888091323, 20.924095730328705 ], [ -89.711879043973326, 20.924372316988556 ], [ -89.711048077173231, 20.927888793818997 ], [ -89.711282235075714, 20.927930635667003 ], [ -89.71312477430557, 20.928259870530013 ], [ -89.713733360429984, 20.924741869608649 ], [ -89.7158661964327, 20.925157470166411 ], [ -89.715590256282027, 20.926792160163984 ], [ -89.716191493732111, 20.926822502411831 ], [ -89.718225225442936, 20.927168316903312 ], [ -89.719046569697426, 20.926994727359226 ], [ -89.719533567394834, 20.926573523149997 ], [ -89.719968127909326, 20.926258367564682 ], [ -89.721508813890182, 20.925851395645324 ], [ -89.721958683933565, 20.92565370018222 ], [ -89.722570028307373, 20.925444009715761 ], [ -89.723817216971511, 20.924966885702503 ], [ -89.724689258709901, 20.924736035429074 ], [ -89.727113072030605, 20.924528577403052 ], [ -89.728119706772546, 20.924050023089492 ], [ -89.730463500996606, 20.92336744370678 ], [ -89.731339051449851, 20.92324441699321 ], [ -89.732127780332419, 20.923231434451598 ], [ -89.732243726960093, 20.923236225556785 ], [ -89.73231902733626, 20.923239338184132 ], [ -89.730275960386223, 20.930692663531936 ], [ -89.729541341800726, 20.933372432747905 ], [ -89.727602537616249, 20.940744474982267 ], [ -89.726731687472636, 20.944055510207846 ], [ -89.726658180294734, 20.944632216559771 ], [ -89.726641754628531, 20.945773060180443 ], [ -89.727286105292947, 20.9460003516479 ], [ -89.730672161360488, 20.946694988276356 ], [ -89.730786276127731, 20.946718400815005 ], [ -89.734860167258191, 20.947397604368469 ], [ -89.737886644377397, 20.948600328286155 ], [ -89.737885398346108, 20.948646197639867 ], [ -89.737877566040538, 20.948684139319219 ], [ -89.737854150912241, 20.948797545715607 ], [ -89.737790001405088, 20.949108229077122 ], [ -89.73733794830973, 20.950223689551184 ], [ -89.737050738399248, 20.951144289026406 ], [ -89.736427749538663, 20.952344525600871 ], [ -89.736481123174229, 20.953097690436486 ], [ -89.749000001313689, 20.953064584364402 ], [ -89.749248860676488, 20.953075123607871 ], [ -89.748973384446458, 20.970871446699377 ], [ -89.7445671785173, 20.980832050571184 ], [ -89.758596369176502, 20.995419780383912 ], [ -89.758892029960151, 20.995159379925386 ], [ -89.759990290122332, 20.996210920984204 ], [ -89.760222178779031, 20.995986281105228 ], [ -89.760642569557135, 20.996296021219539 ], [ -89.761448198849394, 20.996519049691244 ], [ -89.76297704998828, 20.994865539910194 ], [ -89.765271509806141, 20.996571451074477 ], [ -89.764607539975401, 20.998119880631137 ], [ -89.764340318762606, 20.999238800589225 ], [ -89.760291348487868, 20.998344980707511 ], [ -89.76002244853926, 20.998278660983388 ], [ -89.759966619762253, 20.99767485116918 ], [ -89.755974219600716, 20.999735751137649 ], [ -89.749178769481276, 20.992397780531377 ], [ -89.745364850367025, 20.995620420747315 ], [ -89.734010649555586, 20.983633260805952 ], [ -89.730478198583185, 20.986844880916703 ], [ -89.730275799396622, 20.986789660904691 ], [ -89.730209940238993, 20.987086689943308 ], [ -89.728242019731624, 20.986499431039395 ], [ -89.728315229341234, 20.988182838141238 ], [ -89.728370443190443, 20.989452446286844 ], [ -89.728432670986919, 20.990883319713788 ], [ -89.728557671065701, 20.993757571844437 ], [ -89.728663881561232, 20.996199770752767 ], [ -89.728725998118051, 20.997628103945445 ], [ -89.728775910107359, 20.998775710199983 ], [ -89.728930613442387, 21.001182932232677 ], [ -89.729005126196711, 21.002342354842114 ], [ -89.72909487993519, 21.003738919943736 ], [ -89.735427310385163, 21.005415289753735 ], [ -89.735686939077624, 21.005527170363351 ], [ -89.737589798619908, 21.006509779572873 ], [ -89.738183109354367, 21.006682570927143 ], [ -89.739666629703464, 21.006789231076002 ], [ -89.739248579506821, 21.007733179904132 ], [ -89.73870674017644, 21.008435400047567 ], [ -89.737990338598379, 21.008739859616004 ], [ -89.73747704887576, 21.009038430043127 ], [ -89.736503339643278, 21.009254311124032 ], [ -89.733571060388158, 21.011870079729171 ], [ -89.732459119389503, 21.013128521227362 ], [ -89.73176813922899, 21.014719350086125 ], [ -89.731569369844109, 21.015146379962705 ], [ -89.731285459412803, 21.015696880014207 ], [ -89.731254309987676, 21.015690949823593 ], [ -89.730560320474311, 21.017287199700469 ], [ -89.729083890417527, 21.020429280025112 ], [ -89.727319289637421, 21.024184380025115 ], [ -89.726091949850854, 21.023659971138169 ], [ -89.726010060079204, 21.023830510846757 ], [ -89.726000169527339, 21.02385108076712 ], [ -89.725990289699737, 21.023871660657335 ], [ -89.725869818634322, 21.024122550233169 ], [ -89.725816849593684, 21.025236310152749 ], [ -89.725817658925806, 21.025505290326272 ], [ -89.725818889438898, 21.025918769644655 ], [ -89.72576014865777, 21.026648020011145 ], [ -89.726033719680416, 21.027539340775075 ], [ -89.726168149905078, 21.028657089907444 ], [ -89.726611368854762, 21.029528179625089 ], [ -89.727198430095669, 21.030300570181595 ], [ -89.727261719941865, 21.03073912033129 ], [ -89.727084379857914, 21.031726179956969 ], [ -89.726811709947114, 21.032473480790351 ], [ -89.724592138758837, 21.032070970902613 ], [ -89.723516489218071, 21.032092490804029 ], [ -89.72345531999342, 21.032869350760866 ], [ -89.723527849239559, 21.033291080738675 ], [ -89.723675319391873, 21.037927540420696 ], [ -89.71764954914876, 21.037336750644041 ], [ -89.710151119770529, 21.036514310024348 ], [ -89.710131029471697, 21.036512110631662 ], [ -89.71148938028233, 21.042900940151767 ], [ -89.71305922888746, 21.050210739986664 ], [ -89.713068349237957, 21.050368519658143 ], [ -89.713840679177366, 21.053829200867618 ], [ -89.722193380334843, 21.052283479651454 ], [ -89.738415399051362, 21.049406459912575 ], [ -89.738233720404367, 21.060330309688531 ], [ -89.737716710431144, 21.069935859736972 ], [ -89.751653779073848, 21.071295370025684 ], [ -89.749838430435474, 21.082514719687932 ], [ -89.749738418841645, 21.083379030076483 ], [ -89.74902028024708, 21.088672351335447 ], [ -89.755859679562803, 21.08949978107761 ], [ -89.768531798963693, 21.091032090924028 ], [ -89.778106909233017, 21.116053599487373 ], [ -89.781983149855336, 21.126151401008183 ], [ -89.786773509046299, 21.138608460912945 ], [ -89.796928060267192, 21.139239780288467 ], [ -89.801199169875773, 21.149143339673795 ], [ -89.801177629588054, 21.149180219788658 ], [ -89.801161179222902, 21.14920837965775 ], [ -89.796741519758683, 21.156777320113239 ], [ -89.791808079998205, 21.165548511089071 ], [ -89.78414677920928, 21.173865660521901 ], [ -89.774572429751089, 21.172759850140043 ], [ -89.759477799447865, 21.171034619656986 ], [ -89.757516918813323, 21.185914999721472 ], [ -89.728269019876123, 21.183224490496595 ], [ -89.727493749507872, 21.186905779513481 ], [ -89.726554199363946, 21.186819719783866 ], [ -89.72667688889409, 21.187771110650601 ], [ -89.724904199583762, 21.187965740684945 ], [ -89.721661540272734, 21.188295630321331 ], [ -89.716840078831908, 21.170188219576339 ], [ -89.714375548724206, 21.160581570814735 ], [ -89.707735519393765, 21.156556780291226 ], [ -89.707361120172834, 21.159728460094435 ], [ -89.703398889524337, 21.159327019830709 ], [ -89.702921399451071, 21.163292380184494 ], [ -89.702111629695324, 21.170047910245401 ], [ -89.69448292014053, 21.169149889917023 ], [ -89.679962860236088, 21.167516940118077 ], [ -89.6808550500309, 21.160344540587911 ], [ -89.68160125931702, 21.15435437114872 ], [ -89.681609969878053, 21.154284580286909 ], [ -89.6816129201992, 21.154260750342683 ], [ -89.681615889958877, 21.154236920147486 ], [ -89.681621780176172, 21.154189691095407 ], [ -89.682061058751245, 21.150663280085752 ], [ -89.681190619237952, 21.150563459855924 ], [ -89.680365140198106, 21.150468800171797 ], [ -89.679576180095438, 21.150378321102302 ], [ -89.678793489251973, 21.150288570240242 ], [ -89.678021909558268, 21.150200080963725 ], [ -89.677238418499073, 21.150110220899144 ], [ -89.676458420251862, 21.150020750090562 ], [ -89.67569748888242, 21.149933480880474 ], [ -89.674886860387787, 21.149840490203992 ], [ -89.673563170060291, 21.149688650683771 ], [ -89.672857380479385, 21.149607679991593 ], [ -89.672170969260179, 21.149528920868114 ], [ -89.66766830999741, 21.149086889896925 ], [ -89.666686249374209, 21.145128679755118 ], [ -89.666604780193595, 21.14513629081361 ], [ -89.660153910246564, 21.145739120552641 ], [ -89.660149119500772, 21.145556740672788 ], [ -89.660129969800437, 21.144825980199364 ], [ -89.660108658643196, 21.144013230029191 ], [ -89.660072378782544, 21.142629450643696 ], [ -89.657206179029728, 21.142139860049241 ], [ -89.655431140073276, 21.143732570481415 ], [ -89.654906650019285, 21.144203200654587 ], [ -89.654670318634317, 21.144415229468557 ], [ -89.65460659910579, 21.144925829798225 ], [ -89.654536968935034, 21.145483881179079 ], [ -89.654466949745455, 21.146044910290115 ], [ -89.654398168744322, 21.146596229559528 ], [ -89.654328458748125, 21.147154750481629 ], [ -89.654237399104133, 21.14788457121848 ], [ -89.654192908752336, 21.148241079762091 ], [ -89.654135489423254, 21.148701220106393 ], [ -89.654064030316846, 21.149273750997775 ], [ -89.654011980311282, 21.149690921285867 ], [ -89.65396007929526, 21.150106890665658 ], [ -89.653890739336589, 21.15066249025503 ], [ -89.659983718721648, 21.15168111122351 ], [ -89.660317349491876, 21.151687939535133 ], [ -89.660325079621643, 21.151726199603868 ], [ -89.660445399818286, 21.156034370500855 ], [ -89.653230419718781, 21.156619000692508 ], [ -89.653216889588492, 21.1567017796397 ], [ -89.653212979160045, 21.156725690221357 ], [ -89.65321057877695, 21.156749480798172 ], [ -89.653101018986575, 21.157836370891275 ], [ -89.649558219294676, 21.157415940828933 ], [ -89.648774578734219, 21.157322920673618 ], [ -89.649336444917367, 21.160495590674028 ], [ -89.649362308414524, 21.160641627972915 ], [ -89.649368647478354, 21.160677421212537 ], [ -89.64937142004942, 21.16069307989574 ], [ -89.649408909830356, 21.160944974020111 ], [ -89.649432779156214, 21.161105349600305 ], [ -89.649445719726103, 21.161176733299605 ], [ -89.649450815344693, 21.161204844011522 ], [ -89.649515582602135, 21.161562120190911 ], [ -89.650320290450679, 21.16600103031859 ], [ -89.650289109254899, 21.166002769610834 ], [ -89.650264949598537, 21.166004110238518 ], [ -89.650192059364272, 21.166008169835283 ], [ -89.650136768953885, 21.16601125015076 ], [ -89.650076719318164, 21.166014580773805 ], [ -89.650016690216333, 21.166017920322055 ], [ -89.649961380356658, 21.166021000821367 ], [ -89.649867768611315, 21.16602622022895 ], [ -89.645410569618363, 21.166206380422079 ], [ -89.64511916980112, 21.168603520735594 ], [ -89.645053799993121, 21.169141380570853 ], [ -89.644923510032783, 21.170213170047287 ], [ -89.644881579612019, 21.170557979964613 ], [ -89.644770969086025, 21.171467950530246 ], [ -89.644651349867701, 21.172451850719266 ], [ -89.644564830134385, 21.173163651354677 ], [ -89.644454060063978, 21.174074739844187 ], [ -89.644405118636627, 21.174477381252018 ], [ -89.646173228990889, 21.17449372113332 ], [ -89.646298799995321, 21.17578986099074 ], [ -89.646428829546082, 21.177131890622015 ], [ -89.646616580484135, 21.17906982974273 ], [ -89.6466493492929, 21.179408139662364 ], [ -89.646761289601173, 21.180708150931313 ], [ -89.64684796870506, 21.181714801129488 ], [ -89.64700837914549, 21.183577879769089 ], [ -89.64710673937833, 21.184720140005862 ], [ -89.642381999869272, 21.184469169738055 ], [ -89.642322149688468, 21.184465980487996 ], [ -89.641328719072149, 21.184433480080848 ], [ -89.63884231925465, 21.184352080252214 ], [ -89.638494539814658, 21.184314889872361 ], [ -89.637237429473842, 21.184198030480101 ], [ -89.636647769259795, 21.184143201041973 ], [ -89.636686049895616, 21.183969949566229 ], [ -89.63232113945142, 21.183578651023435 ], [ -89.63226488892748, 21.183577709585744 ], [ -89.632238338668685, 21.183575280025234 ], [ -89.629450749750291, 21.183320230947785 ], [ -89.626595058585508, 21.183067431185435 ], [ -89.623745379264477, 21.18279508120478 ], [ -89.62090313882608, 21.182538690966719 ], [ -89.61885090906722, 21.182346939876631 ], [ -89.618036710429834, 21.182078309838243 ], [ -89.615370970232235, 21.181137970760378 ], [ -89.612633429688117, 21.180259720088848 ], [ -89.609926418808016, 21.17937226013921 ], [ -89.607482050047423, 21.178613050582893 ], [ -89.606347080490849, 21.190829879622491 ], [ -89.606319629213672, 21.191060110890756 ], [ -89.589166949720578, 21.19110380026402 ], [ -89.586993569326637, 21.190691140657378 ], [ -89.577661909256292, 21.190307121185743 ] ] ] ] } }
]
}
