{
"type": "FeatureCollection",
"name": "Transportes_MID",
"crs": { "type": "name", "properties": { "name": "urn:ogc:def:crs:OGC:1.3:CRS84" } },
"features": [
{ "type": "Feature", "properties": { "id": 4514720, "clee": "31050485210000151000015908S8", "nom_estab": "AUTOBUSES DEL NORESTE", "raz_social": "AUTOBUSES DEL NORESTE EN YUCATAN", "codigo_act": "485210", "nombre_act": "Transporte colectivo foráneo de pasajeros de ruta fija", "per_ocu": "0 a 5 personas", "tipo_vial": "CALLE", "nom_vial": "67", "tipo_v_e_1": "CALLE", "nom_v_e_1": "50", "tipo_v_e_2": "CALLE", "nom_v_e_2": "52", "tipo_v_e_3": "CALLE", "nom_v_e_3": "65", "numero_ext": "0", "letra_ext": "SN", "edificio": "MERCADO PUBLICO", "edificio_e": "1", "numero_int": null, "letra_int": null, "tipo_asent": "COLONIA", "nomb_asent": "CENTRO", "tipoCenCom": "MERCADO PUBLICO", "nom_CenCom": "VICTOR CERVERA PACHECO", "num_local": "SN", "cod_postal": "97000", "cve_ent": "31", "entidad": "Yucat?n", "cve_mun": "050", "municipio": "M?rida", "cve_loc": "0001", "localidad": "M?rida", "ageb": "0525", "manzana": "001", "telefono": null, "correoelec": null, "www": null, "tipoUniEco": "Fijo", "latitud": 20.96175021, "longitud": -89.61635798, "fecha_alta": "2013-07" }, "geometry": { "type": "Point", "coordinates": [ -89.61635798, 20.96175021 ] } },
{ "type": "Feature", "properties": { "id": 4514769, "clee": "31050485210000011000015900S4", "nom_estab": "RESGUARDO DE CAMIONES DE PASAJE SIN NOMBRE", "raz_social": "LINEAS UNIDAS DEL SUR DE YUCATAN", "codigo_act": "485210", "nombre_act": "Transporte colectivo foráneo de pasajeros de ruta fija", "per_ocu": "0 a 5 personas", "tipo_vial": "CALLE", "nom_vial": "67", "tipo_v_e_1": "CALLE", "nom_v_e_1": "46", "tipo_v_e_2": "CALLE", "nom_v_e_2": "48", "tipo_v_e_3": "CALLE", "nom_v_e_3": "65", "numero_ext": "477", "letra_ext": null, "edificio": null, "edificio_e": null, "numero_int": null, "letra_int": null, "tipo_asent": "COLONIA", "nomb_asent": "CENTRO", "tipoCenCom": null, "nom_CenCom": null, "num_local": null, "cod_postal": "97000", "cve_ent": "31", "entidad": "Yucat?n", "cve_mun": "050", "municipio": "M?rida", "cve_loc": "0001", "localidad": "M?rida", "ageb": "0525", "manzana": "036", "telefono": null, "correoelec": null, "www": null, "tipoUniEco": "Fijo", "latitud": 20.96147426, "longitud": -89.61535427, "fecha_alta": "2010-07" }, "geometry": { "type": "Point", "coordinates": [ -89.61535427, 20.96147426 ] } },
{ "type": "Feature", "properties": { "id": 4516091, "clee": "31050485111000831000015901S5", "nom_estab": "ENCIERRO MINIS 2 0 0 0", "raz_social": "MINIS 2000", "codigo_act": "485111", "nombre_act": "Transporte colectivo urbano y suburbano de pasajeros en autobuses de ruta fija", "per_ocu": "0 a 5 personas", "tipo_vial": "PERIFERICO", "nom_vial": "LICENCIADO MANUEL BERZUNZA", "tipo_v_e_1": "CALLE", "nom_v_e_1": "NINGUNO", "tipo_v_e_2": "CALLE", "nom_v_e_2": "21", "tipo_v_e_3": "CALLE", "nom_v_e_3": "NINGUNO", "numero_ext": null, "letra_ext": "SN", "edificio": null, "edificio_e": null, "numero_int": null, "letra_int": null, "tipo_asent": "COLONIA", "nomb_asent": "SAN JUAN BAUTISTA", "tipoCenCom": null, "nom_CenCom": null, "num_local": null, "cod_postal": "97302", "cve_ent": "31", "entidad": "Yucat?n", "cve_mun": "050", "municipio": "M?rida", "cve_loc": "0001", "localidad": "M?rida", "ageb": "4871", "manzana": "055", "telefono": null, "correoelec": null, "www": null, "tipoUniEco": "Fijo", "latitud": 21.02147307, "longitud": -89.6604633, "fecha_alta": "2026-04" }, "geometry": { "type": "Point", "coordinates": [ -89.6604633, 21.02147307 ] } },
{ "type": "Feature", "properties": { "id": 4555694, "clee": "31050485111000931101000000U3", "nom_estab": "TRANSPORTE COLECTIVO URBANO Y SUBURBANO DE PASAJEROS EN AUTOBUSES DE RUTA FIJA SIN NOMBRE", "raz_social": null, "codigo_act": "485111", "nombre_act": "Transporte colectivo urbano y suburbano de pasajeros en autobuses de ruta fija", "per_ocu": "11 a 30 personas", "tipo_vial": "AVENIDA", "nom_vial": "JACINTO CANEK (59 A)", "tipo_v_e_1": "AVENIDA", "nom_v_e_1": "132", "tipo_v_e_2": "CALLE", "nom_v_e_2": "M?RIDA 2000 (128 PONIENTE)", "tipo_v_e_3": "OTRO(ESPECIFIQUE)", "nom_v_e_3": "59 A-1", "numero_ext": null, "letra_ext": "SN", "edificio": null, "edificio_e": null, "numero_int": null, "letra_int": null, "tipo_asent": "COLONIA", "nomb_asent": "YUCALPET?N", "tipoCenCom": null, "nom_CenCom": null, "num_local": null, "cod_postal": "97238", "cve_ent": "31", "entidad": "Yucat?n", "cve_mun": "050", "municipio": "M?rida", "cve_loc": "0001", "localidad": "M?rida", "ageb": "2625", "manzana": "008", "telefono": "9993356826", "correoelec": "VERONICAVLURBE@GMAIL.COM", "www": null, "tipoUniEco": "Fijo", "latitud": 20.9898509, "longitud": -89.66427767, "fecha_alta": "2014-12" }, "geometry": { "type": "Point", "coordinates": [ -89.66427767, 20.9898509 ] } },
{ "type": "Feature", "properties": { "id": 4566957, "clee": "31050812410002311011000000U6", "nom_estab": "SITIO UNICO 12 DE OCTUBRE SECCION HOCABA SANHACATTICOPO", "raz_social": "SITIO UNICO 12 DE OCTUBRE SECCION HOCABA SANHACATTICOPO", "codigo_act": "485210", "nombre_act": "Transporte colectivo foráneo de pasajeros de ruta fija", "per_ocu": "11 a 30 personas", "tipo_vial": "CALLE", "nom_vial": "69", "tipo_v_e_1": "CALLE", "nom_v_e_1": "50", "tipo_v_e_2": "CALLE", "nom_v_e_2": "52", "tipo_v_e_3": "CALLE", "nom_v_e_3": "71", "numero_ext": "446", "letra_ext": null, "edificio": null, "edificio_e": null, "numero_int": null, "letra_int": null, "tipo_asent": "COLONIA", "nomb_asent": "CENTRO", "tipoCenCom": null, "nom_CenCom": null, "num_local": null, "cod_postal": "97000", "cve_ent": "31", "entidad": "Yucat?n", "cve_mun": "050", "municipio": "M?rida", "cve_loc": "0001", "localidad": "M?rida", "ageb": "0510", "manzana": "016", "telefono": null, "correoelec": null, "www": null, "tipoUniEco": "Fijo", "latitud": 20.96115596, "longitud": -89.61842156, "fecha_alta": "2010-07" }, "geometry": { "type": "Point", "coordinates": [ -89.618421560000016, 20.96115596 ] } },
{ "type": "Feature", "properties": { "id": 4579974, "clee": "31050485111000882001000000U8", "nom_estab": "GRUPO PINO POLANCO AUTOTRANSPORTES", "raz_social": "GRUPO PINO POLANCO", "codigo_act": "485111", "nombre_act": "Transporte colectivo urbano y suburbano de pasajeros en autobuses de ruta fija", "per_ocu": "11 a 30 personas", "tipo_vial": "CALLE", "nom_vial": "71", "tipo_v_e_1": "CALLE", "nom_v_e_1": "64", "tipo_v_e_2": "CALLE", "nom_v_e_2": "66", "tipo_v_e_3": "CALLE", "nom_v_e_3": "73", "numero_ext": "512", "letra_ext": null, "edificio": null, "edificio_e": null, "numero_int": null, "letra_int": null, "tipo_asent": "COLONIA", "nomb_asent": "CENTRO", "tipoCenCom": null, "nom_CenCom": null, "num_local": null, "cod_postal": "97000", "cve_ent": "31", "entidad": "Yucat?n", "cve_mun": "050", "municipio": "M?rida", "cve_loc": "0001", "localidad": "M?rida", "ageb": "0506", "manzana": "031", "telefono": "9991064206", "correoelec": null, "www": null, "tipoUniEco": "Fijo", "latitud": 20.96135807, "longitud": -89.62728128000001, "fecha_alta": "2010-07" }, "geometry": { "type": "Point", "coordinates": [ -89.62728128, 20.96135807 ] } },
{ "type": "Feature", "properties": { "id": 4582579, "clee": "31050485111000872002000000U9", "nom_estab": "PERMISIONARIOS DE AUTOBUSES URBANOS", "raz_social": "PERMISIONARIOS DE AUTOBUSES URBANOS", "codigo_act": "485111", "nombre_act": "Transporte colectivo urbano y suburbano de pasajeros en autobuses de ruta fija", "per_ocu": "31 a 50 personas", "tipo_vial": "CALLE", "nom_vial": "63", "tipo_v_e_1": "CALLE", "nom_v_e_1": "122 A", "tipo_v_e_2": "CALLE", "nom_v_e_2": "122", "tipo_v_e_3": "CALLE", "nom_v_e_3": "61 A", "numero_ext": "1001", "letra_ext": null, "edificio": "EDIFICIO SIN NOMBRE", "edificio_e": "1", "numero_int": null, "letra_int": null, "tipo_asent": "COLONIA", "nomb_asent": "XOCLAN XBECH", "tipoCenCom": null, "nom_CenCom": null, "num_local": null, "cod_postal": "97246", "cve_ent": "31", "entidad": "Yucat?n", "cve_mun": "050", "municipio": "M?rida", "cve_loc": "0001", "localidad": "M?rida", "ageb": "4161", "manzana": "006", "telefono": null, "correoelec": "LUISECASTILLOCAMPOS@LIVE.COM.MX", "www": null, "tipoUniEco": "Fijo", "latitud": 20.96281067, "longitud": -89.66589063000001, "fecha_alta": "2014-12" }, "geometry": { "type": "Point", "coordinates": [ -89.66589063, 20.96281067 ] } },
{ "type": "Feature", "properties": { "id": 4584953, "clee": "31050811111001051000015904S4", "nom_estab": "ENCIERRO DE AUTOBUSES DE PASAJEROS DEL GRUPO PINO POLANCO", "raz_social": "GRUPO PINO POLANCO", "codigo_act": "485111", "nombre_act": "Transporte colectivo urbano y suburbano de pasajeros en autobuses de ruta fija", "per_ocu": "0 a 5 personas", "tipo_vial": "CALLE", "nom_vial": "79 D", "tipo_v_e_1": "CALLE", "nom_v_e_1": "94 A", "tipo_v_e_2": "CALLE", "nom_v_e_2": "92", "tipo_v_e_3": "CALLE", "nom_v_e_3": "92 A", "numero_ext": "651", "letra_ext": null, "edificio": null, "edificio_e": null, "numero_int": null, "letra_int": null, "tipo_asent": "COLONIA", "nomb_asent": "SAMBUL?", "tipoCenCom": null, "nom_CenCom": null, "num_local": null, "cod_postal": "97250", "cve_ent": "31", "entidad": "Yucat?n", "cve_mun": "050", "municipio": "M?rida", "cve_loc": "0001", "localidad": "M?rida", "ageb": "0597", "manzana": "029", "telefono": "9999700790", "correoelec": null, "www": null, "tipoUniEco": "Fijo", "latitud": 20.95295327, "longitud": -89.64727629, "fecha_alta": "2010-07" }, "geometry": { "type": "Point", "coordinates": [ -89.64727629, 20.95295327 ] } },
{ "type": "Feature", "properties": { "id": 4586940, "clee": "31050485210000081001063126S7", "nom_estab": "AUTOBUSES DE ORIENTE", "raz_social": "ADO Y EMPRESAS COORDINADAS", "codigo_act": "485210", "nombre_act": "Transporte colectivo foráneo de pasajeros de ruta fija", "per_ocu": "0 a 5 personas", "tipo_vial": "CALLE", "nom_vial": "NINGUNO", "tipo_v_e_1": "AVENIDA", "nom_v_e_1": "AVIACI?N", "tipo_v_e_2": "AVENIDA", "nom_v_e_2": "FUERZA AEREA(CALLE 111)", "tipo_v_e_3": "AVENIDA", "nom_v_e_3": "BENITO JU?REZ (AVIACI?N)", "numero_ext": null, "letra_ext": "SN", "edificio": null, "edificio_e": null, "numero_int": null, "letra_int": null, "tipo_asent": "AEROPUERTO", "nomb_asent": "LIBERTAD 2DA SECC", "tipoCenCom": null, "nom_CenCom": null, "num_local": null, "cod_postal": "97255", "cve_ent": "31", "entidad": "Yucat?n", "cve_mun": "050", "municipio": "M?rida", "cve_loc": "0001", "localidad": "M?rida", "ageb": "078A", "manzana": "001", "telefono": "9999464790", "correoelec": null, "www": null, "tipoUniEco": "Fijo", "latitud": 20.93363888, "longitud": -89.66349258, "fecha_alta": "2026-04" }, "geometry": { "type": "Point", "coordinates": [ -89.66349258, 20.93363888 ] } },
{ "type": "Feature", "properties": { "id": 6163852, "clee": "31050485210000195000000000U5", "nom_estab": "AUTOPROGRESO", "raz_social": "AUTOTRANSPORTES DE PASAJEROS MERIDA-PROGRESO", "codigo_act": "485210", "nombre_act": "Transporte colectivo foráneo de pasajeros de ruta fija", "per_ocu": "51 a 100 personas", "tipo_vial": "CALLE", "nom_vial": "62", "tipo_v_e_1": "CALLE", "nom_v_e_1": "67", "tipo_v_e_2": "CALLE", "nom_v_e_2": "65", "tipo_v_e_3": "CALLE", "nom_v_e_3": "60", "numero_ext": "524", "letra_ext": null, "edificio": null, "edificio_e": null, "numero_int": null, "letra_int": null, "tipo_asent": "COLONIA", "nomb_asent": "CENTRO", "tipoCenCom": "CENTRAL CAMIONERA", "nom_CenCom": "AUTOPROGRESO", "num_local": "A", "cod_postal": "97000", "cve_ent": "31", "entidad": "Yucat?n", "cve_mun": "050", "municipio": "M?rida", "cve_loc": "0001", "localidad": "M?rida", "ageb": "0506", "manzana": "026", "telefono": "9991273145", "correoelec": "FACTURACION@AUTOPROGRESO.COM", "www": "WWW.AUTOPROGRESO.COM", "tipoUniEco": "Fijo", "latitud": 20.96383028, "longitud": -89.62498108, "fecha_alta": "2010-07" }, "geometry": { "type": "Point", "coordinates": [ -89.62498108, 20.96383028 ] } },
{ "type": "Feature", "properties": { "id": 6163853, "clee": "31050485111000654001000000U1", "nom_estab": "AUTOBUSES GEMINIS", "raz_social": "AUTOBUSES GEMINIS", "codigo_act": "485210", "nombre_act": "Transporte colectivo foráneo de pasajeros de ruta fija", "per_ocu": "11 a 30 personas", "tipo_vial": "AVENIDA", "nom_vial": "CORREA RACHO 6", "tipo_v_e_1": "CALLE", "nom_v_e_1": "9", "tipo_v_e_2": "CALLE", "nom_v_e_2": "7", "tipo_v_e_3": "CALLE", "nom_v_e_3": "4", "numero_ext": "366", "letra_ext": null, "edificio": null, "edificio_e": null, "numero_int": null, "letra_int": null, "tipo_asent": "COLONIA", "nomb_asent": "DIAZ ORDAZ", "tipoCenCom": null, "nom_CenCom": null, "num_local": null, "cod_postal": "97130", "cve_ent": "31", "entidad": "Yucat?n", "cve_mun": "050", "municipio": "M?rida", "cve_loc": "0001", "localidad": "M?rida", "ageb": "1608", "manzana": "014", "telefono": null, "correoelec": "REBECA-CECY-10@HOTMAIL.COM", "www": null, "tipoUniEco": "Fijo", "latitud": 21.00496336, "longitud": -89.59129991, "fecha_alta": "2010-07" }, "geometry": { "type": "Point", "coordinates": [ -89.59129991, 21.00496336 ] } },
{ "type": "Feature", "properties": { "id": 6163854, "clee": "31050485111000503001000000U0", "nom_estab": "LINEA CAMIONERA DEL ALBA", "raz_social": "LINEA CAMIONERA DEL ALBA", "codigo_act": "485111", "nombre_act": "Transporte colectivo urbano y suburbano de pasajeros en autobuses de ruta fija", "per_ocu": "0 a 5 personas", "tipo_vial": "CALLE", "nom_vial": "59 I", "tipo_v_e_1": "CALLE", "nom_v_e_1": "90", "tipo_v_e_2": "PRIVADA", "nom_v_e_2": "94", "tipo_v_e_3": "OTRO(ESPECIFIQUE)", "nom_v_e_3": "NINGUNO", "numero_ext": "515", "letra_ext": null, "edificio": null, "edificio_e": null, "numero_int": null, "letra_int": null, "tipo_asent": "COLONIA", "nomb_asent": "BOJORQUEZ", "tipoCenCom": null, "nom_CenCom": null, "num_local": null, "cod_postal": "97220", "cve_ent": "31", "entidad": "Yucat?n", "cve_mun": "050", "municipio": "M?rida", "cve_loc": "0001", "localidad": "M?rida", "ageb": "0417", "manzana": "002", "telefono": null, "correoelec": "LCASADECV@HOTMAIL.COM", "www": null, "tipoUniEco": "Fijo", "latitud": 20.97625402, "longitud": -89.64533386, "fecha_alta": "2010-07" }, "geometry": { "type": "Point", "coordinates": [ -89.64533386, 20.97625402 ] } },
{ "type": "Feature", "properties": { "id": 6163855, "clee": "31050485111000513102000000U9", "nom_estab": "MINI SERVICIO LIBRA", "raz_social": "MINI SERVICIO LIBRA", "codigo_act": "485111", "nombre_act": "Transporte colectivo urbano y suburbano de pasajeros en autobuses de ruta fija", "per_ocu": "6 a 10 personas", "tipo_vial": "CALLE", "nom_vial": "79", "tipo_v_e_1": "CALLE", "nom_v_e_1": "30 A", "tipo_v_e_2": "CALLE", "nom_v_e_2": "30 B", "tipo_v_e_3": "CALLE", "nom_v_e_3": "79 A", "numero_ext": "432", "letra_ext": "H", "edificio": null, "edificio_e": null, "numero_int": null, "letra_int": null, "tipo_asent": "COLONIA", "nomb_asent": "VICENTE SOL?S", "tipoCenCom": null, "nom_CenCom": null, "num_local": null, "cod_postal": "97180", "cve_ent": "31", "entidad": "Yucat?n", "cve_mun": "050", "municipio": "M?rida", "cve_loc": "0001", "localidad": "M?rida", "ageb": "0686", "manzana": "016", "telefono": "9999479756", "correoelec": "JESUS_PALMA_DURAN@HOTMAIL.COM", "www": null, "tipoUniEco": "Fijo", "latitud": 20.94999935, "longitud": -89.60759413, "fecha_alta": "2010-07" }, "geometry": { "type": "Point", "coordinates": [ -89.60759413, 20.94999935 ] } },
{ "type": "Feature", "properties": { "id": 6163857, "clee": "31050485111000674001000000U9", "nom_estab": "MINIJARDINES DE MERIDA", "raz_social": "MINIJARDINES DE MERIDA", "codigo_act": "485111", "nombre_act": "Transporte colectivo urbano y suburbano de pasajeros en autobuses de ruta fija", "per_ocu": "11 a 30 personas", "tipo_vial": "CALLE", "nom_vial": "44", "tipo_v_e_1": "CALLE", "nom_v_e_1": "43 A", "tipo_v_e_2": "CALLE", "nom_v_e_2": "47", "tipo_v_e_3": "AVENIDA", "nom_v_e_3": "PRIMERO DE MAYO 46", "numero_ext": "435", "letra_ext": null, "edificio": null, "edificio_e": null, "numero_int": "0", "letra_int": "SN", "tipo_asent": "COLONIA", "nomb_asent": "CENTRO", "tipoCenCom": null, "nom_CenCom": null, "num_local": null, "cod_postal": "97150", "cve_ent": "31", "entidad": "Yucat?n", "cve_mun": "050", "municipio": "M?rida", "cve_loc": "0001", "localidad": "M?rida", "ageb": "0332", "manzana": "007", "telefono": null, "correoelec": "GRUPOCAMIONERO_COMI435@HOTMAIL.COM", "www": null, "tipoUniEco": "Fijo", "latitud": 20.97485624, "longitud": -89.61100493, "fecha_alta": "2010-07" }, "geometry": { "type": "Point", "coordinates": [ -89.61100493, 20.97485624 ] } },
{ "type": "Feature", "properties": { "id": 6163860, "clee": "31050485111000523001000000U8", "nom_estab": "URBANOS SAN ANTONIO", "raz_social": "URBANOS SAN ANTONIO", "codigo_act": "485111", "nombre_act": "Transporte colectivo urbano y suburbano de pasajeros en autobuses de ruta fija", "per_ocu": "6 a 10 personas", "tipo_vial": "AVENIDA", "nom_vial": "CORREA RACHO 6", "tipo_v_e_1": "CALLE", "nom_v_e_1": "9", "tipo_v_e_2": "CALLE", "nom_v_e_2": "7", "tipo_v_e_3": "CALLE", "nom_v_e_3": "4", "numero_ext": "366", "letra_ext": null, "edificio": null, "edificio_e": null, "numero_int": null, "letra_int": null, "tipo_asent": "COLONIA", "nomb_asent": "GUSTAVO DIAZ ORDAZ", "tipoCenCom": null, "nom_CenCom": null, "num_local": null, "cod_postal": "97130", "cve_ent": "31", "entidad": "Yucat?n", "cve_mun": "050", "municipio": "M?rida", "cve_loc": "0001", "localidad": "M?rida", "ageb": "1608", "manzana": "014", "telefono": null, "correoelec": "REBECA-CECY-10@HOTMAIL.COM", "www": null, "tipoUniEco": "Fijo", "latitud": 21.00496336, "longitud": -89.59129991, "fecha_alta": "2010-07" }, "geometry": { "type": "Point", "coordinates": [ -89.59129991, 21.00496336 ] } },
{ "type": "Feature", "properties": { "id": 6163861, "clee": "31050485210000205001000000U2", "nom_estab": "AUTOBUSES MILENIO", "raz_social": "AUTOBUSES ESPECIALIZADOS DE PASAJEROS DEL NORTE DE YUCATAN", "codigo_act": "485210", "nombre_act": "Transporte colectivo foráneo de pasajeros de ruta fija", "per_ocu": "0 a 5 personas", "tipo_vial": "CALLE", "nom_vial": "62", "tipo_v_e_1": "CALLE", "nom_v_e_1": "67", "tipo_v_e_2": "CALLE", "nom_v_e_2": "65", "tipo_v_e_3": "CALLE", "nom_v_e_3": "60", "numero_ext": "524", "letra_ext": null, "edificio": null, "edificio_e": null, "numero_int": null, "letra_int": null, "tipo_asent": "COLONIA", "nomb_asent": "CENTRO", "tipoCenCom": "CENTRAL CAMIONERA", "nom_CenCom": "AUTOPROGRESO", "num_local": "A", "cod_postal": "97000", "cve_ent": "31", "entidad": "Yucat?n", "cve_mun": "050", "municipio": "M?rida", "cve_loc": "0001", "localidad": "M?rida", "ageb": "0506", "manzana": "026", "telefono": null, "correoelec": "FACTURACION@AUTOPROGESO.COM", "www": "WWW.AUTOPROGRESO.COM", "tipoUniEco": "Fijo", "latitud": 20.96383028, "longitud": -89.62498108, "fecha_alta": "2010-07" }, "geometry": { "type": "Point", "coordinates": [ -89.62498108, 20.96383028 ] } },
{ "type": "Feature", "properties": { "id": 6163862, "clee": "31050485111000786002000000U1", "nom_estab": "MINIBUSES DEL MAYAB", "raz_social": "MINIBUSES DEL MAYAB", "codigo_act": "485111", "nombre_act": "Transporte colectivo urbano y suburbano de pasajeros en autobuses de ruta fija", "per_ocu": "101 a 250 personas", "tipo_vial": "AVENIDA", "nom_vial": "JACINTO CANEK 59 A", "tipo_v_e_1": "CALLE", "nom_v_e_1": "136", "tipo_v_e_2": "CALLE", "nom_v_e_2": "132", "tipo_v_e_3": "CALLE", "nom_v_e_3": "59B", "numero_ext": "350", "letra_ext": null, "edificio": null, "edificio_e": null, "numero_int": "0", "letra_int": "SN", "tipo_asent": "FRACCIONAMIENTO", "nomb_asent": "YUCALPET?N", "tipoCenCom": null, "nom_CenCom": null, "num_local": null, "cod_postal": "97238", "cve_ent": "31", "entidad": "Yucat?n", "cve_mun": "050", "municipio": "M?rida", "cve_loc": "0001", "localidad": "M?rida", "ageb": "2625", "manzana": "015", "telefono": null, "correoelec": "PILAREKKU@SIRUS.COM.MX", "www": "WWW.SIRUS.COM.MX", "tipoUniEco": "Fijo", "latitud": 20.99269045, "longitud": -89.6688676, "fecha_alta": "2010-07" }, "geometry": { "type": "Point", "coordinates": [ -89.6688676, 20.99269045 ] } },
{ "type": "Feature", "properties": { "id": 6163864, "clee": "31050485111000755000000000U6", "nom_estab": "MICRO EXPRESO URBANO SA DE CV", "raz_social": "MICRO EXPRESO URBANO", "codigo_act": "485111", "nombre_act": "Transporte colectivo urbano y suburbano de pasajeros en autobuses de ruta fija", "per_ocu": "0 a 5 personas", "tipo_vial": "CALLE", "nom_vial": "94 A", "tipo_v_e_1": "CALLE", "nom_v_e_1": "79 C", "tipo_v_e_2": "CALLE", "nom_v_e_2": "79 BIS", "tipo_v_e_3": "CALLE", "nom_v_e_3": "94", "numero_ext": "583", "letra_ext": null, "edificio": null, "edificio_e": null, "numero_int": null, "letra_int": null, "tipo_asent": "COLONIA", "nomb_asent": "SAMBULA", "tipoCenCom": null, "nom_CenCom": null, "num_local": null, "cod_postal": "97250", "cve_ent": "31", "entidad": "Yucat?n", "cve_mun": "050", "municipio": "M?rida", "cve_loc": "0001", "localidad": "M?rida", "ageb": "3267", "manzana": "038", "telefono": null, "correoelec": "ADMINISTRACION@MICROEXPRESO.COM", "www": "WWW.MICROEXPRESURBANO.COM", "tipoUniEco": "Fijo", "latitud": 20.95256145, "longitud": -89.64341094, "fecha_alta": "2010-07" }, "geometry": { "type": "Point", "coordinates": [ -89.64341094, 20.95256145 ] } },
{ "type": "Feature", "properties": { "id": 6163866, "clee": "31050485111000543001000000U6", "nom_estab": "MICRO SERVICIO URBANO, SA DE CV", "raz_social": "MICRO SERVICIO URBANO", "codigo_act": "485111", "nombre_act": "Transporte colectivo urbano y suburbano de pasajeros en autobuses de ruta fija", "per_ocu": "0 a 5 personas", "tipo_vial": "CALLE", "nom_vial": "94 A", "tipo_v_e_1": "CALLE", "nom_v_e_1": "79 C", "tipo_v_e_2": "CALLE", "nom_v_e_2": "79 BIS", "tipo_v_e_3": "CALLE", "nom_v_e_3": "94", "numero_ext": "583", "letra_ext": null, "edificio": "OTRO CONGLOMERADO", "edificio_e": "1", "numero_int": null, "letra_int": null, "tipo_asent": "COLONIA", "nomb_asent": "SAMBUL?", "tipoCenCom": null, "nom_CenCom": null, "num_local": null, "cod_postal": "97259", "cve_ent": "31", "entidad": "Yucat?n", "cve_mun": "050", "municipio": "M?rida", "cve_loc": "0001", "localidad": "M?rida", "ageb": "0597", "manzana": "001", "telefono": null, "correoelec": "MICROSERVICIO_URBANO@YAHOO.COM.MX", "www": null, "tipoUniEco": "Fijo", "latitud": 20.95669065, "longitud": -89.64547523, "fecha_alta": "2010-07" }, "geometry": { "type": "Point", "coordinates": [ -89.64547523, 20.95669065 ] } },
{ "type": "Feature", "properties": { "id": 6163867, "clee": "31050485210000215000015900M1", "nom_estab": "LINEAS UNIDAS DEL SUR DE YUCATAN", "raz_social": "LINEAS UNIDAS DEL SUR DE YUCATAN", "codigo_act": "485210", "nombre_act": "Transporte colectivo foráneo de pasajeros de ruta fija", "per_ocu": "51 a 100 personas", "tipo_vial": "CALLE", "nom_vial": "50", "tipo_v_e_1": "CALLE", "nom_v_e_1": "65", "tipo_v_e_2": "CALLE", "nom_v_e_2": "67", "tipo_v_e_3": "CALLE", "nom_v_e_3": "52", "numero_ext": "531", "letra_ext": null, "edificio": "1", "edificio_e": "18", "numero_int": null, "letra_int": null, "tipo_asent": "COLONIA", "nomb_asent": "CENTRO", "tipoCenCom": "CENTRAL CAMIONERA", "nom_CenCom": "TERMINAL DE AUTOBUSES DEL NORESTE", "num_local": "A", "cod_postal": "97000", "cve_ent": "31", "entidad": "Yucat?n", "cve_mun": "050", "municipio": "M?rida", "cve_loc": "0001", "localidad": "M?rida", "ageb": "0510", "manzana": "014", "telefono": null, "correoelec": "LUSFACTURACION@GMAIL.COM", "www": null, "tipoUniEco": "Fijo", "latitud": 20.96281162, "longitud": -89.61748025, "fecha_alta": "2010-07" }, "geometry": { "type": "Point", "coordinates": [ -89.61748025, 20.96281162 ] } },
{ "type": "Feature", "properties": { "id": 6163868, "clee": "31050487110000205001000000U2", "nom_estab": "OMNITUR DEL CARIBE", "raz_social": "OMNITUR DEL CARIBE", "codigo_act": "485210", "nombre_act": "Transporte colectivo foráneo de pasajeros de ruta fija", "per_ocu": "31 a 50 personas", "tipo_vial": "CALLE", "nom_vial": "77", "tipo_v_e_1": "AVENIDA", "nom_v_e_1": "ITZAES 86 B", "tipo_v_e_2": "CALLE", "nom_v_e_2": "82", "tipo_v_e_3": "CALLE", "nom_v_e_3": "79", "numero_ext": "574", "letra_ext": null, "edificio": null, "edificio_e": null, "numero_int": null, "letra_int": null, "tipo_asent": "COLONIA", "nomb_asent": "CENTRO", "tipoCenCom": null, "nom_CenCom": null, "num_local": null, "cod_postal": "97000", "cve_ent": "31", "entidad": "Yucat?n", "cve_mun": "050", "municipio": "M?rida", "cve_loc": "0001", "localidad": "M?rida", "ageb": "060A", "manzana": "033", "telefono": null, "correoelec": "CONTABILIDAD@CLASEEUROPEA.COM.MX", "www": "WWW.CLASEEUROPEA.COM.MX", "tipoUniEco": "Fijo", "latitud": 20.95921339, "longitud": -89.64123056, "fecha_alta": "2010-07" }, "geometry": { "type": "Point", "coordinates": [ -89.64123056, 20.95921339 ] } },
{ "type": "Feature", "properties": { "id": 6163870, "clee": "31050485111000553000000000U5", "nom_estab": "AUTO PREMIER", "raz_social": "AUTO PREMIER", "codigo_act": "485111", "nombre_act": "Transporte colectivo urbano y suburbano de pasajeros en autobuses de ruta fija", "per_ocu": "11 a 30 personas", "tipo_vial": "AVENIDA", "nom_vial": "LEANDRO VALLE 69", "tipo_v_e_1": "CALLE", "nom_v_e_1": "28", "tipo_v_e_2": "PRIVADA", "nom_v_e_2": "28 A", "tipo_v_e_3": "OTRO(ESPECIFIQUE)", "nom_v_e_3": "CALLE", "numero_ext": "316", "letra_ext": "ABIS", "edificio": null, "edificio_e": null, "numero_int": null, "letra_int": null, "tipo_asent": "COLONIA", "nomb_asent": "AZCORRA", "tipoCenCom": null, "nom_CenCom": null, "num_local": null, "cod_postal": "97177", "cve_ent": "31", "entidad": "Yucat?n", "cve_mun": "050", "municipio": "M?rida", "cve_loc": "0001", "localidad": "M?rida", "ageb": "0652", "manzana": "039", "telefono": null, "correoelec": "GRUPORAPIDOS@HOTMAIL.COM", "www": null, "tipoUniEco": "Fijo", "latitud": 20.95646882, "longitud": -89.60405269, "fecha_alta": "2010-07" }, "geometry": { "type": "Point", "coordinates": [ -89.60405269, 20.95646882 ] } },
{ "type": "Feature", "properties": { "id": 6163871, "clee": "31050485111000563010000000U4", "nom_estab": "GRUPO COMI", "raz_social": "GRUPO COMI", "codigo_act": "485210", "nombre_act": "Transporte colectivo foráneo de pasajeros de ruta fija", "per_ocu": "11 a 30 personas", "tipo_vial": "CALLE", "nom_vial": "44", "tipo_v_e_1": "CALLE", "nom_v_e_1": "43 A", "tipo_v_e_2": "CALLE", "nom_v_e_2": "47", "tipo_v_e_3": "AVENIDA", "nom_v_e_3": "PRIMERO DE MAYO 46", "numero_ext": "435", "letra_ext": null, "edificio": null, "edificio_e": null, "numero_int": "0", "letra_int": "SN", "tipo_asent": "COLONIA", "nomb_asent": "CENTRO", "tipoCenCom": null, "nom_CenCom": null, "num_local": null, "cod_postal": "97150", "cve_ent": "31", "entidad": "Yucat?n", "cve_mun": "050", "municipio": "M?rida", "cve_loc": "0001", "localidad": "M?rida", "ageb": "0332", "manzana": "007", "telefono": null, "correoelec": "GRUPOCAMIONERO_COMI435@HOTMAIL.COM", "www": null, "tipoUniEco": "Fijo", "latitud": 20.97485624, "longitud": -89.61100493, "fecha_alta": "2010-07" }, "geometry": { "type": "Point", "coordinates": [ -89.61100493, 20.97485624 ] } },
{ "type": "Feature", "properties": { "id": 6163873, "clee": "31050485111000796001000000U0", "nom_estab": "RAPIDOS DE MERIDA", "raz_social": "RAPIDOS DE MERIDA", "codigo_act": "485111", "nombre_act": "Transporte colectivo urbano y suburbano de pasajeros en autobuses de ruta fija", "per_ocu": "51 a 100 personas", "tipo_vial": "AVENIDA", "nom_vial": "LEANDRO VALLE 69", "tipo_v_e_1": "CALLE", "nom_v_e_1": "28", "tipo_v_e_2": "PRIVADA", "nom_v_e_2": "28 A", "tipo_v_e_3": "OTRO(ESPECIFIQUE)", "nom_v_e_3": "CALLE", "numero_ext": "316", "letra_ext": "A", "edificio": null, "edificio_e": null, "numero_int": null, "letra_int": null, "tipo_asent": "COLONIA", "nomb_asent": "AZCORRA", "tipoCenCom": null, "nom_CenCom": null, "num_local": null, "cod_postal": "97177", "cve_ent": "31", "entidad": "Yucat?n", "cve_mun": "050", "municipio": "M?rida", "cve_loc": "0001", "localidad": "M?rida", "ageb": "0652", "manzana": "039", "telefono": null, "correoelec": "GRUPORAPIDOS@HOTMAIL.COM", "www": null, "tipoUniEco": "Fijo", "latitud": 20.95617812, "longitud": -89.60334457, "fecha_alta": "2010-07" }, "geometry": { "type": "Point", "coordinates": [ -89.60334457, 20.95617812 ] } },
{ "type": "Feature", "properties": { "id": 6163874, "clee": "31050485111000765001000000U5", "nom_estab": "AUTOTRANSPORTES URBANOS SUROESTE", "raz_social": "AUTOTRANSPORTES URBANOS SUROESTE", "codigo_act": "485111", "nombre_act": "Transporte colectivo urbano y suburbano de pasajeros en autobuses de ruta fija", "per_ocu": "11 a 30 personas", "tipo_vial": "CALLE", "nom_vial": "83", "tipo_v_e_1": "CALLE", "nom_v_e_1": "76", "tipo_v_e_2": "CALLE", "nom_v_e_2": "81 A", "tipo_v_e_3": "CALLE", "nom_v_e_3": "85", "numero_ext": "516", "letra_ext": null, "edificio": null, "edificio_e": null, "numero_int": null, "letra_int": "I", "tipo_asent": "COLONIA", "nomb_asent": "CENTRO", "tipoCenCom": null, "nom_CenCom": null, "num_local": null, "cod_postal": "97000", "cve_ent": "31", "entidad": "Yucat?n", "cve_mun": "050", "municipio": "M?rida", "cve_loc": "0001", "localidad": "M?rida", "ageb": "060A", "manzana": "015", "telefono": null, "correoelec": "SUROESTE78@YAHOO.COM.MX", "www": null, "tipoUniEco": "Fijo", "latitud": 20.9546663, "longitud": -89.63759755, "fecha_alta": "2010-07" }, "geometry": { "type": "Point", "coordinates": [ -89.63759755, 20.9546663 ] } },
{ "type": "Feature", "properties": { "id": 6163875, "clee": "31050485111000806000015901M7", "nom_estab": "MINIS 2000", "raz_social": "MINIS 2000", "codigo_act": "485111", "nombre_act": "Transporte colectivo urbano y suburbano de pasajeros en autobuses de ruta fija", "per_ocu": "101 a 250 personas", "tipo_vial": "CALLE", "nom_vial": "39", "tipo_v_e_1": "CALLE", "nom_v_e_1": "62", "tipo_v_e_2": "PRIVADA", "nom_v_e_2": "39 INTERIOR", "tipo_v_e_3": "CALLE", "nom_v_e_3": "NINGUNO", "numero_ext": "510", "letra_ext": "C", "edificio": null, "edificio_e": null, "numero_int": null, "letra_int": null, "tipo_asent": "COLONIA", "nomb_asent": "CENTRO", "tipoCenCom": null, "nom_CenCom": null, "num_local": null, "cod_postal": "97000", "cve_ent": "31", "entidad": "Yucat?n", "cve_mun": "050", "municipio": "M?rida", "cve_loc": "0001", "localidad": "M?rida", "ageb": "0328", "manzana": "008", "telefono": "9999472600", "correoelec": "CONTAB_MINIS2000@HOTMAIL.COM", "www": null, "tipoUniEco": "Fijo", "latitud": 20.98100674, "longitud": -89.62354281, "fecha_alta": "2010-07" }, "geometry": { "type": "Point", "coordinates": [ -89.623542810000018, 20.98100674 ] } },
{ "type": "Feature", "properties": { "id": 6163877, "clee": "31050485111000573101000000U3", "nom_estab": "AUTOBUSES IBERICA Y ANEXAS", "raz_social": "AUTOBUSES IBERICA Y ANEXAS", "codigo_act": "485111", "nombre_act": "Transporte colectivo urbano y suburbano de pasajeros en autobuses de ruta fija", "per_ocu": "6 a 10 personas", "tipo_vial": "CALLE", "nom_vial": "79", "tipo_v_e_1": "CALLE", "nom_v_e_1": "30 B", "tipo_v_e_2": "CALLE", "nom_v_e_2": "30 A", "tipo_v_e_3": "CALLE", "nom_v_e_3": "79 A", "numero_ext": "432", "letra_ext": "H", "edificio": null, "edificio_e": null, "numero_int": null, "letra_int": null, "tipo_asent": "COLONIA", "nomb_asent": "VICENTE SOL?S", "tipoCenCom": null, "nom_CenCom": null, "num_local": null, "cod_postal": "97000", "cve_ent": "31", "entidad": "Yucat?n", "cve_mun": "050", "municipio": "M?rida", "cve_loc": "0001", "localidad": "M?rida", "ageb": "0686", "manzana": "016", "telefono": null, "correoelec": "JESUS_PALMA_DURAN@HOTMAIL.COM", "www": null, "tipoUniEco": "Fijo", "latitud": 20.94919756, "longitud": -89.60818228, "fecha_alta": "2010-07" }, "geometry": { "type": "Point", "coordinates": [ -89.60818228, 20.94919756 ] } },
{ "type": "Feature", "properties": { "id": 6163878, "clee": "31050485111000694001000000U7", "nom_estab": "AUTOBUSES URBANOS ITZIMNA", "raz_social": "AUTOBUSES URBANOS ITZIMNA", "codigo_act": "485111", "nombre_act": "Transporte colectivo urbano y suburbano de pasajeros en autobuses de ruta fija", "per_ocu": "6 a 10 personas", "tipo_vial": "AVENIDA", "nom_vial": "CORREA RACHO 6", "tipo_v_e_1": "CALLE", "nom_v_e_1": "9", "tipo_v_e_2": "CALLE", "nom_v_e_2": "7", "tipo_v_e_3": "CALLE", "nom_v_e_3": "4", "numero_ext": "366", "letra_ext": null, "edificio": null, "edificio_e": null, "numero_int": null, "letra_int": null, "tipo_asent": "COLONIA", "nomb_asent": "DIAZ ORDAZ", "tipoCenCom": null, "nom_CenCom": null, "num_local": null, "cod_postal": "97130", "cve_ent": "31", "entidad": "Yucat?n", "cve_mun": "050", "municipio": "M?rida", "cve_loc": "0001", "localidad": "M?rida", "ageb": "1608", "manzana": "014", "telefono": null, "correoelec": "REBECA-CECY-10@HOTMAIL.COM", "www": null, "tipoUniEco": "Fijo", "latitud": 21.00496336, "longitud": -89.59129991, "fecha_alta": "2010-07" }, "geometry": { "type": "Point", "coordinates": [ -89.59129991, 21.00496336 ] } },
{ "type": "Feature", "properties": { "id": 6163881, "clee": "31050485111000827000000000U3", "nom_estab": "ALIANZA DE CAMIONEROS DE YUCATAN AC", "raz_social": "CAMIONEROS ALIADOS", "codigo_act": "485111", "nombre_act": "Transporte colectivo urbano y suburbano de pasajeros en autobuses de ruta fija", "per_ocu": "0 a 5 personas", "tipo_vial": "CALLE", "nom_vial": "73", "tipo_v_e_1": "CALLE", "nom_v_e_1": "64", "tipo_v_e_2": "CALLE", "nom_v_e_2": "62", "tipo_v_e_3": "CALLE", "nom_v_e_3": "71", "numero_ext": "512", "letra_ext": null, "edificio": null, "edificio_e": null, "numero_int": null, "letra_int": null, "tipo_asent": "COLONIA", "nomb_asent": "CENTRO", "tipoCenCom": null, "nom_CenCom": null, "num_local": null, "cod_postal": "97000", "cve_ent": "31", "entidad": "Yucat?n", "cve_mun": "050", "municipio": "M?rida", "cve_loc": "0001", "localidad": "M?rida", "ageb": "0506", "manzana": "030", "telefono": null, "correoelec": "ALF_711201@HOTMAIL.COM", "www": null, "tipoUniEco": "Fijo", "latitud": 20.96017812, "longitud": -89.62658098, "fecha_alta": "2010-07" }, "geometry": { "type": "Point", "coordinates": [ -89.62658098, 20.96017812 ] } },
{ "type": "Feature", "properties": { "id": 6163889, "clee": "31050485111000352101000000U2", "nom_estab": "TRANSPORTE COLECTIVO DEL SUR", "raz_social": "TRANSPORTE COLECTIVO DEL SUR", "codigo_act": "485111", "nombre_act": "Transporte colectivo urbano y suburbano de pasajeros en autobuses de ruta fija", "per_ocu": "0 a 5 personas", "tipo_vial": "CALLE", "nom_vial": "54", "tipo_v_e_1": "CALLE", "nom_v_e_1": "69", "tipo_v_e_2": "CALLE", "nom_v_e_2": "71", "tipo_v_e_3": "CALLE", "nom_v_e_3": "52", "numero_ext": "554", "letra_ext": null, "edificio": null, "edificio_e": null, "numero_int": null, "letra_int": null, "tipo_asent": "COLONIA", "nomb_asent": "CENTRO", "tipoCenCom": null, "nom_CenCom": null, "num_local": null, "cod_postal": "97000", "cve_ent": "31", "entidad": "Yucat?n", "cve_mun": "050", "municipio": "M?rida", "cve_loc": "0001", "localidad": "M?rida", "ageb": "0510", "manzana": "017", "telefono": "9992273917", "correoelec": null, "www": null, "tipoUniEco": "Fijo", "latitud": 20.96115501, "longitud": -89.62032307, "fecha_alta": "2010-07" }, "geometry": { "type": "Point", "coordinates": [ -89.62032307, 20.96115501 ] } },
{ "type": "Feature", "properties": { "id": 6163902, "clee": "31050485111000413000000000U2", "nom_estab": "AUTOBUSES TANLUM 82", "raz_social": "AUTOBUSES TANLUM 82", "codigo_act": "485111", "nombre_act": "Transporte colectivo urbano y suburbano de pasajeros en autobuses de ruta fija", "per_ocu": "11 a 30 personas", "tipo_vial": "CALLE", "nom_vial": "44", "tipo_v_e_1": "CALLE", "nom_v_e_1": "43 A", "tipo_v_e_2": "CALLE", "nom_v_e_2": "47", "tipo_v_e_3": "AVENIDA", "nom_v_e_3": "PRIMERO DE MAYO 46", "numero_ext": "435", "letra_ext": null, "edificio": null, "edificio_e": null, "numero_int": "0", "letra_int": "SN", "tipo_asent": "COLONIA", "nomb_asent": "CENTRO", "tipoCenCom": null, "nom_CenCom": null, "num_local": null, "cod_postal": "97150", "cve_ent": "31", "entidad": "Yucat?n", "cve_mun": "050", "municipio": "M?rida", "cve_loc": "0001", "localidad": "M?rida", "ageb": "0332", "manzana": "007", "telefono": null, "correoelec": "GRUPOCAMIONERO_COMI435@HOTMAIL.COM", "www": null, "tipoUniEco": "Fijo", "latitud": 20.97485624, "longitud": -89.61100493, "fecha_alta": "2010-07" }, "geometry": { "type": "Point", "coordinates": [ -89.61100493, 20.97485624 ] } },
{ "type": "Feature", "properties": { "id": 6163904, "clee": "31050485111000583102000000U2", "nom_estab": "CIRCUITO METROPOLITANO", "raz_social": "CIRCUITO METROPOLITANO", "codigo_act": "485111", "nombre_act": "Transporte colectivo urbano y suburbano de pasajeros en autobuses de ruta fija", "per_ocu": "101 a 250 personas", "tipo_vial": "CALLE", "nom_vial": "BENITO JU?REZ (AVIACI?N)", "tipo_v_e_1": "CALLE", "nom_v_e_1": "100", "tipo_v_e_2": "CALLE", "nom_v_e_2": "108", "tipo_v_e_3": "CALLE", "nom_v_e_3": "81", "numero_ext": "687", "letra_ext": null, "edificio": null, "edificio_e": null, "numero_int": null, "letra_int": null, "tipo_asent": "COLONIA", "nomb_asent": "NUEVA SAMBUL?", "tipoCenCom": null, "nom_CenCom": null, "num_local": null, "cod_postal": "97250", "cve_ent": "31", "entidad": "Yucat?n", "cve_mun": "050", "municipio": "M?rida", "cve_loc": "0001", "localidad": "M?rida", "ageb": "3055", "manzana": "020", "telefono": null, "correoelec": "CIRCUITO_METROPOLITANO@HOTMAIL.COM", "www": null, "tipoUniEco": "Fijo", "latitud": 20.94820441, "longitud": -89.65092752, "fecha_alta": "2014-12" }, "geometry": { "type": "Point", "coordinates": [ -89.65092752, 20.94820441 ] } },
{ "type": "Feature", "properties": { "id": 6163907, "clee": "31050485111000423101015904M1", "nom_estab": "GRUPO PINO POLANCO", "raz_social": "GRUPO PINO POLANCO", "codigo_act": "485111", "nombre_act": "Transporte colectivo urbano y suburbano de pasajeros en autobuses de ruta fija", "per_ocu": "11 a 30 personas", "tipo_vial": "CALLE", "nom_vial": "71", "tipo_v_e_1": "CALLE", "nom_v_e_1": "64", "tipo_v_e_2": "CALLE", "nom_v_e_2": "66", "tipo_v_e_3": "CALLE", "nom_v_e_3": "73", "numero_ext": "510", "letra_ext": null, "edificio": null, "edificio_e": null, "numero_int": null, "letra_int": null, "tipo_asent": "COLONIA", "nomb_asent": "CENTRO", "tipoCenCom": null, "nom_CenCom": null, "num_local": null, "cod_postal": "97000", "cve_ent": "31", "entidad": "Yucat?n", "cve_mun": "050", "municipio": "M?rida", "cve_loc": "0001", "localidad": "M?rida", "ageb": "0506", "manzana": "031", "telefono": null, "correoelec": "GRUPO_PINO_POLANCO@YAHOO.COM", "www": null, "tipoUniEco": "Fijo", "latitud": 20.96133846, "longitud": -89.62713583, "fecha_alta": "2010-07" }, "geometry": { "type": "Point", "coordinates": [ -89.62713583, 20.96133846 ] } },
{ "type": "Feature", "properties": { "id": 6163908, "clee": "31050485111000705001000000U1", "nom_estab": "LINEA 52 NORTE", "raz_social": "LINEA 52 NORTE", "codigo_act": "485111", "nombre_act": "Transporte colectivo urbano y suburbano de pasajeros en autobuses de ruta fija", "per_ocu": "31 a 50 personas", "tipo_vial": "CALLE", "nom_vial": "79", "tipo_v_e_1": "CALLE", "nom_v_e_1": "104", "tipo_v_e_2": "CALLE", "nom_v_e_2": "102", "tipo_v_e_3": "CALLE", "nom_v_e_3": "81", "numero_ext": "992", "letra_ext": null, "edificio": null, "edificio_e": null, "numero_int": null, "letra_int": null, "tipo_asent": "COLONIA", "nomb_asent": "NUEVA SAMBUL?", "tipoCenCom": null, "nom_CenCom": null, "num_local": null, "cod_postal": "97259", "cve_ent": "31", "entidad": "Yucat?n", "cve_mun": "050", "municipio": "M?rida", "cve_loc": "0001", "localidad": "M?rida", "ageb": "3055", "manzana": "010", "telefono": null, "correoelec": "RECEPCIONDEFACTURAS52NORTE@GMAIL.COM", "www": null, "tipoUniEco": "Fijo", "latitud": 20.94902659, "longitud": -89.65494469, "fecha_alta": "2010-07" }, "geometry": { "type": "Point", "coordinates": [ -89.65494469, 20.94902659 ] } },
{ "type": "Feature", "properties": { "id": 6163909, "clee": "31050485111000433001000000U0", "nom_estab": "MAYAPAN POLIGONO CIENTO OCHO", "raz_social": "MAYAPAN POLIGONO CIENTO OCHO", "codigo_act": "485111", "nombre_act": "Transporte colectivo urbano y suburbano de pasajeros en autobuses de ruta fija", "per_ocu": "11 a 30 personas", "tipo_vial": "CALLE", "nom_vial": "44", "tipo_v_e_1": "CALLE", "nom_v_e_1": "43 A", "tipo_v_e_2": "CALLE", "nom_v_e_2": "47", "tipo_v_e_3": "AVENIDA", "nom_v_e_3": "PRIMERO DE MAYO 46", "numero_ext": "435", "letra_ext": null, "edificio": null, "edificio_e": null, "numero_int": "0", "letra_int": "SN", "tipo_asent": "COLONIA", "nomb_asent": "CENTRO", "tipoCenCom": null, "nom_CenCom": null, "num_local": null, "cod_postal": "97150", "cve_ent": "31", "entidad": "Yucat?n", "cve_mun": "050", "municipio": "M?rida", "cve_loc": "0001", "localidad": "M?rida", "ageb": "0332", "manzana": "007", "telefono": null, "correoelec": "GRUPOCAMIONERO_COMI435@HOTMAIL.COM", "www": null, "tipoUniEco": "Fijo", "latitud": 20.97485624, "longitud": -89.61100493, "fecha_alta": "2010-07" }, "geometry": { "type": "Point", "coordinates": [ -89.61100493, 20.97485624 ] } },
{ "type": "Feature", "properties": { "id": 6163911, "clee": "31050485111000443002000000U9", "nom_estab": "MINIBUSES DE ORIENTE", "raz_social": "MINIBUSES DE ORIENTE", "codigo_act": "485111", "nombre_act": "Transporte colectivo urbano y suburbano de pasajeros en autobuses de ruta fija", "per_ocu": "11 a 30 personas", "tipo_vial": "CALLE", "nom_vial": "63 B", "tipo_v_e_1": "CIRCUITO", "nom_v_e_1": "COLONIAS 4", "tipo_v_e_2": "CALLE", "nom_v_e_2": "2 A", "tipo_v_e_3": "CALLE", "nom_v_e_3": "63 C", "numero_ext": "202", "letra_ext": null, "edificio": null, "edificio_e": null, "numero_int": "0", "letra_int": "SN", "tipo_asent": "COLONIA", "nomb_asent": "CORT?S SARMIENTO", "tipoCenCom": null, "nom_CenCom": null, "num_local": null, "cod_postal": "97177", "cve_ent": "31", "entidad": "Yucat?n", "cve_mun": "050", "municipio": "M?rida", "cve_loc": "0001", "localidad": "M?rida", "ageb": "1773", "manzana": "034", "telefono": null, "correoelec": "U.S.PACABTUN@GMAIL.COM", "www": null, "tipoUniEco": "Fijo", "latitud": 20.9615413, "longitud": -89.59062595, "fecha_alta": "2010-07" }, "geometry": { "type": "Point", "coordinates": [ -89.59062595, 20.9615413 ] } },
{ "type": "Feature", "properties": { "id": 6163915, "clee": "31050485111000463000000000U7", "nom_estab": "SERVICIOS URBANOS DE CIRCUITO COLONIAS", "raz_social": "SERVICIOS URBANOS DE CIRCUITO COLONIAS", "codigo_act": "485111", "nombre_act": "Transporte colectivo urbano y suburbano de pasajeros en autobuses de ruta fija", "per_ocu": "11 a 30 personas", "tipo_vial": "CALLE", "nom_vial": "24", "tipo_v_e_1": "CIRCUITO", "nom_v_e_1": "COLONIAS", "tipo_v_e_2": "EJE VIAL", "nom_v_e_2": "19", "tipo_v_e_3": "CALLE", "nom_v_e_3": "22 A", "numero_ext": "107", "letra_ext": "E", "edificio": "EDIFICIO SIN NOMBRE", "edificio_e": "18", "numero_int": "0", "letra_int": "SN", "tipo_asent": "COLONIA", "nomb_asent": "YUCAT?N", "tipoCenCom": null, "nom_CenCom": null, "num_local": null, "cod_postal": "97050", "cve_ent": "31", "entidad": "Yucat?n", "cve_mun": "050", "municipio": "M?rida", "cve_loc": "0001", "localidad": "M?rida", "ageb": "1504", "manzana": "032", "telefono": null, "correoelec": "CIRCUITO.COLONIAS@HOTMAIL.COM", "www": null, "tipoUniEco": "Fijo", "latitud": 20.99685493, "longitud": -89.62722, "fecha_alta": "2010-07" }, "geometry": { "type": "Point", "coordinates": [ -89.62722, 20.99685493 ] } },
{ "type": "Feature", "properties": { "id": 6163916, "clee": "31050485111000473001000000U6", "nom_estab": "SERVICIOS URBANOS DEL MAYAB", "raz_social": "SERVICIOS URBANOS DEL MAYAB", "codigo_act": "485111", "nombre_act": "Transporte colectivo urbano y suburbano de pasajeros en autobuses de ruta fija", "per_ocu": "6 a 10 personas", "tipo_vial": "AVENIDA", "nom_vial": "LEANDRO VALLE 69", "tipo_v_e_1": "CALLE", "nom_v_e_1": "28", "tipo_v_e_2": "PRIVADA", "nom_v_e_2": "28 A", "tipo_v_e_3": "OTRO(ESPECIFIQUE)", "nom_v_e_3": "CALLE", "numero_ext": "316", "letra_ext": "A", "edificio": null, "edificio_e": null, "numero_int": null, "letra_int": "BIS", "tipo_asent": "COLONIA", "nomb_asent": "AZCORRA", "tipoCenCom": null, "nom_CenCom": null, "num_local": null, "cod_postal": "97177", "cve_ent": "31", "entidad": "Yucat?n", "cve_mun": "050", "municipio": "M?rida", "cve_loc": "0001", "localidad": "M?rida", "ageb": "0652", "manzana": "039", "telefono": null, "correoelec": "GRUPORAPIDOS@HOTMAIL.COM", "www": null, "tipoUniEco": "Fijo", "latitud": 20.95630624, "longitud": -89.60366491000001, "fecha_alta": "2010-07" }, "geometry": { "type": "Point", "coordinates": [ -89.60366491, 20.95630624 ] } },
{ "type": "Feature", "properties": { "id": 6163917, "clee": "31050485111000644001000000U2", "nom_estab": "SERVICIOS URBANOS PACABTUN", "raz_social": "SERVICIOS URBANOS PACABTUN", "codigo_act": "485111", "nombre_act": "Transporte colectivo urbano y suburbano de pasajeros en autobuses de ruta fija", "per_ocu": "31 a 50 personas", "tipo_vial": "CALLE", "nom_vial": "63 B", "tipo_v_e_1": "CIRCUITO", "nom_v_e_1": "COLONIAS 4", "tipo_v_e_2": "CALLE", "nom_v_e_2": "2 A", "tipo_v_e_3": "CALLE", "nom_v_e_3": "63 C", "numero_ext": "202", "letra_ext": null, "edificio": null, "edificio_e": null, "numero_int": "0", "letra_int": "SN", "tipo_asent": "COLONIA", "nomb_asent": "CORT?S SARMIENTO", "tipoCenCom": null, "nom_CenCom": null, "num_local": null, "cod_postal": "97177", "cve_ent": "31", "entidad": "Yucat?n", "cve_mun": "050", "municipio": "M?rida", "cve_loc": "0001", "localidad": "M?rida", "ageb": "1773", "manzana": "034", "telefono": null, "correoelec": "U.S.PACABTUN@GMAIL.COM", "www": null, "tipoUniEco": "Fijo", "latitud": 20.9615413, "longitud": -89.59062595, "fecha_alta": "2010-07" }, "geometry": { "type": "Point", "coordinates": [ -89.59062595, 20.9615413 ] } },
{ "type": "Feature", "properties": { "id": 6163923, "clee": "31050485111000725002000000U9", "nom_estab": "TRANSPORTES MODERNOS DE MERIDA", "raz_social": "TRANSPORTES MODERNOS DE MERIDA", "codigo_act": "485111", "nombre_act": "Transporte colectivo urbano y suburbano de pasajeros en autobuses de ruta fija", "per_ocu": "11 a 30 personas", "tipo_vial": "CALLE", "nom_vial": "79", "tipo_v_e_1": "CALLE", "nom_v_e_1": "104", "tipo_v_e_2": "CALLE", "nom_v_e_2": "102", "tipo_v_e_3": "CALLE", "nom_v_e_3": "81", "numero_ext": "665", "letra_ext": null, "edificio": null, "edificio_e": null, "numero_int": null, "letra_int": null, "tipo_asent": "COLONIA", "nomb_asent": "NUEVA SAMBUL?", "tipoCenCom": null, "nom_CenCom": null, "num_local": null, "cod_postal": "97259", "cve_ent": "31", "entidad": "Yucat?n", "cve_mun": "050", "municipio": "M?rida", "cve_loc": "0001", "localidad": "M?rida", "ageb": "3055", "manzana": "010", "telefono": null, "correoelec": "RECEPCIONDEFACTURAS52NORTE@GMAIL.COM", "www": null, "tipoUniEco": "Fijo", "latitud": 20.94902369, "longitud": -89.65494867, "fecha_alta": "2010-07" }, "geometry": { "type": "Point", "coordinates": [ -89.65494867, 20.94902369 ] } },
{ "type": "Feature", "properties": { "id": 6163924, "clee": "31050485111000483002000000U5", "nom_estab": "TRANSPORTES PINOS TULIAS", "raz_social": "TRANSPORTES PINOS TULIAS", "codigo_act": "485111", "nombre_act": "Transporte colectivo urbano y suburbano de pasajeros en autobuses de ruta fija", "per_ocu": "0 a 5 personas", "tipo_vial": "AVENIDA", "nom_vial": "LEANDRO VALLE 69", "tipo_v_e_1": "CALLE", "nom_v_e_1": "28", "tipo_v_e_2": "PRIVADA", "nom_v_e_2": "28 A", "tipo_v_e_3": "OTRO(ESPECIFIQUE)", "nom_v_e_3": "CALLE", "numero_ext": "316", "letra_ext": "A", "edificio": null, "edificio_e": null, "numero_int": null, "letra_int": "BIS", "tipo_asent": "COLONIA", "nomb_asent": "AZCORRA", "tipoCenCom": null, "nom_CenCom": null, "num_local": null, "cod_postal": "97177", "cve_ent": "31", "entidad": "Yucat?n", "cve_mun": "050", "municipio": "M?rida", "cve_loc": "0001", "localidad": "M?rida", "ageb": "0652", "manzana": "039", "telefono": null, "correoelec": "GRUPORAPIDOS@HOTMAIL.COM", "www": null, "tipoUniEco": "Fijo", "latitud": 20.95630624, "longitud": -89.60366491000001, "fecha_alta": "2010-07" }, "geometry": { "type": "Point", "coordinates": [ -89.60366491, 20.95630624 ] } },
{ "type": "Feature", "properties": { "id": 6163935, "clee": "31050485111000362000000000U1", "nom_estab": "TRANSPORTE COLECTIVO URBANO Y SUBURBANO DE PASAJEROS EN AUTOBUSES DE RUTA FIJA SIN NOMBRE", "raz_social": null, "codigo_act": "485111", "nombre_act": "Transporte colectivo urbano y suburbano de pasajeros en autobuses de ruta fija", "per_ocu": "0 a 5 personas", "tipo_vial": "CALLE", "nom_vial": "59", "tipo_v_e_1": "CALLE", "nom_v_e_1": "12", "tipo_v_e_2": "CALLE", "nom_v_e_2": "10", "tipo_v_e_3": "CALLE", "nom_v_e_3": "57 B", "numero_ext": "469", "letra_ext": null, "edificio": null, "edificio_e": null, "numero_int": "0", "letra_int": "SN", "tipo_asent": "COLONIA", "nomb_asent": "LAZARO CARDENAS ORIENTE", "tipoCenCom": null, "nom_CenCom": null, "num_local": null, "cod_postal": "97157", "cve_ent": "31", "entidad": "Yucat?n", "cve_mun": "050", "municipio": "M?rida", "cve_loc": "0001", "localidad": "M?rida", "ageb": "530A", "manzana": "029", "telefono": null, "correoelec": "ALFONSOFIDELROSASVELAZQUEZ@GMAIL.COM", "www": null, "tipoUniEco": "Fijo", "latitud": 20.96547477, "longitud": -89.59499504, "fecha_alta": "2013-07" }, "geometry": { "type": "Point", "coordinates": [ -89.59499504, 20.96547477 ] } },
{ "type": "Feature", "properties": { "id": 6163979, "clee": "31050485111000261000000000U5", "nom_estab": "TERMINAL DE TAXIS MERIDA - HUNUCMA", "raz_social": "SOCIEDAD DE TRANSPORTE DE PASAJEROS DE HUNUCMA", "codigo_act": "485111", "nombre_act": "Transporte colectivo urbano y suburbano de pasajeros en autobuses de ruta fija", "per_ocu": "0 a 5 personas", "tipo_vial": "CALLE", "nom_vial": "64", "tipo_v_e_1": "CALLE", "nom_v_e_1": "65", "tipo_v_e_2": "PRIVADA", "nom_v_e_2": "NINGUNO", "tipo_v_e_3": "CALLE", "nom_v_e_3": "66", "numero_ext": "527", "letra_ext": null, "edificio": null, "edificio_e": null, "numero_int": null, "letra_int": null, "tipo_asent": "COLONIA", "nomb_asent": "CENTRO", "tipoCenCom": "CENTRO Y PLAZA COMERCIAL", "nom_CenCom": "TERMINAL DE TAXIS HUNUCMA", "num_local": "527", "cod_postal": "97000", "cve_ent": "31", "entidad": "Yucat?n", "cve_mun": "050", "municipio": "M?rida", "cve_loc": "0001", "localidad": "M?rida", "ageb": "0506", "manzana": "002", "telefono": null, "correoelec": "SOCIEDADMERIDA@GMAIL.COM", "www": null, "tipoUniEco": "Fijo", "latitud": 20.96424191, "longitud": -89.62657287, "fecha_alta": "2010-07" }, "geometry": { "type": "Point", "coordinates": [ -89.62657287, 20.96424191 ] } },
{ "type": "Feature", "properties": { "id": 6163991, "clee": "31050485210000226000015908M8", "nom_estab": "AUTOBUSES DEL NORESTE", "raz_social": "AUTOBUSES DEL NORESTE EN YUCATAN", "codigo_act": "485210", "nombre_act": "Transporte colectivo foráneo de pasajeros de ruta fija", "per_ocu": "101 a 250 personas", "tipo_vial": "CALLE", "nom_vial": "50", "tipo_v_e_1": "CALLE", "nom_v_e_1": "65", "tipo_v_e_2": "CALLE", "nom_v_e_2": "67", "tipo_v_e_3": "CALLE", "nom_v_e_3": "52", "numero_ext": "531", "letra_ext": null, "edificio": null, "edificio_e": null, "numero_int": null, "letra_int": null, "tipo_asent": "COLONIA", "nomb_asent": "CENTRO", "tipoCenCom": "CENTRAL CAMIONERA", "nom_CenCom": "NORESTE", "num_local": "1", "cod_postal": "97000", "cve_ent": "31", "entidad": "Yucat?n", "cve_mun": "050", "municipio": "M?rida", "cve_loc": "0001", "localidad": "M?rida", "ageb": "0510", "manzana": "014", "telefono": null, "correoelec": "SAN_0277@HOTMAIL.COM", "www": null, "tipoUniEco": "Fijo", "latitud": 20.96304485, "longitud": -89.6174245, "fecha_alta": "2010-07" }, "geometry": { "type": "Point", "coordinates": [ -89.6174245, 20.96304485 ] } },
{ "type": "Feature", "properties": { "id": 6163992, "clee": "31050485210000236000015909M7", "nom_estab": "AUTOBUSES DEL CENTRO DEL ESTADO DE YUCATAN", "raz_social": "AUTOBUSES DEL CENTRO DEL ESTADO DE YUCATAN", "codigo_act": "485210", "nombre_act": "Transporte colectivo foráneo de pasajeros de ruta fija", "per_ocu": "101 a 250 personas", "tipo_vial": "CALLE", "nom_vial": "46", "tipo_v_e_1": "CALLE", "nom_v_e_1": "67", "tipo_v_e_2": "CALLE", "nom_v_e_2": "65", "tipo_v_e_3": "CALZADA", "nom_v_e_3": "48", "numero_ext": "517", "letra_ext": "A", "edificio": null, "edificio_e": null, "numero_int": null, "letra_int": null, "tipo_asent": "COLONIA", "nomb_asent": "CENTRO", "tipoCenCom": null, "nom_CenCom": null, "num_local": null, "cod_postal": "97000", "cve_ent": "31", "entidad": "Yucat?n", "cve_mun": "050", "municipio": "M?rida", "cve_loc": "0001", "localidad": "M?rida", "ageb": "0525", "manzana": "036", "telefono": null, "correoelec": "ADMINISTRACION@AUTOBUSESCENTRO.COM", "www": null, "tipoUniEco": "Fijo", "latitud": 20.96244145, "longitud": -89.61498858, "fecha_alta": "2010-07" }, "geometry": { "type": "Point", "coordinates": [ -89.61498858, 20.96244145 ] } },
{ "type": "Feature", "properties": { "id": 6166163, "clee": "31050485111000735001000000U8", "nom_estab": "LINEAS URBE", "raz_social": "LINEAS URBE", "codigo_act": "485111", "nombre_act": "Transporte colectivo urbano y suburbano de pasajeros en autobuses de ruta fija", "per_ocu": "51 a 100 personas", "tipo_vial": "AVENIDA", "nom_vial": "BENITO JUAREZ AVIACION CALLE 86B", "tipo_v_e_1": "CALLE", "nom_v_e_1": "108", "tipo_v_e_2": "CALLE", "nom_v_e_2": "100", "tipo_v_e_3": "CALLE", "nom_v_e_3": "81", "numero_ext": "687", "letra_ext": null, "edificio": "OTRO CONGLOMERADO", "edificio_e": "1", "numero_int": null, "letra_int": null, "tipo_asent": "COLONIA", "nomb_asent": "NUEVA SAMBUL?", "tipoCenCom": null, "nom_CenCom": null, "num_local": null, "cod_postal": "97259", "cve_ent": "31", "entidad": "Yucat?n", "cve_mun": "050", "municipio": "M?rida", "cve_loc": "0001", "localidad": "M?rida", "ageb": "3055", "manzana": "020", "telefono": null, "correoelec": "LINEASURBE2@GMAIL.COM", "www": null, "tipoUniEco": "Fijo", "latitud": 20.94819331, "longitud": -89.65094353000001, "fecha_alta": "2010-07" }, "geometry": { "type": "Point", "coordinates": [ -89.65094353, 20.94819331 ] } },
{ "type": "Feature", "properties": { "id": 6694338, "clee": "31050485111000211000000000U0", "nom_estab": "AUTOBUSES Y MINIBUSES DE MERIDA", "raz_social": "AUTOBUSES Y MINIBUSES DE MERIDA", "codigo_act": "485111", "nombre_act": "Transporte colectivo urbano y suburbano de pasajeros en autobuses de ruta fija", "per_ocu": "0 a 5 personas", "tipo_vial": "CALLE", "nom_vial": "39", "tipo_v_e_1": "CALLE", "nom_v_e_1": "62", "tipo_v_e_2": "PRIVADA", "nom_v_e_2": "39 INTERIOR", "tipo_v_e_3": "OTRO(ESPECIFIQUE)", "nom_v_e_3": "N/A", "numero_ext": "510", "letra_ext": "D", "edificio": null, "edificio_e": null, "numero_int": null, "letra_int": null, "tipo_asent": "COLONIA", "nomb_asent": "CENTRO", "tipoCenCom": null, "nom_CenCom": null, "num_local": null, "cod_postal": "0", "cve_ent": "31", "entidad": "Yucat?n", "cve_mun": "050", "municipio": "M?rida", "cve_loc": "0001", "localidad": "M?rida", "ageb": "0614", "manzana": "011", "telefono": null, "correoelec": null, "www": null, "tipoUniEco": "Fijo", "latitud": 20.95793866, "longitud": -89.62623304, "fecha_alta": "2016-01" }, "geometry": { "type": "Point", "coordinates": [ -89.62623304, 20.95793866 ] } },
{ "type": "Feature", "properties": { "id": 6694606, "clee": "31050485111000911000000000U5", "nom_estab": "MINIBUSES DE MERIDA", "raz_social": "MINIBUSES DE MERIDA", "codigo_act": "485111", "nombre_act": "Transporte colectivo urbano y suburbano de pasajeros en autobuses de ruta fija", "per_ocu": "0 a 5 personas", "tipo_vial": "CALLE", "nom_vial": "39", "tipo_v_e_1": "CALLE", "nom_v_e_1": "62", "tipo_v_e_2": "PRIVADA", "nom_v_e_2": "39 INTERIOR", "tipo_v_e_3": "OTRO(ESPECIFIQUE)", "nom_v_e_3": "N/A", "numero_ext": "510", "letra_ext": "C", "edificio": null, "edificio_e": null, "numero_int": null, "letra_int": null, "tipo_asent": "COLONIA", "nomb_asent": "CENTRO", "tipoCenCom": null, "nom_CenCom": null, "num_local": null, "cod_postal": "0", "cve_ent": "31", "entidad": "Yucat?n", "cve_mun": "050", "municipio": "M?rida", "cve_loc": "0001", "localidad": "M?rida", "ageb": "0614", "manzana": "011", "telefono": null, "correoelec": null, "www": null, "tipoUniEco": "Fijo", "latitud": 20.95793866, "longitud": -89.62623304, "fecha_alta": "2016-01" }, "geometry": { "type": "Point", "coordinates": [ -89.62623304, 20.95793866 ] } },
{ "type": "Feature", "properties": { "id": 6711941, "clee": "31050485111000201000000000U1", "nom_estab": "RAPIDOS DE ORIENTE", "raz_social": "RAPIDOS DE ORIENTE", "codigo_act": "485111", "nombre_act": "Transporte colectivo urbano y suburbano de pasajeros en autobuses de ruta fija", "per_ocu": "0 a 5 personas", "tipo_vial": "CALLE", "nom_vial": "39", "tipo_v_e_1": "CALLE", "nom_v_e_1": "62", "tipo_v_e_2": "PRIVADA", "nom_v_e_2": "39 INTERIOR", "tipo_v_e_3": "OTRO(ESPECIFIQUE)", "nom_v_e_3": "N/A", "numero_ext": "510", "letra_ext": "C", "edificio": null, "edificio_e": null, "numero_int": null, "letra_int": null, "tipo_asent": "COLONIA", "nomb_asent": "CENTRO", "tipoCenCom": null, "nom_CenCom": null, "num_local": null, "cod_postal": "0", "cve_ent": "31", "entidad": "Yucat?n", "cve_mun": "050", "municipio": "M?rida", "cve_loc": "0001", "localidad": "M?rida", "ageb": "0614", "manzana": "011", "telefono": null, "correoelec": null, "www": null, "tipoUniEco": "Fijo", "latitud": 20.95793866, "longitud": -89.62623304, "fecha_alta": "2016-01" }, "geometry": { "type": "Point", "coordinates": [ -89.62623304, 20.95793866 ] } },
{ "type": "Feature", "properties": { "id": 6715682, "clee": "31050485210000121000063126S1", "nom_estab": "TERMINAL DE ADO DE LA 50", "raz_social": "ADO Y EMPRESAS COORDINADAS", "codigo_act": "485210", "nombre_act": "Transporte colectivo foráneo de pasajeros de ruta fija", "per_ocu": "0 a 5 personas", "tipo_vial": "CALLE", "nom_vial": "67", "tipo_v_e_1": "CALLE", "nom_v_e_1": "68", "tipo_v_e_2": "CALLE", "nom_v_e_2": "70", "tipo_v_e_3": "CALLE", "nom_v_e_3": "NINGUNO", "numero_ext": "0", "letra_ext": "SN", "edificio": "MECADO PUBLICO", "edificio_e": null, "numero_int": null, "letra_int": null, "tipo_asent": "COLONIA", "nomb_asent": "CENTRO", "tipoCenCom": null, "nom_CenCom": "VICTOR CERVERA PACHECO", "num_local": "SN", "cod_postal": null, "cve_ent": "31", "entidad": "Yucat?n", "cve_mun": "050", "municipio": "M?rida", "cve_loc": "0001", "localidad": "M?rida", "ageb": "0525", "manzana": "001", "telefono": null, "correoelec": null, "www": "ADO.COM.MX", "tipoUniEco": "Fijo", "latitud": 20.96175021, "longitud": -89.61635798, "fecha_alta": "2026-04" }, "geometry": { "type": "Point", "coordinates": [ -89.61635798, 20.96175021 ] } },
{ "type": "Feature", "properties": { "id": 6724619, "clee": "31050485111000191000000000U4", "nom_estab": "ESTACION CENTRAL Y ANEXAS", "raz_social": "ESTACION CENTRAL Y ANEXAS", "codigo_act": "485111", "nombre_act": "Transporte colectivo urbano y suburbano de pasajeros en autobuses de ruta fija", "per_ocu": "0 a 5 personas", "tipo_vial": "CALLE", "nom_vial": "39", "tipo_v_e_1": "CALLE", "nom_v_e_1": "62", "tipo_v_e_2": "PRIVADA", "nom_v_e_2": "39 INTERIOR", "tipo_v_e_3": "OTRO(ESPECIFIQUE)", "nom_v_e_3": "N/A", "numero_ext": "510", "letra_ext": "C", "edificio": null, "edificio_e": null, "numero_int": null, "letra_int": null, "tipo_asent": "COLONIA", "nomb_asent": "CENTRO", "tipoCenCom": null, "nom_CenCom": null, "num_local": null, "cod_postal": "0", "cve_ent": "31", "entidad": "Yucat?n", "cve_mun": "050", "municipio": "M?rida", "cve_loc": "0001", "localidad": "M?rida", "ageb": "0614", "manzana": "011", "telefono": null, "correoelec": null, "www": null, "tipoUniEco": "Fijo", "latitud": 20.95793866, "longitud": -89.62623304, "fecha_alta": "2016-01" }, "geometry": { "type": "Point", "coordinates": [ -89.62623304, 20.95793866 ] } },
{ "type": "Feature", "properties": { "id": 6809139, "clee": "31050488491000036011063126S4", "nom_estab": "SERVICIOS DE MANTENIMIENTO ORIENTE", "raz_social": "ADO Y EMPRESAS COORDINADAS", "codigo_act": "485210", "nombre_act": "Transporte colectivo foráneo de pasajeros de ruta fija", "per_ocu": "0 a 5 personas", "tipo_vial": "CALLE", "nom_vial": "69", "tipo_v_e_1": "CALLE", "nom_v_e_1": "70", "tipo_v_e_2": "CALLE", "nom_v_e_2": "68", "tipo_v_e_3": "CALLE", "nom_v_e_3": "71", "numero_ext": "554", "letra_ext": null, "edificio": null, "edificio_e": null, "numero_int": null, "letra_int": null, "tipo_asent": "COLONIA", "nomb_asent": "CENTRO", "tipoCenCom": null, "nom_CenCom": null, "num_local": null, "cod_postal": "97000", "cve_ent": "31", "entidad": "Yucat?n", "cve_mun": "050", "municipio": "M?rida", "cve_loc": "0001", "localidad": "M?rida", "ageb": "0506", "manzana": "018", "telefono": null, "correoelec": null, "www": null, "tipoUniEco": "Fijo", "latitud": 20.96295122, "longitud": -89.62991682000001, "fecha_alta": "2026-04" }, "geometry": { "type": "Point", "coordinates": [ -89.62991682, 20.96295122 ] } },
{ "type": "Feature", "properties": { "id": 7514684, "clee": "31050485111000954000000000U5", "nom_estab": "TRANSPORTES MODERNOS DE MERIDA", "raz_social": "TRANSPORTES MODERNOS DE MERIDA", "codigo_act": "485111", "nombre_act": "Transporte colectivo urbano y suburbano de pasajeros en autobuses de ruta fija", "per_ocu": "0 a 5 personas", "tipo_vial": "CALLE", "nom_vial": "79", "tipo_v_e_1": "CALLE", "nom_v_e_1": "104", "tipo_v_e_2": "CALLE", "nom_v_e_2": "102", "tipo_v_e_3": "CALLE", "nom_v_e_3": "77", "numero_ext": null, "letra_ext": "SN", "edificio": null, "edificio_e": null, "numero_int": null, "letra_int": null, "tipo_asent": "COLONIA", "nomb_asent": "NUEVA SAMBULA", "tipoCenCom": null, "nom_CenCom": null, "num_local": null, "cod_postal": "97250", "cve_ent": "31", "entidad": "Yucat?n", "cve_mun": "050", "municipio": "M?rida", "cve_loc": "0001", "localidad": "M?rida", "ageb": "3055", "manzana": "009", "telefono": null, "correoelec": "RECEPCIONDEFACTURAS52NORTE@GMAIL.COM", "www": null, "tipoUniEco": "Fijo", "latitud": 20.94920067, "longitud": -89.65481278, "fecha_alta": "2019-11" }, "geometry": { "type": "Point", "coordinates": [ -89.65481278, 20.94920067 ] } },
{ "type": "Feature", "properties": { "id": 7934769, "clee": "31050485112000052011000000U6", "nom_estab": "SITIO DE DZILAM - DZIZANTUN", "raz_social": "SINDICATO LICENCIADO LUIS DONALDO COLOSIO", "codigo_act": "485210", "nombre_act": "Transporte colectivo foráneo de pasajeros de ruta fija", "per_ocu": "11 a 30 personas", "tipo_vial": "CALLE", "nom_vial": "52", "tipo_v_e_1": "CALLE", "nom_v_e_1": "65", "tipo_v_e_2": "CALLE", "nom_v_e_2": "67", "tipo_v_e_3": "CALLE", "nom_v_e_3": "50", "numero_ext": "520", "letra_ext": null, "edificio": null, "edificio_e": null, "numero_int": null, "letra_int": null, "tipo_asent": "COLONIA", "nomb_asent": "CENTRO", "tipoCenCom": null, "nom_CenCom": null, "num_local": null, "cod_postal": "97000", "cve_ent": "31", "entidad": "Yucat?n", "cve_mun": "050", "municipio": "M?rida", "cve_loc": "0001", "localidad": "M?rida", "ageb": "0510", "manzana": "014", "telefono": null, "correoelec": null, "www": null, "tipoUniEco": "Fijo", "latitud": 20.96355602, "longitud": -89.61842258, "fecha_alta": "2019-11" }, "geometry": { "type": "Point", "coordinates": [ -89.61842258, 20.96355602 ] } },
{ "type": "Feature", "properties": { "id": 8044594, "clee": "31050485210000361000063126S3", "nom_estab": "TERMINAL ADO CAUCEL", "raz_social": "ADO Y EMPRESAS COORDINADAS", "codigo_act": "485210", "nombre_act": "Transporte colectivo foráneo de pasajeros de ruta fija", "per_ocu": "0 a 5 personas", "tipo_vial": "AVENIDA", "nom_vial": "59 A", "tipo_v_e_1": "AVENIDA", "nom_v_e_1": "70", "tipo_v_e_2": "CALLE", "nom_v_e_2": "62", "tipo_v_e_3": "CALLE", "nom_v_e_3": "27", "numero_ext": "0", "letra_ext": "SN", "edificio": "CENTRO Y PLAZA COMERCIAL", "edificio_e": null, "numero_int": null, "letra_int": null, "tipo_asent": "CIUDAD", "nomb_asent": "CIUDAD CAUCEL", "tipoCenCom": null, "nom_CenCom": "PLAZA ROYAS CAUCEL", "num_local": "SN", "cod_postal": null, "cve_ent": "31", "entidad": "Yucat?n", "cve_mun": "050", "municipio": "M?rida", "cve_loc": "0001", "localidad": "M?rida", "ageb": "5757", "manzana": "035", "telefono": null, "correoelec": null, "www": null, "tipoUniEco": "Fijo", "latitud": 21.00444349, "longitud": -89.68790594, "fecha_alta": "2026-04" }, "geometry": { "type": "Point", "coordinates": [ -89.68790594, 21.00444349 ] } },
{ "type": "Feature", "properties": { "id": 8353407, "clee": "31050813120001151011000000U1", "nom_estab": "SITIO DE TAXIS LIGA ROJA DE CHOFERES DE MOTUL", "raz_social": "SINDICATO LIGA ROJA DE CHOFERES DE MOTUL", "codigo_act": "485210", "nombre_act": "Transporte colectivo foráneo de pasajeros de ruta fija", "per_ocu": "31 a 50 personas", "tipo_vial": "CALLE", "nom_vial": "54", "tipo_v_e_1": "CALLE", "nom_v_e_1": "57", "tipo_v_e_2": "CALLE", "nom_v_e_2": "55", "tipo_v_e_3": "CALLE", "nom_v_e_3": "56", "numero_ext": "475", "letra_ext": null, "edificio": null, "edificio_e": null, "numero_int": null, "letra_int": null, "tipo_asent": "COLONIA", "nomb_asent": "CENTRO", "tipoCenCom": null, "nom_CenCom": null, "num_local": null, "cod_postal": "97000", "cve_ent": "31", "entidad": "Yucat?n", "cve_mun": "050", "municipio": "M?rida", "cve_loc": "0001", "localidad": "M?rida", "ageb": "0455", "manzana": "004", "telefono": null, "correoelec": null, "www": null, "tipoUniEco": "Fijo", "latitud": 20.9699471, "longitud": -89.61851905, "fecha_alta": "2019-11" }, "geometry": { "type": "Point", "coordinates": [ -89.61851905, 20.9699471 ] } },
{ "type": "Feature", "properties": { "id": 8591021, "clee": "31050485210000346000063126S4", "nom_estab": "TALLERES ADO", "raz_social": "ADO Y EMPRESAS COORDINADAS", "codigo_act": "485210", "nombre_act": "Transporte colectivo foráneo de pasajeros de ruta fija", "per_ocu": "0 a 5 personas", "tipo_vial": "CALLE", "nom_vial": "110", "tipo_v_e_1": "AVENIDA", "nom_v_e_1": "BENITO JU?REZ (AVIACI?N)", "tipo_v_e_2": "CALLE", "nom_v_e_2": "75", "tipo_v_e_3": "CALLE", "nom_v_e_3": "108", "numero_ext": null, "letra_ext": "SN", "edificio": null, "edificio_e": null, "numero_int": null, "letra_int": null, "tipo_asent": "COLONIA", "nomb_asent": "LA LIBERTAD", "tipoCenCom": null, "nom_CenCom": null, "num_local": null, "cod_postal": "97288", "cve_ent": "31", "entidad": "Yucat?n", "cve_mun": "050", "municipio": "M?rida", "cve_loc": "0001", "localidad": "M?rida", "ageb": "3055", "manzana": "022", "telefono": null, "correoelec": null, "www": null, "tipoUniEco": "Fijo", "latitud": 20.94518548, "longitud": -89.65817259000001, "fecha_alta": "2026-04" }, "geometry": { "type": "Point", "coordinates": [ -89.65817259, 20.94518548 ] } },
{ "type": "Feature", "properties": { "id": 9251765, "clee": "31050485111000974000000000U3", "nom_estab": "LINEAS 52 NORTE", "raz_social": "LINEA 52 NORTE", "codigo_act": "485111", "nombre_act": "Transporte colectivo urbano y suburbano de pasajeros en autobuses de ruta fija", "per_ocu": "11 a 30 personas", "tipo_vial": "CALLE", "nom_vial": "79", "tipo_v_e_1": "CALLE", "nom_v_e_1": "104", "tipo_v_e_2": "CALLE", "nom_v_e_2": "102", "tipo_v_e_3": "CALLE", "nom_v_e_3": "77", "numero_ext": null, "letra_ext": "SN", "edificio": null, "edificio_e": null, "numero_int": null, "letra_int": null, "tipo_asent": "COLONIA", "nomb_asent": "NUEVA SAMBULA", "tipoCenCom": null, "nom_CenCom": null, "num_local": null, "cod_postal": "97250", "cve_ent": "31", "entidad": "Yucat?n", "cve_mun": "050", "municipio": "M?rida", "cve_loc": "0001", "localidad": "M?rida", "ageb": "3055", "manzana": "009", "telefono": null, "correoelec": null, "www": null, "tipoUniEco": "Fijo", "latitud": 20.94920067, "longitud": -89.65481278, "fecha_alta": "2020-04" }, "geometry": { "type": "Point", "coordinates": [ -89.65481278, 20.94920067 ] } },
{ "type": "Feature", "properties": { "id": 9251767, "clee": "31050485210000391000063126S0", "nom_estab": "ADO VDENTA DE BOLETOS", "raz_social": "ADO Y EMPRESAS COORDINADAS", "codigo_act": "485210", "nombre_act": "Transporte colectivo foráneo de pasajeros de ruta fija", "per_ocu": "0 a 5 personas", "tipo_vial": "AVENIDA", "nom_vial": "30 32", "tipo_v_e_1": "CALLE", "nom_v_e_1": "128", "tipo_v_e_2": "CALLE", "nom_v_e_2": "NINGUNO", "tipo_v_e_3": "CALLE", "nom_v_e_3": "NINGUNO", "numero_ext": "0", "letra_ext": "SN", "edificio": "CENTRO Y PLAZA COMERCIAL", "edificio_e": null, "numero_int": null, "letra_int": null, "tipo_asent": "COLONIA", "nomb_asent": "SAN RAM?N NORTE", "tipoCenCom": null, "nom_CenCom": "PLAZA COMERCIAL", "num_local": "SN", "cod_postal": "97227", "cve_ent": "31", "entidad": "Yucat?n", "cve_mun": "050", "municipio": "M?rida", "cve_loc": "0001", "localidad": "M?rida", "ageb": "1576", "manzana": "023", "telefono": null, "correoelec": null, "www": null, "tipoUniEco": "Fijo", "latitud": 21.02497715, "longitud": -89.60540505, "fecha_alta": "2026-04" }, "geometry": { "type": "Point", "coordinates": [ -89.60540505, 21.02497715 ] } },
{ "type": "Feature", "properties": { "id": 9251768, "clee": "31050485210000402000063126S5", "nom_estab": "ADO", "raz_social": "ADO Y EMPRESAS COORDINADAS", "codigo_act": "485210", "nombre_act": "Transporte colectivo foráneo de pasajeros de ruta fija", "per_ocu": "0 a 5 personas", "tipo_vial": "CALLE", "nom_vial": "26", "tipo_v_e_1": "CALLE", "nom_v_e_1": "7", "tipo_v_e_2": "CALLE", "nom_v_e_2": "15", "tipo_v_e_3": "CALLE", "nom_v_e_3": "3", "numero_ext": "216", "letra_ext": null, "edificio": "CENTRO Y PLAZA COMERCIAL", "edificio_e": null, "numero_int": "2", "letra_int": null, "tipo_asent": "FRACCIONAMIENTO", "nomb_asent": "ALTABRISA", "tipoCenCom": null, "nom_CenCom": "HOTEL MESON DE LA LUNA", "num_local": "2", "cod_postal": "97130", "cve_ent": "31", "entidad": "Yucat?n", "cve_mun": "050", "municipio": "M?rida", "cve_loc": "0001", "localidad": "M?rida", "ageb": "5583", "manzana": "021", "telefono": null, "correoelec": null, "www": "ADO.COM.MX", "tipoUniEco": "Fijo", "latitud": 21.01591992, "longitud": -89.58545456, "fecha_alta": "2026-04" }, "geometry": { "type": "Point", "coordinates": [ -89.585454560000016, 21.01591992 ] } },
{ "type": "Feature", "properties": { "id": 9283243, "clee": "31050485210000493001013998S4", "nom_estab": "AUTOTUR", "raz_social": "AUTOBUSES RAPIDOS DE ZACATLAN", "codigo_act": "485210", "nombre_act": "Transporte colectivo foráneo de pasajeros de ruta fija", "per_ocu": "101 a 250 personas", "tipo_vial": "AVENIDA", "nom_vial": "BENITO JUAREZ AVIACION", "tipo_v_e_1": "CALLE", "nom_v_e_1": "108", "tipo_v_e_2": "CALLE", "nom_v_e_2": "110", "tipo_v_e_3": "PRIVADA", "nom_v_e_3": "79", "numero_ext": null, "letra_ext": "SN", "edificio": null, "edificio_e": null, "numero_int": null, "letra_int": null, "tipo_asent": "COLONIA", "nomb_asent": "NUEVA SAMBUL?", "tipoCenCom": null, "nom_CenCom": null, "num_local": null, "cod_postal": "97256", "cve_ent": "31", "entidad": "Yucat?n", "cve_mun": "050", "municipio": "M?rida", "cve_loc": "0001", "localidad": "M?rida", "ageb": "3055", "manzana": "022", "telefono": null, "correoelec": "INFORMATION@MOBILITYADO.COM", "www": "WWW.AUTOTUR.COM.MX", "tipoUniEco": "Fijo", "latitud": 20.94489765, "longitud": -89.65614062, "fecha_alta": "2020-11" }, "geometry": { "type": "Point", "coordinates": [ -89.65614062, 20.94489765 ] } },
{ "type": "Feature", "properties": { "id": 9288117, "clee": "31050485210000472000000000U8", "nom_estab": "FUTURA TRANSPORTES", "raz_social": null, "codigo_act": "485210", "nombre_act": "Transporte colectivo foráneo de pasajeros de ruta fija", "per_ocu": "6 a 10 personas", "tipo_vial": "CALLE", "nom_vial": "NINGUNO", "tipo_v_e_1": "CALLE", "nom_v_e_1": "NINGUNO", "tipo_v_e_2": null, "nom_v_e_2": null, "tipo_v_e_3": "CALLE", "nom_v_e_3": "42", "numero_ext": null, "letra_ext": "SN", "edificio": null, "edificio_e": null, "numero_int": null, "letra_int": null, "tipo_asent": "COLONIA", "nomb_asent": "SAN JUAN BAUTISTA", "tipoCenCom": null, "nom_CenCom": null, "num_local": null, "cod_postal": "97314", "cve_ent": "31", "entidad": "Yucat?n", "cve_mun": "050", "municipio": "M?rida", "cve_loc": "0001", "localidad": "M?rida", "ageb": "4871", "manzana": "092", "telefono": "9999946663", "correoelec": "EDGAR_ACOSTA@LIVE.COM.MX", "www": null, "tipoUniEco": "Fijo", "latitud": 21.02100053, "longitud": -89.66386301, "fecha_alta": "2020-11" }, "geometry": { "type": "Point", "coordinates": [ -89.66386301, 21.02100053 ] } },
{ "type": "Feature", "properties": { "id": 9288975, "clee": "31050485111001014011000000U7", "nom_estab": "SITIO DE TAXIS CHICXULUB - IXIL", "raz_social": null, "codigo_act": "485210", "nombre_act": "Transporte colectivo foráneo de pasajeros de ruta fija", "per_ocu": "51 a 100 personas", "tipo_vial": "CALLE", "nom_vial": "52", "tipo_v_e_1": "CALLE", "nom_v_e_1": "69", "tipo_v_e_2": "CALLE", "nom_v_e_2": "71", "tipo_v_e_3": "CALLE", "nom_v_e_3": "50", "numero_ext": "550", "letra_ext": null, "edificio": null, "edificio_e": null, "numero_int": null, "letra_int": null, "tipo_asent": "COLONIA", "nomb_asent": "CENTRO", "tipoCenCom": null, "nom_CenCom": null, "num_local": null, "cod_postal": "97000", "cve_ent": "31", "entidad": "Yucat?n", "cve_mun": "050", "municipio": "M?rida", "cve_loc": "0001", "localidad": "M?rida", "ageb": "0510", "manzana": "016", "telefono": null, "correoelec": "CHERNA_01@HOTMAIL.COM", "www": null, "tipoUniEco": "Fijo", "latitud": 20.96060743, "longitud": -89.61921036, "fecha_alta": "2020-11" }, "geometry": { "type": "Point", "coordinates": [ -89.61921036, 20.96060743 ] } },
{ "type": "Feature", "properties": { "id": 9314302, "clee": "31050485210000483000000000U5", "nom_estab": "DORMITORIOS DE ADO", "raz_social": "DORMITORIOS DE ADO", "codigo_act": "485210", "nombre_act": "Transporte colectivo foráneo de pasajeros de ruta fija", "per_ocu": "6 a 10 personas", "tipo_vial": "CALLE", "nom_vial": "110", "tipo_v_e_1": "CALLE", "nom_v_e_1": "15", "tipo_v_e_2": "CALLE", "nom_v_e_2": "81", "tipo_v_e_3": "PRIVADA", "nom_v_e_3": "NINGUNO", "numero_ext": "831", "letra_ext": null, "edificio": null, "edificio_e": null, "numero_int": null, "letra_int": null, "tipo_asent": "COLONIA", "nomb_asent": "CIUDAD INDUSTRIAL", "tipoCenCom": null, "nom_CenCom": null, "num_local": null, "cod_postal": "97288", "cve_ent": "31", "entidad": "Yucat?n", "cve_mun": "050", "municipio": "M?rida", "cve_loc": "0001", "localidad": "M?rida", "ageb": "5390", "manzana": "001", "telefono": null, "correoelec": null, "www": null, "tipoUniEco": "Fijo", "latitud": 20.94612626, "longitud": -89.66077214000001, "fecha_alta": "2020-11" }, "geometry": { "type": "Point", "coordinates": [ -89.66077214, 20.94612626 ] } },
{ "type": "Feature", "properties": { "id": 9319943, "clee": "31050487110000341011000000U6", "nom_estab": "SERVICIO DE TRANSPORTE TURISUR", "raz_social": null, "codigo_act": "485210", "nombre_act": "Transporte colectivo foráneo de pasajeros de ruta fija", "per_ocu": "6 a 10 personas", "tipo_vial": "CALLE", "nom_vial": "120", "tipo_v_e_1": "CALLE", "nom_v_e_1": "79", "tipo_v_e_2": "CALLE", "nom_v_e_2": "77", "tipo_v_e_3": "CALLE", "nom_v_e_3": "120 A", "numero_ext": "1107", "letra_ext": "A", "edificio": null, "edificio_e": null, "numero_int": null, "letra_int": null, "tipo_asent": "COLONIA", "nomb_asent": "PLANTEL MEXICO", "tipoCenCom": null, "nom_CenCom": null, "num_local": null, "cod_postal": "97249", "cve_ent": "31", "entidad": "Yucat?n", "cve_mun": "050", "municipio": "M?rida", "cve_loc": "0001", "localidad": "M?rida", "ageb": "4693", "manzana": "026", "telefono": null, "correoelec": "TURISURYUCATAN@GMAIL.COM", "www": null, "tipoUniEco": "Fijo", "latitud": 20.95129607, "longitud": -89.66355692, "fecha_alta": "2020-11" }, "geometry": { "type": "Point", "coordinates": [ -89.66355692, 20.95129607 ] } },
{ "type": "Feature", "properties": { "id": 9524956, "clee": "31050485210000622000016361S8", "nom_estab": "ADO SUCURSAL PASEO 60", "raz_social": "ADO Y EMPRESAS COORDINADAS", "codigo_act": "485210", "nombre_act": "Transporte colectivo foráneo de pasajeros de ruta fija", "per_ocu": "6 a 10 personas", "tipo_vial": "CALLE", "nom_vial": "60", "tipo_v_e_1": "AVENIDA", "nom_v_e_1": "COLON (33A)", "tipo_v_e_2": "CALLE", "nom_v_e_2": "35", "tipo_v_e_3": "AVENIDA", "nom_v_e_3": "PASEO DE MONTEJO", "numero_ext": "346", "letra_ext": null, "edificio": null, "edificio_e": "1", "numero_int": null, "letra_int": null, "tipo_asent": "COLONIA", "nomb_asent": "CENTRO", "tipoCenCom": "CENTRO Y PLAZA COMERCIAL", "nom_CenCom": "PASEO 60", "num_local": "SN", "cod_postal": "97000", "cve_ent": "31", "entidad": "Yucat?n", "cve_mun": "050", "municipio": "M?rida", "cve_loc": "0001", "localidad": "M?rida", "ageb": "0224", "manzana": "010", "telefono": null, "correoelec": "MOVILITYADO@HOTMAIL.COM", "www": null, "tipoUniEco": "Fijo", "latitud": 20.98417942, "longitud": -89.62007609, "fecha_alta": "2024-11" }, "geometry": { "type": "Point", "coordinates": [ -89.62007609, 20.98417942 ] } },
{ "type": "Feature", "properties": { "id": 9784453, "clee": "31050485111001111000016361S1", "nom_estab": "ADO", "raz_social": "ADO Y EMPRESAS COORDINADAS", "codigo_act": "485210", "nombre_act": "Transporte colectivo foráneo de pasajeros de ruta fija", "per_ocu": "0 a 5 personas", "tipo_vial": "AVENIDA", "nom_vial": "MERIDA 2000 51", "tipo_v_e_1": "CALLE", "nom_v_e_1": "42", "tipo_v_e_2": "CALLE", "nom_v_e_2": "24", "tipo_v_e_3": "CERRADA", "nom_v_e_3": "5 D", "numero_ext": null, "letra_ext": "SN", "edificio": null, "edificio_e": null, "numero_int": null, "letra_int": null, "tipo_asent": "FRACCIONAMIENTO", "nomb_asent": "FRANCISCO DE MONTEJO", "tipoCenCom": null, "nom_CenCom": null, "num_local": null, "cod_postal": "97203", "cve_ent": "31", "entidad": "Yucat?n", "cve_mun": "050", "municipio": "M?rida", "cve_loc": "0001", "localidad": "M?rida", "ageb": "4570", "manzana": "035", "telefono": "9999240830", "correoelec": null, "www": "WWW.ADO.COM.MX", "tipoUniEco": "Fijo", "latitud": 21.03045732, "longitud": -89.63923974, "fecha_alta": "2024-11" }, "geometry": { "type": "Point", "coordinates": [ -89.63923974, 21.03045732 ] } },
{ "type": "Feature", "properties": { "id": 9815525, "clee": "31050485111001032000000000U9", "nom_estab": "ENCIERRO DE CAMIONES", "raz_social": null, "codigo_act": "485111", "nombre_act": "Transporte colectivo urbano y suburbano de pasajeros en autobuses de ruta fija", "per_ocu": "6 a 10 personas", "tipo_vial": "AVENIDA", "nom_vial": "JUAN PABLO II 65 A", "tipo_v_e_1": "CALLE", "nom_v_e_1": "116 A", "tipo_v_e_2": "CALLE", "nom_v_e_2": "118", "tipo_v_e_3": "CALLE", "nom_v_e_3": "65", "numero_ext": "865", "letra_ext": null, "edificio": null, "edificio_e": null, "numero_int": null, "letra_int": null, "tipo_asent": "COLONIA", "nomb_asent": "LA REJA", "tipoCenCom": null, "nom_CenCom": null, "num_local": null, "cod_postal": "97246", "cve_ent": "31", "entidad": "Yucat?n", "cve_mun": "050", "municipio": "M?rida", "cve_loc": "0001", "localidad": "M?rida", "ageb": "4176", "manzana": "021", "telefono": null, "correoelec": "MINYUC2011@HOTMAIL.COM", "www": null, "tipoUniEco": "Fijo", "latitud": 20.96204899, "longitud": -89.66044156, "fecha_alta": "2024-11" }, "geometry": { "type": "Point", "coordinates": [ -89.66044156, 20.96204899 ] } },
{ "type": "Feature", "properties": { "id": 9824311, "clee": "31050485111001042000000000U8", "nom_estab": "SITIO TAXIS CELESTUN", "raz_social": null, "codigo_act": "485210", "nombre_act": "Transporte colectivo foráneo de pasajeros de ruta fija", "per_ocu": "6 a 10 personas", "tipo_vial": "CALLE", "nom_vial": "67", "tipo_v_e_1": "CALLE", "nom_v_e_1": "48", "tipo_v_e_2": "CALLE", "nom_v_e_2": "46", "tipo_v_e_3": "CALLE", "nom_v_e_3": "69", "numero_ext": "454", "letra_ext": "C", "edificio": null, "edificio_e": null, "numero_int": null, "letra_int": null, "tipo_asent": "COLONIA", "nomb_asent": "CENTRO", "tipoCenCom": null, "nom_CenCom": null, "num_local": null, "cod_postal": "97000", "cve_ent": "31", "entidad": "Yucat?n", "cve_mun": "050", "municipio": "M?rida", "cve_loc": "0001", "localidad": "M?rida", "ageb": "0525", "manzana": "004", "telefono": "9992552839", "correoelec": null, "www": null, "tipoUniEco": "Fijo", "latitud": 20.96160564, "longitud": -89.61617574, "fecha_alta": "2024-11" }, "geometry": { "type": "Point", "coordinates": [ -89.61617574, 20.96160564 ] } },
{ "type": "Feature", "properties": { "id": 10046067, "clee": "31050485111001071000000000U7", "nom_estab": "RESGUARDO DE CAMIONES", "raz_social": "ALIANZA DE CAMIONEROS", "codigo_act": "485111", "nombre_act": "Transporte colectivo urbano y suburbano de pasajeros en autobuses de ruta fija", "per_ocu": "0 a 5 personas", "tipo_vial": "CALLE", "nom_vial": "109", "tipo_v_e_1": "CALLE", "nom_v_e_1": "64 K", "tipo_v_e_2": "CALLE", "nom_v_e_2": "66", "tipo_v_e_3": "CALLE", "nom_v_e_3": "107", "numero_ext": "601", "letra_ext": null, "edificio": null, "edificio_e": null, "numero_int": null, "letra_int": null, "tipo_asent": "COLONIA", "nomb_asent": "MELITON SALAZAR", "tipoCenCom": null, "nom_CenCom": null, "num_local": null, "cod_postal": "97269", "cve_ent": "31", "entidad": "Yucat?n", "cve_mun": "050", "municipio": "M?rida", "cve_loc": "0001", "localidad": "M?rida", "ageb": "4138", "manzana": "018", "telefono": null, "correoelec": null, "www": null, "tipoUniEco": "Fijo", "latitud": 20.93980711, "longitud": -89.64275832, "fecha_alta": "2024-11" }, "geometry": { "type": "Point", "coordinates": [ -89.64275832, 20.93980711 ] } },
{ "type": "Feature", "properties": { "id": 10294707, "clee": "31050485111001101000063126S2", "nom_estab": "AUTOBUSES ADO", "raz_social": "AUTOBUSES DE ORIENTE", "codigo_act": "485210", "nombre_act": "Transporte colectivo foráneo de pasajeros de ruta fija", "per_ocu": "0 a 5 personas", "tipo_vial": "AVENIDA", "nom_vial": "QUETZALCOATL 65", "tipo_v_e_1": "CIRCUITO", "nom_v_e_1": "COLONIAS (4)", "tipo_v_e_2": "CALLE", "nom_v_e_2": "2 B (20)", "tipo_v_e_3": "CALLE", "nom_v_e_3": "63 C", "numero_ext": "199", "letra_ext": "22", "edificio": null, "edificio_e": "17", "numero_int": null, "letra_int": null, "tipo_asent": "COLONIA", "nomb_asent": "CORT?S SARMIENTO", "tipoCenCom": "CENTRO Y PLAZA COMERCIAL", "nom_CenCom": "PLAZA ORIENTE", "num_local": "12 B", "cod_postal": "97167", "cve_ent": "31", "entidad": "Yucat?n", "cve_mun": "050", "municipio": "M?rida", "cve_loc": "0001", "localidad": "M?rida", "ageb": "1773", "manzana": "027", "telefono": null, "correoelec": null, "www": null, "tipoUniEco": "Fijo", "latitud": 20.95942855, "longitud": -89.59146494, "fecha_alta": "2024-11" }, "geometry": { "type": "Point", "coordinates": [ -89.59146494, 20.95942855 ] } },
{ "type": "Feature", "properties": { "id": 10372869, "clee": "31050485111001131000000000U9", "nom_estab": "SITIO DE TAXIS MERIDA TEKAX AKIL", "raz_social": "FRENTE UNICO DE TRABAJADORES DEL VOLANTE DE MERIDA YUCATAN", "codigo_act": "485111", "nombre_act": "Transporte colectivo urbano y suburbano de pasajeros en autobuses de ruta fija", "per_ocu": "0 a 5 personas", "tipo_vial": "CALLE", "nom_vial": "62", "tipo_v_e_1": "CALLE", "nom_v_e_1": "69", "tipo_v_e_2": "CALLE", "nom_v_e_2": "67", "tipo_v_e_3": "CALLE", "nom_v_e_3": "60", "numero_ext": "544", "letra_ext": null, "edificio": null, "edificio_e": null, "numero_int": null, "letra_int": null, "tipo_asent": "COLONIA", "nomb_asent": "CENTRO", "tipoCenCom": null, "nom_CenCom": null, "num_local": null, "cod_postal": "97000", "cve_ent": "31", "entidad": "Yucat?n", "cve_mun": "050", "municipio": "M?rida", "cve_loc": "0001", "localidad": "M?rida", "ageb": "0506", "manzana": "027", "telefono": null, "correoelec": null, "www": null, "tipoUniEco": "Fijo", "latitud": 20.9627848, "longitud": -89.62519298, "fecha_alta": "2024-11" }, "geometry": { "type": "Point", "coordinates": [ -89.62519298, 20.9627848 ] } },
{ "type": "Feature", "properties": { "id": 10859006, "clee": "31050813120000211000000000U4", "nom_estab": "SITIO DE COLECTIVOS PROGRESO", "raz_social": "FRENTE UNICO DE CHOFERES CAMIONEROS Y SIMILARES DEL MUNICIPIO DE PROGRESO", "codigo_act": "485210", "nombre_act": "Transporte colectivo foráneo de pasajeros de ruta fija", "per_ocu": "31 a 50 personas", "tipo_vial": "CALLE", "nom_vial": "60", "tipo_v_e_1": "CALLE", "nom_v_e_1": "65", "tipo_v_e_2": "CALLE", "nom_v_e_2": "67", "tipo_v_e_3": "CALLE", "nom_v_e_3": "58", "numero_ext": "598", "letra_ext": null, "edificio": null, "edificio_e": null, "numero_int": null, "letra_int": null, "tipo_asent": "COLONIA", "nomb_asent": "CENTRO", "tipoCenCom": null, "nom_CenCom": null, "num_local": null, "cod_postal": "97000", "cve_ent": "31", "entidad": "Yucat?n", "cve_mun": "050", "municipio": "M?rida", "cve_loc": "0001", "localidad": "M?rida", "ageb": "0510", "manzana": "022", "telefono": "9999687230", "correoelec": null, "www": null, "tipoUniEco": "Fijo", "latitud": 20.96400099, "longitud": -89.6236746, "fecha_alta": "2024-11" }, "geometry": { "type": "Point", "coordinates": [ -89.623674600000015, 20.96400099 ] } },
{ "type": "Feature", "properties": { "id": 11302677, "clee": "31050485111001053000000000U5", "nom_estab": "SITIO DE TAXIS IZAMAL", "raz_social": "AGRUPACION AGREGADOS SINDICATO FRENTE UNICO DEL TRABAJADOR DEL VOLANTE", "codigo_act": "485111", "nombre_act": "Transporte colectivo urbano y suburbano de pasajeros en autobuses de ruta fija", "per_ocu": "11 a 30 personas", "tipo_vial": "CALLE", "nom_vial": "50", "tipo_v_e_1": "CALLE", "nom_v_e_1": "65", "tipo_v_e_2": "CALLE", "nom_v_e_2": "63", "tipo_v_e_3": "CALLE", "nom_v_e_3": "48", "numero_ext": null, "letra_ext": "SN", "edificio": null, "edificio_e": null, "numero_int": null, "letra_int": null, "tipo_asent": "COLONIA", "nomb_asent": "CENTRO", "tipoCenCom": null, "nom_CenCom": null, "num_local": null, "cod_postal": "97000", "cve_ent": "31", "entidad": "Yucat?n", "cve_mun": "050", "municipio": "M?rida", "cve_loc": "0001", "localidad": "M?rida", "ageb": "0525", "manzana": "015", "telefono": null, "correoelec": null, "www": null, "tipoUniEco": "Fijo", "latitud": 20.96463544, "longitud": -89.61692946, "fecha_alta": "2024-11" }, "geometry": { "type": "Point", "coordinates": [ -89.61692946, 20.96463544 ] } },
{ "type": "Feature", "properties": { "id": 11311912, "clee": "31050485111001084000000000U0", "nom_estab": "OFICINAS DE PERMISIONARIOS REFORMA Y CENTENARIO", "raz_social": "PERMISIONARIOS REFORMA Y CENTENARIO", "codigo_act": "485111", "nombre_act": "Transporte colectivo urbano y suburbano de pasajeros en autobuses de ruta fija", "per_ocu": "31 a 50 personas", "tipo_vial": "AVENIDA", "nom_vial": "MADERO 31", "tipo_v_e_1": "CALLE", "nom_v_e_1": "36", "tipo_v_e_2": "CALLE", "nom_v_e_2": "34", "tipo_v_e_3": "CALLE", "nom_v_e_3": "33", "numero_ext": "208", "letra_ext": "A", "edificio": null, "edificio_e": null, "numero_int": null, "letra_int": null, "tipo_asent": "COLONIA", "nomb_asent": "FRANCISCO I MADERO", "tipoCenCom": null, "nom_CenCom": null, "num_local": null, "cod_postal": "97240", "cve_ent": "31", "entidad": "Yucat?n", "cve_mun": "050", "municipio": "M?rida", "cve_loc": "0001", "localidad": "M?rida", "ageb": "263A", "manzana": "005", "telefono": "9991051746", "correoelec": "PERMI_REFORMA@YAHOO.COM.MX", "www": null, "tipoUniEco": "Fijo", "latitud": 20.97079679, "longitud": -89.65893975, "fecha_alta": "2024-11" }, "geometry": { "type": "Point", "coordinates": [ -89.65893975, 20.97079679 ] } },
{ "type": "Feature", "properties": { "id": 11492733, "clee": "31050487110000412000000000U4", "nom_estab": "OMNIBUS DE MERIDA", "raz_social": "OMNIBUS DE MERIDA", "codigo_act": "485210", "nombre_act": "Transporte colectivo foráneo de pasajeros de ruta fija", "per_ocu": "6 a 10 personas", "tipo_vial": "CALLE", "nom_vial": "66", "tipo_v_e_1": "CALLE", "nom_v_e_1": "107", "tipo_v_e_2": "CALLE", "nom_v_e_2": "109 B", "tipo_v_e_3": "CALLE", "nom_v_e_3": "66 B", "numero_ext": "741", "letra_ext": "C", "edificio": null, "edificio_e": null, "numero_int": null, "letra_int": null, "tipo_asent": "COLONIA", "nomb_asent": "OBRERA", "tipoCenCom": null, "nom_CenCom": null, "num_local": null, "cod_postal": "97260", "cve_ent": "31", "entidad": "Yucat?n", "cve_mun": "050", "municipio": "M?rida", "cve_loc": "0001", "localidad": "M?rida", "ageb": "3271", "manzana": "008", "telefono": null, "correoelec": "RECEPCIONME@ODA.COM", "www": null, "tipoUniEco": "Fijo", "latitud": 20.94021593, "longitud": -89.64310437, "fecha_alta": "2024-11" }, "geometry": { "type": "Point", "coordinates": [ -89.64310437, 20.94021593 ] } },
{ "type": "Feature", "properties": { "id": 11565396, "clee": "31050485111001095000000000U6", "nom_estab": "TERMINAL ADO MERIDA CENTRO HISTORICO", "raz_social": "MOVILIDAD URBANA MERIDA", "codigo_act": "485111", "nombre_act": "Transporte colectivo urbano y suburbano de pasajeros en autobuses de ruta fija", "per_ocu": "51 a 100 personas", "tipo_vial": "CALLE", "nom_vial": "70", "tipo_v_e_1": "CALLE", "nom_v_e_1": "71", "tipo_v_e_2": "CALLE", "nom_v_e_2": "69", "tipo_v_e_3": "CALLE", "nom_v_e_3": "71", "numero_ext": "554", "letra_ext": null, "edificio": null, "edificio_e": null, "numero_int": null, "letra_int": null, "tipo_asent": "COLONIA", "nomb_asent": "CENTRO", "tipoCenCom": null, "nom_CenCom": null, "num_local": null, "cod_postal": "97000", "cve_ent": "31", "entidad": "Yucat?n", "cve_mun": "050", "municipio": "M?rida", "cve_loc": "0001", "localidad": "M?rida", "ageb": "0506", "manzana": "018", "telefono": null, "correoelec": null, "www": null, "tipoUniEco": "Fijo", "latitud": 20.96294143, "longitud": -89.63059012, "fecha_alta": "2024-11" }, "geometry": { "type": "Point", "coordinates": [ -89.63059012, 20.96294143 ] } },
{ "type": "Feature", "properties": { "id": 11743189, "clee": "31050488491000056000061263S2", "nom_estab": "SERVICIOS DE MANTENIMIENTO ORIENTE", "raz_social": "SERVICIOS DE MANTENIMIENTO ORIENTE", "codigo_act": "488491", "nombre_act": "Servicios de administración de centrales camioneras", "per_ocu": "101 a 250 personas", "tipo_vial": "CALLE", "nom_vial": "69", "tipo_v_e_1": "CALLE", "nom_v_e_1": "70", "tipo_v_e_2": "CALLE", "nom_v_e_2": "68", "tipo_v_e_3": "CALLE", "nom_v_e_3": "71", "numero_ext": "554", "letra_ext": null, "edificio": null, "edificio_e": null, "numero_int": null, "letra_int": null, "tipo_asent": "COLONIA", "nomb_asent": "CENTRO", "tipoCenCom": null, "nom_CenCom": null, "num_local": null, "cod_postal": "97000", "cve_ent": "31", "entidad": "Yucat?n", "cve_mun": "050", "municipio": "M?rida", "cve_loc": "0001", "localidad": "M?rida", "ageb": "0506", "manzana": "018", "telefono": null, "correoelec": "INFORMATION@MOBILITYADO.COM", "www": null, "tipoUniEco": "Fijo", "latitud": 20.96295772, "longitud": -89.62996845000001, "fecha_alta": "2025-04" }, "geometry": { "type": "Point", "coordinates": [ -89.62996845, 20.96295772 ] } },
{ "type": "Feature", "properties": { "id": 12270625, "clee": "31050485111001163000000000U2", "nom_estab": "TRANSPORTE ESPECIALIZADO BAU", "raz_social": "TRANSPORTE ESPECIALIZADO BAU", "codigo_act": "485111", "nombre_act": "Transporte colectivo urbano y suburbano de pasajeros en autobuses de ruta fija", "per_ocu": "11 a 30 personas", "tipo_vial": "CALLE", "nom_vial": "79 A", "tipo_v_e_1": "CALLE", "nom_v_e_1": "140 DIAGONAL", "tipo_v_e_2": "PRIVADA", "nom_v_e_2": "140 A", "tipo_v_e_3": "CALLE", "nom_v_e_3": "NINGUNO", "numero_ext": "14218", "letra_ext": null, "edificio": null, "edificio_e": null, "numero_int": null, "letra_int": null, "tipo_asent": "COLONIA", "nomb_asent": "TIXCACAL OPICHEN", "tipoCenCom": null, "nom_CenCom": null, "num_local": null, "cod_postal": "97249", "cve_ent": "31", "entidad": "Yucat?n", "cve_mun": "050", "municipio": "M?rida", "cve_loc": "0001", "localidad": "M?rida", "ageb": "5511", "manzana": "004", "telefono": "9994920520", "correoelec": "FACTURACION@TRANSPORTESBAU.COM.MX", "www": null, "tipoUniEco": "Fijo", "latitud": 20.95005376, "longitud": -89.68411981, "fecha_alta": "2026-04" }, "geometry": { "type": "Point", "coordinates": [ -89.68411981, 20.95005376 ] } },
{ "type": "Feature", "properties": { "id": 12270626, "clee": "31050485111001172000000000U3", "nom_estab": "MODULO DE CREDENCIALIZACION DE VA Y VEN", "raz_social": "AGENCIA DE TRANSPORTE DE YUCATAN", "codigo_act": "485111", "nombre_act": "Transporte colectivo urbano y suburbano de pasajeros en autobuses de ruta fija", "per_ocu": "6 a 10 personas", "tipo_vial": "CALLE", "nom_vial": "56", "tipo_v_e_1": "CALLE", "nom_v_e_1": "56", "tipo_v_e_2": "CALLE", "nom_v_e_2": "69", "tipo_v_e_3": "CALLE", "nom_v_e_3": "56", "numero_ext": null, "letra_ext": "SN", "edificio": null, "edificio_e": null, "numero_int": null, "letra_int": null, "tipo_asent": "COLONIA", "nomb_asent": "CENTRO", "tipoCenCom": null, "nom_CenCom": null, "num_local": null, "cod_postal": "97000", "cve_ent": "31", "entidad": "Yucat?n", "cve_mun": "050", "municipio": "M?rida", "cve_loc": "0001", "localidad": "M?rida", "ageb": "0510", "manzana": "005", "telefono": null, "correoelec": null, "www": null, "tipoUniEco": "Fijo", "latitud": 20.96241077, "longitud": -89.62123305, "fecha_alta": "2026-04" }, "geometry": { "type": "Point", "coordinates": [ -89.62123305, 20.96241077 ] } },
{ "type": "Feature", "properties": { "id": 12270665, "clee": "31050485111001155000000000U8", "nom_estab": "MINIBUSES DEL PONIENTE", "raz_social": "MINIBUSES DEL PONIENTE", "codigo_act": "485111", "nombre_act": "Transporte colectivo urbano y suburbano de pasajeros en autobuses de ruta fija", "per_ocu": "51 a 100 personas", "tipo_vial": "CALLE", "nom_vial": "136", "tipo_v_e_1": "CALLE", "nom_v_e_1": "73", "tipo_v_e_2": "CALLE", "nom_v_e_2": "NINGUNO", "tipo_v_e_3": "CALLE", "nom_v_e_3": "138", "numero_ext": "1105", "letra_ext": "A", "edificio": null, "edificio_e": null, "numero_int": null, "letra_int": null, "tipo_asent": "COLONIA", "nomb_asent": "SUSULA XOCLAN", "tipoCenCom": null, "nom_CenCom": null, "num_local": null, "cod_postal": "97246", "cve_ent": "31", "entidad": "Yucat?n", "cve_mun": "050", "municipio": "M?rida", "cve_loc": "0001", "localidad": "M?rida", "ageb": "4689", "manzana": "018", "telefono": "9993406975", "correoelec": "CIRCUITOPTEADMON@HOTMAIL.COM", "www": null, "tipoUniEco": "Fijo", "latitud": 20.95562101, "longitud": -89.67541676, "fecha_alta": "2026-04" }, "geometry": { "type": "Point", "coordinates": [ -89.67541676, 20.95562101 ] } },
{ "type": "Feature", "properties": { "id": 12270852, "clee": "31050485111001061000000000U8", "nom_estab": "ENCIERRO DE CAMIONES DE LA ALIANZA", "raz_social": "ALIANZA DE CAMIONEROS", "codigo_act": "485111", "nombre_act": "Transporte colectivo urbano y suburbano de pasajeros en autobuses de ruta fija", "per_ocu": "0 a 5 personas", "tipo_vial": "CALLE", "nom_vial": "125", "tipo_v_e_1": "CALLE", "nom_v_e_1": "50", "tipo_v_e_2": "CALLE", "nom_v_e_2": "48", "tipo_v_e_3": "CALLE", "nom_v_e_3": "123", "numero_ext": "497", "letra_ext": null, "edificio": null, "edificio_e": null, "numero_int": null, "letra_int": null, "tipo_asent": "COLONIA", "nomb_asent": "CINCO COLONIAS", "tipoCenCom": null, "nom_CenCom": null, "num_local": null, "cod_postal": "97280", "cve_ent": "31", "entidad": "Yucat?n", "cve_mun": "050", "municipio": "M?rida", "cve_loc": "0001", "localidad": "M?rida", "ageb": "3144", "manzana": "011", "telefono": null, "correoelec": null, "www": null, "tipoUniEco": "Fijo", "latitud": 20.92957169, "longitud": -89.6202139, "fecha_alta": "2026-04" }, "geometry": { "type": "Point", "coordinates": [ -89.6202139, 20.92957169 ] } },
{ "type": "Feature", "properties": { "id": 12271105, "clee": "31050485111001187000000000U1", "nom_estab": "CAMIONEROS ALIADOS", "raz_social": "CAMIONEROS ALIADOS", "codigo_act": "485111", "nombre_act": "Transporte colectivo urbano y suburbano de pasajeros en autobuses de ruta fija", "per_ocu": "251 y m?s personas", "tipo_vial": "CALLE", "nom_vial": "73", "tipo_v_e_1": "CALLE", "nom_v_e_1": "62", "tipo_v_e_2": "CALLE", "nom_v_e_2": "64", "tipo_v_e_3": "CALLE", "nom_v_e_3": "75", "numero_ext": "512", "letra_ext": null, "edificio": null, "edificio_e": null, "numero_int": null, "letra_int": null, "tipo_asent": "CIUDAD", "nomb_asent": "CENTRO", "tipoCenCom": null, "nom_CenCom": null, "num_local": null, "cod_postal": "97000", "cve_ent": "31", "entidad": "Yucat?n", "cve_mun": "050", "municipio": "M?rida", "cve_loc": "0001", "localidad": "M?rida", "ageb": "0614", "manzana": "023", "telefono": null, "correoelec": "CAMIONEROSALIADOS@GMAIL.COM", "www": null, "tipoUniEco": "Fijo", "latitud": 20.96007795, "longitud": -89.62659888, "fecha_alta": "2026-04" }, "geometry": { "type": "Point", "coordinates": [ -89.62659888, 20.96007795 ] } },
{ "type": "Feature", "properties": { "id": 12271423, "clee": "31050485210000642000000000U6", "nom_estab": "SAG", "raz_social": "SERVICIO Y AUTOBUSES DEL GOLFO", "codigo_act": "485210", "nombre_act": "Transporte colectivo foráneo de pasajeros de ruta fija", "per_ocu": "6 a 10 personas", "tipo_vial": "CALLE", "nom_vial": "65", "tipo_v_e_1": "CALLE", "nom_v_e_1": "70", "tipo_v_e_2": "CALLE", "nom_v_e_2": "68", "tipo_v_e_3": "CALLE", "nom_v_e_3": "67", "numero_ext": "546", "letra_ext": null, "edificio": null, "edificio_e": null, "numero_int": null, "letra_int": null, "tipo_asent": "COLONIA", "nomb_asent": "CENTRO HISTORICO", "tipoCenCom": null, "nom_CenCom": null, "num_local": null, "cod_postal": "97000", "cve_ent": "31", "entidad": "Yucat?n", "cve_mun": "050", "municipio": "M?rida", "cve_loc": "0001", "localidad": "M?rida", "ageb": "0506", "manzana": "006", "telefono": null, "correoelec": null, "www": null, "tipoUniEco": "Fijo", "latitud": 20.96638759, "longitud": -89.62942543, "fecha_alta": "2026-04" }, "geometry": { "type": "Point", "coordinates": [ -89.62942543, 20.96638759 ] } }
]
}
